{
"type": "FeatureCollection",
"name": "area_centolla_S4",
"crs": { "type": "name", "properties": { "name": "urn:ogc:def:crs:OGC:1.3:CRS84" } },
"features": [
{ "type": "Feature", "properties": { "FID": 0 }, "geometry": { "type": "MultiLineString", "coordinates": [ [ [ -66.367757126494482, -54.5 ], [ -66.380645742999945, -54.49426578799995 ], [ -66.383560581999973, -54.491469920999975 ], [ -66.382965716999934, -54.490280189999964 ], [ -66.384036474999959, -54.487008431999982 ], [ -66.401228079999953, -54.48504537599996 ], [ -66.402536783999949, -54.486294592999968 ], [ -66.409258760999933, -54.486354079999956 ], [ -66.415742792999936, -54.48421256499995 ], [ -66.423059634999959, -54.480286453999952 ], [ -66.460429069999975, -54.479824838999946 ], [ -66.470280038999988, -54.476350825999987 ], [ -66.471374590999972, -54.473590650999938 ], [ -66.470422806999977, -54.472924401999933 ], [ -66.475372084999947, -54.472258152999984 ], [ -66.47475342599995, -54.471734670999979 ], [ -66.481653861999973, -54.469545566999955 ], [ -66.488887423999984, -54.462407183999971 ], [ -66.496216163999975, -54.451223717999937 ], [ -66.502164815999947, -54.445846135999943 ], [ -66.529052725999975, -54.434615079999958 ], [ -66.546034569999961, -54.424955580999949 ], [ -66.552221168999949, -54.420529782999949 ], [ -66.555600003999984, -54.41596121799995 ], [ -66.557122858999946, -54.411678187999939 ], [ -66.556742144999987, -54.409822208999969 ], [ -66.553886791999957, -54.409108370999945 ], [ -66.551221794999947, -54.404301858999986 ], [ -66.543845465999937, -54.403635609999981 ], [ -66.54322680599995, -54.403112128999965 ], [ -66.544131001999972, -54.402398289999951 ], [ -66.549889296999936, -54.402969360999975 ], [ -66.555409646999976, -54.401827219999973 ], [ -66.565260614999943, -54.397211065999954 ], [ -66.574017031999972, -54.392023840999968 ], [ -66.582678269999974, -54.389358843999958 ], [ -66.595051466999962, -54.383648137999955 ], [ -66.624604372999954, -54.366801553999949 ], [ -66.631790344999956, -54.361661917999982 ], [ -66.634693287999937, -54.358378261999974 ], [ -66.634455340999978, -54.356807817999936 ], [ -66.642307562999974, -54.354000053999982 ], [ -66.644639434999988, -54.351858538999977 ], [ -66.651206746999947, -54.349288720999937 ], [ -66.661010125999951, -54.343435246999945 ], [ -66.675096534999966, -54.329158480999979 ], [ -66.680854830999976, -54.322020097999939 ], [ -66.687945624999941, -54.315357606999953 ], [ -66.688611873999946, -54.314072697999961 ], [ -66.687564910999981, -54.31116975599997 ], [ -66.683948129999976, -54.307838509999954 ], [ -66.684328843999936, -54.306077708999965 ], [ -66.688183570999968, -54.305934940999975 ], [ -66.690467852999973, -54.306886725999959 ], [ -66.691467226999976, -54.308076455999981 ], [ -66.687231786999973, -54.308599937999986 ], [ -66.687279375999935, -54.309646899999962 ], [ -66.68956365799994, -54.311598058999948 ], [ -66.691324458999986, -54.311598058999948 ], [ -66.698938734999956, -54.305173513999932 ], [ -66.700271232999967, -54.302746463999938 ], [ -66.699319447999983, -54.300700126999971 ], [ -66.694608115999984, -54.300367002999963 ], [ -66.692466600999978, -54.298939325999982 ], [ -66.697415879999937, -54.299700752999968 ], [ -66.699938107999969, -54.298748968999973 ], [ -66.703792834999945, -54.294370760999982 ], [ -66.704601851999939, -54.290896747999966 ], [ -66.703316942999948, -54.289278713999977 ], [ -66.699224269999945, -54.289516659999947 ], [ -66.693275616999983, -54.287803447999977 ], [ -66.690087139999946, -54.285186040999974 ], [ -66.690943745999959, -54.282901758999969 ], [ -66.696511683999972, -54.282425866999972 ], [ -66.704839797999966, -54.283853542999964 ], [ -66.724208610999938, -54.27995122699997 ], [ -66.733916810999972, -54.276477213999954 ], [ -66.737486002999958, -54.273669449999943 ], [ -66.738009483999974, -54.270909274999951 ], [ -66.741197961999944, -54.268529813999976 ], [ -66.742102156999977, -54.265959995999935 ], [ -66.74172144399995, -54.26358053499996 ], [ -66.740626891999966, -54.262152858999968 ], [ -66.734821006999937, -54.262676339999985 ], [ -66.733440918999975, -54.261534198999982 ], [ -66.73396440099998, -54.260344467999971 ], [ -66.739151625999966, -54.259583040999985 ], [ -66.74319670899996, -54.261391430999936 ], [ -66.745005099999958, -54.260725181999931 ], [ -66.746099651999941, -54.259249915999931 ], [ -66.743767779999985, -54.258345720999955 ], [ -66.746194829999979, -54.255252421999955 ], [ -66.750097145999973, -54.254062690999945 ], [ -66.752476606999949, -54.252397068999983 ], [ -66.756521690999932, -54.25311090699995 ], [ -66.763755251999953, -54.251064570999972 ], [ -66.76841899599998, -54.247590556999967 ], [ -66.773653809999985, -54.247638146999975 ], [ -66.774843540999939, -54.246353237999983 ], [ -66.778603088999944, -54.244782792999956 ], [ -66.784408973999973, -54.245306274999962 ], [ -66.849558615999968, -54.226889246999974 ], [ -66.853984413999967, -54.226889246999974 ], [ -66.861979402999964, -54.223653179999985 ], [ -66.882680713999946, -54.221606842999961 ], [ -66.888343830999986, -54.219703273999983 ], [ -66.895006321999972, -54.219179792999967 ], [ -66.899955599999942, -54.217514169999959 ], [ -66.918562985999984, -54.207996325999943 ], [ -66.92679592099995, -54.202475976999949 ], [ -66.940977507999946, -54.197859821999941 ], [ -66.947639998999932, -54.194480987999953 ], [ -66.950400173999981, -54.192291883999985 ], [ -66.950828476999959, -54.190673849999939 ], [ -66.948971874999984, -54.188633740999933 ], [ -66.949924281999984, -54.184534840999959 ], [ -66.954683203999934, -54.181917433999956 ], [ -66.967770238999947, -54.176444672999935 ], [ -66.979217032999941, -54.173239935999959 ], [ -66.985927112999946, -54.169861100999981 ], [ -66.996920222999961, -54.166815390999943 ], [ -67.000394235999977, -54.164911821999965 ], [ -67.00163155599995, -54.162484771999971 ], [ -67.00310682099996, -54.161437808999949 ], [ -67.008056099999976, -54.160771559999944 ], [ -67.013528860999941, -54.157202368999947 ], [ -67.026235181999937, -54.15501326499998 ], [ -67.028947767999966, -54.152728981999985 ], [ -67.037951913999962, -54.152028670999982 ], [ -67.043502496999963, -54.148791865999954 ], [ -67.053656742999976, -54.145057480999981 ], [ -67.071467928999937, -54.140671542999939 ], [ -67.081295909999938, -54.131980081999984 ], [ -67.084912690999943, -54.130837940999982 ], [ -67.09547749799998, -54.132218027999954 ], [ -67.108469354999954, -54.129886155999941 ], [ -67.11798719899997, -54.130695172999935 ], [ -67.123533423999959, -54.130362202999947 ], [ -67.140258953999933, -54.123794735999979 ], [ -67.15672482399998, -54.115704568999945 ], [ -67.160960263999982, -54.116037692999953 ], [ -67.159722944999942, -54.117417780999972 ], [ -67.161959637999985, -54.118559921999974 ], [ -67.161007853999934, -54.119749652999985 ], [ -67.162102405999974, -54.120320722999963 ], [ -67.164386687999979, -54.119797241999947 ], [ -67.165195704999974, -54.118607510999936 ], [ -67.164434277999987, -54.117941261999931 ], [ -67.164862580999966, -54.116846709999948 ], [ -67.159770533999961, -54.114610016999961 ], [ -67.158818749999966, -54.111611895999943 ], [ -67.163244546999977, -54.112420912999937 ], [ -67.165005347999966, -54.111992609999959 ], [ -67.172143730999949, -54.108613774999981 ], [ -67.197556374999976, -54.100333250999938 ], [ -67.215592688999948, -54.092861742999958 ], [ -67.25104665799995, -54.081059616999937 ], [ -67.283692862999942, -54.063023301999976 ], [ -67.285168128999942, -54.059787234999931 ], [ -67.284454290999975, -54.058026433999942 ], [ -67.287642767999955, -54.05650357899998 ], [ -67.289498747999971, -54.056979470999977 ], [ -67.29125954899996, -54.056455989999961 ], [ -67.292354100999944, -54.054933134999942 ], [ -67.29568534699996, -54.055218669999931 ], [ -67.314435498999956, -54.049555552999948 ], [ -67.329711638999981, -54.041370206999943 ], [ -67.337183146999962, -54.035326375999944 ], [ -67.345035367999969, -54.024571211999955 ], [ -67.34489259999998, -54.021144787999958 ], [ -67.34379804799994, -54.019003273999942 ], [ -67.339752963999956, -54.017004525999937 ], [ -67.334803685999987, -54.017908721999959 ], [ -67.33456573899997, -54.016861758999937 ], [ -67.335850647999962, -54.016195509999932 ], [ -67.347176882999975, -54.013292566999951 ], [ -67.365355964999935, -54.004203025999971 ], [ -67.374064791999956, -54.000966958999982 ], [ -67.393195658999957, -53.995779733999939 ], [ -67.418037231999961, -53.990973222999969 ], [ -67.430695963999938, -53.987023317999956 ], [ -67.439690326999937, -53.982787876999964 ], [ -67.448541921999947, -53.977124759999981 ], [ -67.465769218999981, -53.962943171999939 ], [ -67.47205099599995, -53.954377112999964 ], [ -67.487279546999957, -53.943859894999946 ], [ -67.491610165999987, -53.941861147999987 ], [ -67.50184184799997, -53.940861773999984 ], [ -67.511787994999963, -53.938434723999933 ], [ -67.522210033999954, -53.934199282999941 ], [ -67.530680915999937, -53.929725896999969 ], [ -67.539580099999966, -53.924348314999975 ], [ -67.549906960999976, -53.916353325999978 ], [ -67.56603970599997, -53.899649509999961 ], [ -67.57327326799998, -53.888085328999978 ], [ -67.579269508999971, -53.872809188999952 ], [ -67.579840579999939, -53.868859283999939 ], [ -67.579364687999941, -53.863338934999945 ], [ -67.577461118999963, -53.85677162199994 ], [ -67.57351121399995, -53.850775379999959 ], [ -67.570275146999961, -53.848491097999954 ], [ -67.565135510999937, -53.846587528999976 ], [ -67.551049101999979, -53.846635117999938 ], [ -67.562042211999938, -53.849966363999954 ], [ -67.562756049999962, -53.85048984499997 ], [ -67.562042211999938, -53.850870558999986 ], [ -67.556617040999981, -53.849680827999975 ], [ -67.551239458999987, -53.847253777999981 ], [ -67.547099196999966, -53.848681454999962 ], [ -67.543006523999964, -53.848205562999965 ], [ -67.541578846999982, -53.844065299999954 ], [ -67.545671519999985, -53.840448519999939 ], [ -67.553761686999962, -53.836926916999971 ], [ -67.578793616999974, -53.83254870899998 ], [ -67.596556989999954, -53.827138681999941 ], [ -67.615506779999976, -53.817711565999957 ], [ -67.624875969999948, -53.814642032999984 ], [ -67.646894417999988, -53.805078831999936 ], [ -67.66762098099997, -53.793556078999984 ], [ -67.675211024999953, -53.787863398999946 ], [ -67.674318239999934, -53.785253884999975 ], [ -67.678152902999955, -53.787318109999944 ], [ -67.683594329999949, -53.787897958999963 ], [ -67.683576248999941, -53.788475428999959 ], [ -67.677936199999976, -53.788008940999987 ], [ -67.674446816999932, -53.790454508999971 ], [ -67.673088582999981, -53.793327919999967 ], [ -67.672890006999978, -53.799021448999952 ], [ -67.681440941999938, -53.806221293999954 ], [ -67.686299853999969, -53.806794509999975 ], [ -67.688894628999947, -53.808036103999939 ], [ -67.698640205999936, -53.808315488999938 ], [ -67.710667488999945, -53.807347841999956 ], [ -67.72721824599995, -53.809757478999984 ], [ -67.732823622999945, -53.811492139999984 ], [ -67.740687292999951, -53.81925807999994 ], [ -67.746472181999934, -53.821571636999977 ], [ -67.756183567999983, -53.823116929999969 ], [ -67.759248758999945, -53.825054980999937 ], [ -67.762978933999932, -53.830928055999948 ], [ -67.767080829999941, -53.834147451999968 ], [ -67.771429370999954, -53.835636255999987 ], [ -67.77533071199997, -53.835733919999939 ], [ -67.778434575999938, -53.833789276999937 ], [ -67.776064269999949, -53.832306433999975 ], [ -67.771701770999982, -53.832572203999973 ], [ -67.769105165999974, -53.83168428099998 ], [ -67.765597020999962, -53.828182188999961 ], [ -67.763189908999948, -53.823767037999971 ], [ -67.760040808999975, -53.821366019999971 ], [ -67.747232964999966, -53.816751812999939 ], [ -67.739519683999958, -53.807197119999955 ], [ -67.736295488999986, -53.805329294999979 ], [ -67.733110997999972, -53.804198053999983 ], [ -67.725238030999947, -53.803305947999945 ], [ -67.71370792099998, -53.797637097999939 ], [ -67.710505138999963, -53.797140494999951 ], [ -67.705996016999961, -53.797900689999949 ], [ -67.699263461999976, -53.801178385999947 ], [ -67.688505005999957, -53.802158854999959 ], [ -67.68718884599997, -53.800584689999937 ], [ -67.681572492999976, -53.799309960999949 ], [ -67.68173692299996, -53.797174334999966 ], [ -67.683657303999951, -53.795017024999936 ], [ -67.68741197199995, -53.79344064299994 ], [ -67.691418815999953, -53.790018341999939 ], [ -67.691967142999943, -53.788060217999941 ], [ -67.691511791999972, -53.783895930999961 ], [ -67.698833065999963, -53.777274424999973 ], [ -67.705500537999967, -53.768051165999964 ], [ -67.72330908899994, -53.758402388999968 ], [ -67.724597966999966, -53.755414191999932 ], [ -67.726136894999968, -53.754071701999976 ], [ -67.737696583999934, -53.746921709999981 ], [ -67.761410966999961, -53.738621923999972 ], [ -67.778279391999945, -53.731112443999962 ], [ -67.79038299299998, -53.723709482999936 ], [ -67.796101257999965, -53.717756873999974 ], [ -67.810722409999983, -53.710403653999947 ], [ -67.818351771999971, -53.708336416999941 ], [ -67.826191220999988, -53.705016403999934 ], [ -67.835494963999963, -53.698239002999969 ], [ -67.84002628099995, -53.69028683199997 ], [ -67.863771991999954, -53.679416044999982 ], [ -67.888125579999951, -53.666631275999976 ], [ -67.911326068999983, -53.652671090999945 ], [ -67.934483220999937, -53.636241659999939 ], [ -67.944667313999958, -53.627913545999945 ], [ -67.956183905999978, -53.617729452999981 ], [ -67.970603438999945, -53.600359387999958 ], [ -67.982595922999963, -53.591793327999937 ], [ -67.990162608999981, -53.584512176999965 ], [ -68.005105623999953, -53.568236663999983 ], [ -68.020667298999967, -53.54791606699996 ], [ -68.03066103499998, -53.532973051999932 ], [ -68.04417637399996, -53.508036300999947 ], [ -68.057644122999989, -53.477864734999969 ], [ -68.066019825999945, -53.455735747999938 ], [ -68.06644812899998, -53.450405754999963 ], [ -68.07111187199996, -53.435272382999983 ], [ -68.078821325999968, -53.397914844999946 ], [ -68.08291399899997, -53.389681909999979 ], [ -68.096191390999934, -53.372644968999964 ], [ -68.10542369999996, -53.358748916999957 ], [ -68.137070530999949, -53.33133752599997 ], [ -68.173047981999957, -53.316965581999966 ], [ -68.206598381999981, -53.306686309999975 ], [ -68.245336006999935, -53.311254875999964 ], [ -68.279457477999983, -53.316727635999939 ], [ -68.285596486999964, -53.316632456999969 ], [ -68.307868241999984, -53.321248611999977 ], [ -68.32338232799998, -53.320154059999936 ], [ -68.341704177999986, -53.316965581999966 ], [ -68.347176937999961, -53.31510960199995 ], [ -68.360168794999936, -53.313158443999953 ], [ -68.371970921999946, -53.309494073999986 ], [ -68.373398597999937, -53.309398895999948 ], [ -68.379156893999948, -53.312634962999937 ], [ -68.387056703999974, -53.311968713999931 ], [ -68.395575174999976, -53.309589252999956 ], [ -68.409090512999967, -53.303497832999938 ], [ -68.41461086299995, -53.302831583999932 ], [ -68.427697897999963, -53.298215428999981 ], [ -68.437501277999957, -53.300642478999976 ], [ -68.454469213999971, -53.297254126999974 ], [ -68.463749111999959, -53.293684934999931 ], [ -68.480595695999966, -53.285023696999986 ], [ -68.498632010999984, -53.273411927999973 ], [ -68.519057303999944, -53.262690075999956 ], [ -68.522150602999943, -53.258942424999987 ], [ -68.527444903999935, -53.254956827999933 ], [ -68.548443646999942, -53.247521011999936 ], [ -68.551001567999947, -53.243356955999957 ], [ -68.552072324999983, -53.234612436999953 ], [ -68.554388440999958, -53.226072371999976 ], [ -68.555998435999982, -53.212186016999965 ], [ -68.556057921999979, -53.195648762999951 ], [ -68.551191924999955, -53.176101489999951 ], [ -68.548193803999936, -53.171342567999943 ], [ -68.548384160999944, -53.170200426999941 ], [ -68.54153131299995, -53.159350084999971 ], [ -68.534773643999984, -53.153115896999964 ], [ -68.537153104999959, -53.149879829999975 ], [ -68.538533191999989, -53.145929924999962 ], [ -68.538152477999972, -53.144407069999943 ], [ -68.53577301699994, -53.143360106999978 ], [ -68.529300882999962, -53.137839756999938 ], [ -68.522590802999957, -53.134841636999965 ], [ -68.51908913699998, -53.130322861999957 ], [ -68.510023390999947, -53.124326619999977 ], [ -68.507168037999975, -53.121614033999947 ], [ -68.505169289999969, -53.121257114999935 ], [ -68.504455451999945, -53.121970952999959 ], [ -68.501885633999962, -53.120400508999978 ], [ -68.502456704999986, -53.119686670999954 ], [ -68.496745998999984, -53.11633163099998 ], [ -68.49524693799998, -53.115617792999956 ], [ -68.493890644999965, -53.116046095999934 ], [ -68.494033412999954, -53.112762438999937 ], [ -68.491891897999949, -53.113476277999951 ], [ -68.492891271999952, -53.111977216999946 ], [ -68.498816129999966, -53.110835075999944 ], [ -68.501314563999983, -53.105267136999942 ], [ -68.496246311999982, -53.105195752999975 ], [ -68.491249443999948, -53.103768076999984 ], [ -68.493034038999951, -53.101412409999966 ], [ -68.481327090999969, -53.100698571999942 ], [ -68.477900666999972, -53.101626561999979 ], [ -68.465979567999966, -53.099270894999961 ], [ -68.462196224999957, -53.096415541999932 ], [ -68.464052203999984, -53.094845097999951 ], [ -68.460411628999964, -53.094559562999962 ], [ -68.459198103999938, -53.093488804999936 ], [ -68.460197476999952, -53.092061128999944 ], [ -68.464266355999939, -53.090276532999951 ], [ -68.463338365999959, -53.089419926999938 ], [ -68.456199982999976, -53.09056206799994 ], [ -68.453487396999947, -53.092132511999978 ], [ -68.449418518999948, -53.093131885999981 ], [ -68.446134862999941, -53.091846976999932 ], [ -68.450275124999962, -53.09041930099994 ], [ -68.452844942999945, -53.087706714999968 ], [ -68.442851206999933, -53.087207027999966 ], [ -68.440781075999951, -53.086421805999976 ], [ -68.444635801999937, -53.086564573999965 ], [ -68.448704680999981, -53.085279664999973 ], [ -68.444350266999948, -53.083138149999968 ], [ -68.446991468999954, -53.08156770599993 ], [ -68.448062225999934, -53.080496947999961 ], [ -68.447776690999945, -53.079925877999983 ], [ -68.444921337999972, -53.078783735999934 ], [ -68.438710944999968, -53.074286554999958 ], [ -68.435926974999973, -53.074786241999959 ], [ -68.436426661999974, -53.072430574999942 ], [ -68.434285146999969, -53.07100289899995 ], [ -68.436569429999963, -53.070146292999937 ], [ -68.432571934999942, -53.069717989999958 ], [ -68.430002116999958, -53.066648484999973 ], [ -68.42671846099995, -53.06671986899994 ], [ -68.422578198999986, -53.063935899999933 ], [ -68.416510572999982, -53.063864515999967 ], [ -68.420222532999958, -53.061723000999962 ], [ -68.417652714999974, -53.060723626999959 ], [ -68.416867492999984, -53.059510101999933 ], [ -68.41786686599994, -53.05772550599994 ], [ -68.42229266399994, -53.054513233999955 ], [ -68.418866239999943, -53.051443728999971 ], [ -68.412227543999961, -53.049230830999932 ], [ -68.409443573999965, -53.049159446999965 ], [ -68.403590099999974, -53.050872658999936 ], [ -68.396880019999969, -53.049444981999955 ], [ -68.39388189899995, -53.05065850699998 ], [ -68.390955161999955, -53.050729890999946 ], [ -68.389527485999963, -53.049659133999967 ], [ -68.391883151999934, -53.045161951999944 ], [ -68.390312707999954, -53.044733648999966 ], [ -68.389955788999941, -53.043591507999963 ], [ -68.391954535999957, -53.041378608999935 ], [ -68.39231145499997, -53.039594012999942 ], [ -68.390312707999954, -53.037166962999947 ], [ -68.381246960999988, -53.034168841999985 ], [ -68.377035314999944, -53.029100589999985 ], [ -68.367398497999943, -53.024246489999939 ], [ -68.365756669999939, -53.021890823999968 ], [ -68.359546276999936, -53.017893328999946 ], [ -68.357404761999987, -53.018821318999983 ], [ -68.355477398999938, -53.018464399999971 ], [ -68.353478650999932, -53.016679803999978 ], [ -68.352622044999976, -53.017322257999979 ], [ -68.349980843999958, -53.015466278999952 ], [ -68.347982095999953, -53.01510935999994 ], [ -68.340272642999935, -53.016251500999942 ], [ -68.335846844999935, -53.015680429999975 ], [ -68.328280158999974, -53.01782194499998 ], [ -68.324710967999977, -53.015037975999974 ], [ -68.319785483999965, -53.013110611999934 ], [ -68.285378476999938, -53.008470663999958 ], [ -68.272886306999965, -53.012396773999967 ], [ -68.266747297999984, -53.016108732999953 ], [ -68.265391004999969, -53.018393015999948 ], [ -68.265747923999982, -53.020534530999953 ], [ -68.268603276999954, -53.023675418999971 ], [ -68.269888185999946, -53.029885812999964 ], [ -68.271173094999938, -53.031456256999945 ], [ -68.270816175999983, -53.037666649999949 ], [ -68.268674660999977, -53.042520750999984 ], [ -68.25561141999998, -53.059819431999983 ], [ -68.246093575999964, -53.069384864999961 ], [ -68.237004034999984, -53.081234580999933 ], [ -68.211210677999986, -53.126301572999978 ], [ -68.210734785999932, -53.128300319999937 ], [ -68.21230522999997, -53.134344150999937 ], [ -68.212019694999981, -53.137294681999947 ], [ -68.214970225999934, -53.148668505999979 ], [ -68.214637101999983, -53.152808767999943 ], [ -68.212067283999943, -53.15290394699997 ], [ -68.203501223999979, -53.144861367999965 ], [ -68.201502476999963, -53.141958425999974 ], [ -68.203643991999968, -53.135962183999936 ], [ -68.21658825999998, -53.112738644999979 ], [ -68.225677800999961, -53.098319110999967 ], [ -68.242809919999956, -53.065910851999945 ], [ -68.246363247999966, -53.056932352999979 ], [ -68.253406452999968, -53.029711318999944 ], [ -68.262876707999965, -53.000777072999938 ], [ -68.278248025999972, -52.966227298999968 ], [ -68.28767069099996, -52.951427051999985 ], [ -68.310323159999939, -52.931154043999982 ], [ -68.326693851999948, -52.917733883999972 ], [ -68.344063916999971, -52.901220423999973 ], [ -68.361433982999984, -52.887467139999956 ], [ -68.362100231999989, -52.888228566999942 ], [ -68.362766480999937, -52.886610533999942 ], [ -68.367858526999953, -52.882232325999951 ], [ -68.394603668999935, -52.861911728999985 ], [ -68.398315627999978, -52.857676287999936 ], [ -68.39798250399997, -52.856962449999969 ], [ -68.411444224999968, -52.84646881499998 ], [ -68.417868769999984, -52.839568377999967 ], [ -68.436380975999953, -52.823721167999963 ], [ -68.468503699999985, -52.792597817999933 ], [ -68.483637071999965, -52.780224620999945 ], [ -68.499103567999953, -52.765424372999973 ], [ -68.537841193999952, -52.731778794999968 ], [ -68.562587587999985, -52.707889005999959 ], [ -68.564348388999974, -52.705319187999976 ], [ -68.56510981699995, -52.704843295999979 ], [ -68.569963916999939, -52.707365524999943 ], [ -68.567965169999979, -52.703130083999952 ], [ -68.569154899999944, -52.699941605999982 ], [ -68.577911316999973, -52.69113760099998 ], [ -68.585144877999937, -52.681524577999937 ], [ -68.594805489999942, -52.672577804999946 ], [ -68.606056323999951, -52.658472443999983 ], [ -68.527294335808492, -52.54 ], [ -68.291224605835779, -52.54 ], [ -68.31283493899997, -52.540715920999958 ], [ -68.291275371999973, -52.560429215999932 ], [ -68.276902326999959, -52.578218298999957 ], [ -68.267020858999956, -52.588888266999959 ], [ -68.244562976999987, -52.618968987999949 ], [ -68.231088247999935, -52.642745401999946 ], [ -68.227944143999935, -52.65012164999996 ], [ -68.222105094999961, -52.656950393999978 ], [ -68.196503108999934, -52.67934115099996 ], [ -68.159672182999941, -52.713996764999933 ], [ -68.15607892099996, -52.71590611299996 ], [ -68.146197452999957, -52.72408808299997 ], [ -68.134070196999971, -52.735812881999948 ], [ -68.118349678999948, -52.747807070999954 ], [ -68.102629161999971, -52.760887858999979 ], [ -68.09813758599995, -52.765519690999952 ], [ -68.086010328999976, -52.774237090999975 ], [ -68.058162554999967, -52.797928656999943 ], [ -68.037950461999969, -52.819702564999943 ], [ -68.025374047999946, -52.829225203999954 ], [ -68.007856899999979, -52.846088730999952 ], [ -67.983153228999981, -52.873817638999981 ], [ -67.969678499999986, -52.892836978999981 ], [ -67.964288607999947, -52.902071919999969 ], [ -67.944974829999978, -52.943333358999951 ], [ -67.932847572999947, -52.976422512999932 ], [ -67.926110208999944, -52.998648466999953 ], [ -67.923864419999973, -53.007318891999944 ], [ -67.923864419999973, -53.010028040999941 ], [ -67.920720316999962, -53.017612749999955 ], [ -67.896914961999983, -53.061198832999935 ], [ -67.882541916999969, -53.090141493999965 ], [ -67.877152025999976, -53.106362469999965 ], [ -67.874906237999937, -53.115821867999955 ], [ -67.872660448999966, -53.139326170999936 ], [ -67.861431507999953, -53.162817557999972 ], [ -67.847058463999986, -53.195737754999982 ], [ -67.841219413999966, -53.205177387999981 ], [ -67.835829522999973, -53.223241715999961 ], [ -67.826846369999942, -53.227284919999931 ], [ -67.816515743999958, -53.234022740999933 ], [ -67.804388487999972, -53.24049004699998 ], [ -67.781032289999985, -53.255307252999955 ], [ -67.760820195999941, -53.27065782699998 ], [ -67.742853890999982, -53.288156110999978 ], [ -67.727133372999958, -53.306185269999958 ], [ -67.710514540999952, -53.334424541999965 ], [ -67.70377717599996, -53.353777762999982 ], [ -67.701531387999978, -53.36371973599995 ], [ -67.69928559899995, -53.383865232999938 ], [ -67.69928559899995, -53.393800152999972 ], [ -67.702878860999988, -53.413931354999932 ], [ -67.710514540999952, -53.447193953999943 ], [ -67.712760328999934, -53.453896954999948 ], [ -67.708268751999981, -53.46247524599994 ], [ -67.707370436999952, -53.46595967899998 ], [ -67.701531387999978, -53.473195660999977 ], [ -67.670539509999969, -53.500520405999964 ], [ -67.64134426399994, -53.512569818999964 ], [ -67.603165863999948, -53.532376926999973 ], [ -67.58430124299997, -53.543882187999941 ], [ -67.583402927999941, -53.545219804999931 ], [ -67.566334936999965, -53.553779548999955 ], [ -67.536241374999975, -53.563674585999934 ], [ -67.508393601999956, -53.574903970999969 ], [ -67.49177476899996, -53.583724957999948 ], [ -67.457189629999959, -53.598956851999958 ], [ -67.432485959999951, -53.604834353999934 ], [ -67.370053047999988, -53.625399137999977 ], [ -67.356578318999937, -53.630738993999955 ], [ -67.341756115999942, -53.636878988999968 ], [ -67.316154130999962, -53.649956854999971 ], [ -67.292797932999974, -53.664631238999959 ], [ -67.271687523999958, -53.680633803999967 ], [ -67.262704370999984, -53.688632796999968 ], [ -67.228119232999973, -53.709689508999986 ], [ -67.198025670999982, -53.734197911999956 ], [ -67.180957680999938, -53.751504980999982 ], [ -67.167482950999954, -53.770135354999979 ], [ -67.156703167999979, -53.789289362999966 ], [ -67.15445737999994, -53.796469851999973 ], [ -67.148618329999977, -53.804978461999951 ], [ -67.145474226999966, -53.815080182999964 ], [ -67.145474226999966, -53.817738123999959 ], [ -67.111787403999983, -53.835541961999979 ], [ -67.087083732999986, -53.850151371999971 ], [ -67.056990170999939, -53.874577482999939 ], [ -67.040371338999933, -53.89156111099993 ], [ -67.026896608999948, -53.910129017999964 ], [ -67.015667667999935, -53.929218787999957 ], [ -66.980184214999952, -53.940350437999939 ], [ -66.950988967999933, -53.946445077999954 ], [ -66.905174887999976, -53.960220964999962 ], [ -66.877327113999968, -53.972138715999961 ], [ -66.847233551999977, -53.983788317999938 ], [ -66.824775669999951, -53.990405951999946 ], [ -66.783453166999948, -54.008400571999971 ], [ -66.76009696999995, -54.017394951999961 ], [ -66.73314751099997, -54.029296274999979 ], [ -66.712935416999983, -54.041194176999966 ], [ -66.664875549999977, -54.055731411999943 ], [ -66.633883671999968, -54.062866003999943 ], [ -66.588967907999972, -54.076074958999982 ], [ -66.574594863999948, -54.080565041999932 ], [ -66.559772661999943, -54.086375013999941 ], [ -66.533272360999945, -54.09825650099998 ], [ -66.503178798999954, -54.113301478999972 ], [ -66.496441433999962, -54.118051384999944 ], [ -66.472636078999983, -54.128604774999985 ], [ -66.447034092999957, -54.142320144999985 ], [ -66.414694742999984, -54.165783942999951 ], [ -66.387745284999937, -54.191341630999943 ], [ -66.374719712999934, -54.209775467999975 ], [ -66.36888066399996, -54.219515730999944 ], [ -66.362143298999968, -54.233463977999975 ], [ -66.336541312999941, -54.243724759999964 ], [ -66.323066583999946, -54.250300835999951 ], [ -66.286235657999953, -54.271337201999984 ], [ -66.265125247999947, -54.287107401999947 ], [ -66.247158942999988, -54.303922265999972 ], [ -66.202243177999947, -54.317054078999945 ], [ -66.172149615999956, -54.323618407999959 ], [ -66.141157738999937, -54.332019212999967 ], [ -66.097589447999951, -54.34697887699997 ], [ -66.048182106999946, -54.358260618999964 ], [ -66.000122239999939, -54.374521839999943 ], [ -65.945325006999951, -54.387631016999933 ], [ -65.924214597999935, -54.391300832999946 ], [ -65.891875247999963, -54.399163614999964 ], [ -65.85818842499998, -54.409644967999952 ], [ -65.831688123999982, -54.416194447999942 ], [ -65.813721817999976, -54.422742876999962 ], [ -65.79126393599995, -54.426671429999942 ], [ -65.758924585999978, -54.434527400999968 ], [ -65.716703766999956, -54.448664334999933 ], [ -65.707720614999971, -54.448664334999933 ], [ -65.695144200999948, -54.447355565999942 ], [ -65.666398110999978, -54.440287483999953 ], [ -65.649330120999934, -54.437145720999979 ], [ -65.616990770999962, -54.431908911999983 ], [ -65.599024464999957, -54.429814 ], [ -65.564439326999945, -54.427980862999959 ], [ -65.496616522999943, -54.427980862999959 ], [ -65.462031383999943, -54.429814 ], [ -65.438226028999964, -54.432432622999954 ], [ -65.405886678999934, -54.430599603999951 ], [ -65.383428796999965, -54.430599603999951 ], [ -65.344352081999943, -54.421957120999934 ], [ -65.312012731999971, -54.416718360999937 ], [ -65.294046425999966, -54.414884635999954 ], [ -65.259461287999954, -54.413050828999985 ], [ -65.226223621999964, -54.413050828999985 ], [ -65.191638483999952, -54.414884635999954 ], [ -65.173672177999947, -54.416718360999937 ], [ -65.130103886999962, -54.424052436999943 ], [ -65.097764536999932, -54.43112333199997 ], [ -65.082044018999966, -54.435051077999958 ], [ -65.029492574999949, -54.452066938999963 ], [ -65.001644800999941, -54.457301159999986 ], [ -64.969305450999968, -54.465151230999936 ], [ -64.924389686999973, -54.480062198999974 ], [ -64.910914957999978, -54.485815848999948 ], [ -64.882435520472455, -54.5 ], [ -66.367757126494482, -54.5 ] ] ] } }
]
}
