{
"type": "FeatureCollection",
"name": "area_centolla_C2",
"crs": { "type": "name", "properties": { "name": "urn:ogc:def:crs:OGC:1.3:CRS84" } },
"features": [
{ "type": "Feature", "properties": { "FID": 0 }, "geometry": { "type": "MultiLineString", "coordinates": [ [ [ -65.442044388498999, -48.0 ], [ -65.431488664999961, -47.984713563999946 ], [ -65.426098772999978, -47.975364913999954 ], [ -65.417115619999947, -47.956059087999961 ], [ -65.414420673999985, -47.946101684999974 ], [ -65.410378255999944, -47.925879201999976 ], [ -65.409479939999983, -47.915915948999952 ], [ -65.409479939999983, -47.905950766999979 ], [ -65.411276570999974, -47.885712486999978 ], [ -65.413522358999955, -47.875741453999979 ], [ -65.419361407999986, -47.856398188999947 ], [ -65.429242875999932, -47.836745251999957 ], [ -65.43418361099998, -47.828277062999973 ], [ -65.448107496999967, -47.810126260999937 ], [ -65.464277172999971, -47.792574417999958 ], [ -65.473260324999956, -47.784704412999986 ], [ -65.482243477999987, -47.77713597099995 ], [ -65.502904729999955, -47.762298607999981 ], [ -65.508743778999985, -47.75896718599995 ], [ -65.505150517999937, -47.747759917999986 ], [ -65.502904729999955, -47.737459207999962 ], [ -65.499760625999954, -47.717457855999953 ], [ -65.499760625999954, -47.707454281999958 ], [ -65.502006414999983, -47.687138052999956 ], [ -65.503803044999984, -47.679251997999984 ], [ -65.498862310999982, -47.667724067999984 ], [ -65.493921576999981, -47.660441949999949 ], [ -65.484040108999977, -47.641321526999945 ], [ -65.479997689999948, -47.631303255999967 ], [ -65.478201058999957, -47.624623335999956 ], [ -65.473260324999956, -47.615209261999951 ], [ -65.466073802999972, -47.595768359999965 ], [ -65.462929699999961, -47.578751607999948 ], [ -65.456192334999969, -47.565377397999953 ], [ -65.449005812999985, -47.545917865999968 ], [ -65.444065078999984, -47.515497790999973 ], [ -65.444065078999984, -47.502107333999959 ], [ -65.441370132999964, -47.485973355999931 ], [ -65.437327713999935, -47.468311588999939 ], [ -65.436429398999962, -47.453995085999964 ], [ -65.432386979999933, -47.435103485999946 ], [ -65.431488664999961, -47.416205059999982 ], [ -65.430141191999951, -47.406753286999958 ], [ -65.430141191999951, -47.396079877999966 ], [ -65.42834456099996, -47.386014385999943 ], [ -65.427446245999988, -47.368929124999966 ], [ -65.425200457999949, -47.36007921199996 ], [ -65.424302141999988, -47.350006802999985 ], [ -65.424302141999988, -47.324359214999959 ], [ -65.426098772999978, -47.30480978199995 ], [ -65.42834456099996, -47.294421185999965 ], [ -65.43418361099998, -47.274860609999962 ], [ -65.438226028999964, -47.265383339999971 ], [ -65.446310866999966, -47.240306198999974 ], [ -65.444065078999984, -47.227457181999966 ], [ -65.443166762999965, -47.206953451999937 ], [ -65.444065078999984, -47.196851667999965 ], [ -65.445412551999937, -47.191340787999934 ], [ -65.446310866999966, -47.177867323999976 ], [ -65.448107496999967, -47.167759966999938 ], [ -65.453946546999987, -47.14815230499994 ], [ -65.462929699999961, -47.129150437999954 ], [ -65.475056955999946, -47.110755028999961 ], [ -65.489879157999951, -47.092966716999968 ], [ -65.497963995999953, -47.084990704999939 ], [ -65.515930300999969, -47.068421300999944 ], [ -65.536591552999937, -47.05430253399993 ], [ -65.54782049399995, -47.047548749999976 ], [ -65.570727533999957, -47.035881096999958 ], [ -65.571625848999986, -47.025746577999939 ], [ -65.565786799999955, -47.003320912999982 ], [ -65.405593446547584, -46.0 ], [ -62.0, -46.0 ], [ -62.0, -48.0 ], [ -65.442044388498999, -48.0 ] ] ] } }
]
}
