{
"type": "FeatureCollection",
"name": "area_centolla_C3",
"crs": { "type": "name", "properties": { "name": "urn:ogc:def:crs:OGC:1.3:CRS84" } },
"features": [
{ "type": "Feature", "properties": { "FID": 0 }, "geometry": { "type": "MultiLineString", "coordinates": [ [ [ -57.557853855592739, -48.0 ], [ -62.0, -48.0 ], [ -62.0, -43.5 ], [ -54.36348179334982, -43.5 ], [ -54.530237197999952, -43.562906264999981 ], [ -54.646720885999969, -43.61215591399997 ], [ -54.746879577999948, -43.652893065999933 ], [ -54.852306365999937, -43.694166182999936 ], [ -54.971984862999932, -43.739089965999938 ], [ -55.115255355999977, -43.790239333999978 ], [ -55.309373855999979, -43.856502532999968 ], [ -55.413721084999963, -43.891111373999934 ], [ -55.554887771999972, -43.936203002999946 ], [ -55.563467025999955, -43.989919661999977 ], [ -55.573675155999979, -44.03980255099998 ], [ -55.589883803999953, -44.103507995999962 ], [ -55.609512328999983, -44.166641234999986 ], [ -55.619430541999975, -44.223644256999933 ], [ -55.631130218999942, -44.276792525999952 ], [ -55.648307799999941, -44.340106963999972 ], [ -55.672435759999985, -44.413246154999968 ], [ -55.680999755999949, -44.459327697999981 ], [ -55.691133498999932, -44.505207061999954 ], [ -55.694894790999967, -44.565824508999981 ], [ -55.700574874999973, -44.619161605999977 ], [ -55.710544585999969, -44.682891845999961 ], [ -55.720682143999966, -44.732192992999956 ], [ -55.732889174999968, -44.781211852999945 ], [ -55.748260497999979, -44.833370208999952 ], [ -55.772481917999983, -44.905883788999972 ], [ -55.799097060999941, -44.977874755999949 ], [ -55.806447982999941, -45.020036696999966 ], [ -55.816532134999932, -45.069051742999932 ], [ -55.821907042999953, -45.107755660999942 ], [ -55.827890395999987, -45.142831801999932 ], [ -55.835714339999981, -45.181276320999984 ], [ -55.845657348999964, -45.22302818299994 ], [ -55.855098723999959, -45.25765228299997 ], [ -55.866569518999938, -45.295558928999981 ], [ -55.889268874999971, -45.360500335999973 ], [ -55.906942367999932, -45.404495238999971 ], [ -55.921693801999936, -45.438070296999967 ], [ -55.937461852999945, -45.471399306999956 ], [ -55.954231261999951, -45.504463195999961 ], [ -55.963739394999948, -45.54602050799997 ], [ -55.976610183999981, -45.594255446999966 ], [ -55.991512298999965, -45.642160415999967 ], [ -56.00716590899998, -45.686307906999957 ], [ -56.006944655999973, -45.689054488999943 ], [ -55.880371093999941, -45.709104537999963 ], [ -55.744527816999948, -45.73207664499995 ], [ -55.623664855999948, -45.753784179999968 ], [ -55.488805770999932, -45.779428481999958 ], [ -55.373662948999936, -45.802526473999933 ], [ -55.235113143999968, -45.831806182999969 ], [ -55.10197448699995, -45.861486434999961 ], [ -54.964771270999961, -45.89367675799997 ], [ -54.832992553999986, -45.92615318299994 ], [ -54.715936660999944, -45.956295012999931 ], [ -54.585533141999974, -45.991327285999944 ], [ -54.455902099999946, -46.027700423999931 ], [ -54.340829848999931, -46.06129455599995 ], [ -54.212732314999982, -46.100166320999961 ], [ -54.080957412999965, -46.141801833999978 ], [ -53.977590560999943, -46.176027297999951 ], [ -53.931501388999948, -46.977287291999971 ], [ -53.930398940999964, -46.980306624999969 ], [ -52.639835357999971, -47.434326171999942 ], [ -52.558845519999977, -47.460676192999983 ], [ -52.497503280999979, -47.483354567999982 ], [ -52.450450896999939, -47.502523421999967 ], [ -52.396211623999932, -47.526641845999961 ], [ -52.351543426999967, -47.548254012999962 ], [ -52.311988830999951, -47.568855285999973 ], [ -52.273469924999972, -47.590328216999978 ], [ -52.221355437999932, -47.621799468999939 ], [ -52.181974410999942, -47.64765357999994 ], [ -52.133893966999949, -47.681898116999946 ], [ -51.488302230999977, -47.956584929999963 ], [ -51.394515990999935, -47.979408263999971 ], [ -51.322193623314341, -48.0 ], [ -57.557853855592739, -48.0 ] ] ] } }
]
}
