{
"type": "FeatureCollection",
"name": "area_centolla_C1",
"crs": { "type": "name", "properties": { "name": "urn:ogc:def:crs:OGC:1.3:CRS84" } },
"features": [
{ "type": "Feature", "properties": { "FID": 0 }, "geometry": { "type": "MultiLineString", "coordinates": [ [ [ -65.405593446547584, -46.0 ], [ -65.295843056999956, -45.312102134999975 ], [ -65.267096967999976, -45.305763368999976 ], [ -65.254071395999972, -45.301642787999981 ], [ -65.241045823999968, -45.297204902999965 ], [ -65.205113212999947, -45.281986640999946 ], [ -65.172324704999937, -45.262323635999962 ], [ -65.15346008399996, -45.247413238999968 ], [ -65.144476930999986, -45.239797899999985 ], [ -65.121569891999968, -45.214406012999973 ], [ -65.109891792999974, -45.19598975599996 ], [ -65.104951058999973, -45.186779375999947 ], [ -65.096866220999971, -45.167083186999946 ], [ -65.09372211799996, -45.157232520999969 ], [ -65.089679698999987, -45.137526043999969 ], [ -65.088781383999958, -45.117176680999933 ], [ -65.09102717199994, -45.097456265999938 ], [ -65.094620432999932, -45.077728991999948 ], [ -65.102705270999934, -45.057994859999951 ], [ -65.112586738999937, -45.039527687999964 ], [ -65.125612309999951, -45.021373067999946 ], [ -65.140434512999946, -45.00416860699994 ], [ -65.167383970999936, -44.980902452999942 ], [ -65.188494379999952, -44.966874423999968 ], [ -65.201519951999956, -44.959859114999972 ], [ -65.208257316999948, -44.954756528999951 ], [ -65.220384572999933, -44.928598606999969 ], [ -65.108544319999965, -44.676295216999961 ], [ -65.091925486999969, -44.667000542999972 ], [ -65.061831924999979, -44.64520024899997 ], [ -65.029941732999987, -44.611842662999948 ], [ -65.009280480999962, -44.591947226999935 ], [ -64.970203765999941, -44.580391890999977 ], [ -64.946398410999961, -44.570439608999948 ], [ -64.923491371999944, -44.558237697999971 ], [ -64.902830119999976, -44.544748377999952 ], [ -64.892948651999973, -44.537681286999941 ], [ -64.883965498999942, -44.529970747999982 ], [ -64.866897508999955, -44.514225206999981 ], [ -64.852973621999979, -44.497189491999961 ], [ -64.840846364999948, -44.478540890999966 ], [ -64.835905630999946, -44.469214337999972 ], [ -64.827820793999933, -44.44991325899997 ], [ -64.822880059999932, -44.430927599999961 ], [ -64.820185113999969, -44.410969875999967 ], [ -64.820185113999969, -44.400022404999959 ], [ -64.82198174399997, -44.380054058999974 ], [ -64.826024162999943, -44.360723321999956 ], [ -64.838151419999974, -44.331715172999964 ], [ -64.849829517999979, -44.313013372999933 ], [ -64.856117724999933, -44.304305314999965 ], [ -64.870939926999938, -44.287207937999938 ], [ -64.897889385999974, -44.264296048999938 ], [ -64.907770853999978, -44.257194764999952 ], [ -64.940559361999988, -44.23782323699993 ], [ -64.951339144999963, -44.232979351999973 ], [ -64.949542514999962, -44.214891964999936 ], [ -64.94729672699998, -44.209400043999949 ], [ -64.94460178099996, -44.182902358999968 ], [ -64.94460178099996, -44.174174885999946 ], [ -64.94145767699996, -44.164152849999937 ], [ -64.937415257999987, -44.144750489999979 ], [ -64.936516942999958, -44.12760639499993 ], [ -64.923491371999944, -44.104631923999932 ], [ -64.915406533999942, -44.085209865999957 ], [ -64.90866916899995, -44.055740819999983 ], [ -64.907770853999978, -44.035006487999965 ], [ -64.909567484999968, -44.015561413999933 ], [ -64.914059060999932, -43.994488669999953 ], [ -64.921245582999973, -43.975354575999972 ], [ -64.930228735999947, -43.957187657999953 ], [ -64.937415257999987, -43.948102100999961 ], [ -64.967059662999986, -43.904601855999942 ], [ -64.972000396999988, -43.894858606999946 ], [ -64.984576810999954, -43.876666912999951 ], [ -64.991763332999938, -43.868218867999985 ], [ -65.007933007999952, -43.851644198999963 ], [ -65.016916160999983, -43.843842749999965 ], [ -65.037128254999971, -43.828887099999974 ], [ -65.034433308999951, -43.825635371999965 ], [ -65.030840047999959, -43.818806162999977 ], [ -65.013322899999935, -43.779767020999941 ], [ -65.006136377999951, -43.760563357999956 ], [ -65.001644800999941, -43.734840254999938 ], [ -64.99984817099994, -43.708128550999959 ], [ -64.997153224999977, -43.693464592999931 ], [ -64.996254909999948, -43.680426930999943 ], [ -64.980085233999944, -43.667386415999943 ], [ -64.963466401999938, -43.651407895999967 ], [ -64.94280514999997, -43.625311312999941 ], [ -64.916754006999952, -43.587124507999931 ], [ -64.87588066099994, -43.558060077999983 ], [ -64.848482044999969, -43.535844027999985 ], [ -64.822430901999951, -43.51263905899998 ], [ -64.812298020788305, -43.5 ], [ -62.0, -43.5 ], [ -62.0, -46.0 ], [ -65.405593446547584, -46.0 ] ] ] } }
]
}
