{
"type": "FeatureCollection",
"name": "area_centolla_S2",
"crs": { "type": "name", "properties": { "name": "urn:ogc:def:crs:OGC:1.3:CRS84" } },
"features": [
{ "type": "Feature", "properties": { "FID": 0 }, "geometry": { "type": "MultiLineString", "coordinates": [ [ [ -64.5, -54.513176816678218 ], [ -64.618513332999953, -54.527374876999943 ], [ -64.651750997999955, -54.532599421999976 ], [ -64.667471515999978, -54.535995014999969 ], [ -64.69981086599995, -54.543568778999941 ], [ -64.715531382999984, -54.548269024999968 ], [ -64.79503228599998, -54.578807370999982 ], [ -64.804913753999983, -54.564454599999976 ], [ -64.82063427099996, -54.546180093999965 ], [ -64.839498891999938, -54.529464775999941 ], [ -64.871838242999956, -54.505947221999975 ], [ -64.884414656999979, -54.498889302999942 ], [ -64.910914957999978, -54.485815848999948 ], [ -64.924389686999973, -54.480062198999974 ], [ -64.969305450999968, -54.465151230999936 ], [ -65.001644800999941, -54.457301159999986 ], [ -65.029492574999949, -54.452066938999963 ], [ -65.082044018999966, -54.435051077999958 ], [ -65.130103886999962, -54.424052436999943 ], [ -65.173672177999947, -54.416718360999937 ], [ -65.191638483999952, -54.414884635999954 ], [ -65.226223621999964, -54.413050828999985 ], [ -65.259461287999954, -54.413050828999985 ], [ -65.294046425999966, -54.414884635999954 ], [ -65.312012731999971, -54.416718360999937 ], [ -65.344352081999943, -54.421957120999934 ], [ -65.383428796999965, -54.430599603999951 ], [ -65.405886678999934, -54.430599603999951 ], [ -65.439573501999973, -54.432432622999954 ], [ -65.462031383999943, -54.429814 ], [ -65.496616522999943, -54.427980862999959 ], [ -65.564439326999945, -54.427980862999959 ], [ -65.599024464999957, -54.429814 ], [ -65.616990770999962, -54.431908911999983 ], [ -65.649330120999934, -54.437145720999979 ], [ -65.666398110999978, -54.440287483999953 ], [ -65.695144200999948, -54.447355565999942 ], [ -65.707720614999971, -54.448664334999933 ], [ -65.716703766999956, -54.448664334999933 ], [ -65.758924585999978, -54.434527400999968 ], [ -65.79126393599995, -54.426671429999942 ], [ -65.813721817999976, -54.422742876999962 ], [ -65.831688123999982, -54.416194447999942 ], [ -65.85818842499998, -54.409644967999952 ], [ -65.891875247999963, -54.399163614999964 ], [ -65.924214597999935, -54.391300832999946 ], [ -65.945325006999951, -54.387631016999933 ], [ -66.000122239999939, -54.374521839999943 ], [ -66.048182106999946, -54.358260618999964 ], [ -66.097589447999951, -54.34697887699997 ], [ -66.141157738999937, -54.332019212999967 ], [ -66.172149615999956, -54.323618407999959 ], [ -66.202243177999947, -54.317054078999945 ], [ -66.247158942999988, -54.303922265999972 ], [ -66.265125247999947, -54.287107401999947 ], [ -66.286235657999953, -54.271337201999984 ], [ -66.323066583999946, -54.250300835999951 ], [ -66.336541312999941, -54.243724759999964 ], [ -66.362143298999968, -54.233463977999975 ], [ -66.36888066399996, -54.219515730999944 ], [ -66.374719712999934, -54.209775467999975 ], [ -66.387745284999937, -54.191341630999943 ], [ -66.404813274999981, -54.174480607999953 ], [ -66.424576210999987, -54.158139902999949 ], [ -66.447034092999957, -54.142320144999985 ], [ -66.472636078999983, -54.128604774999985 ], [ -66.496441433999962, -54.118051384999944 ], [ -66.503178798999954, -54.113301478999972 ], [ -66.533272360999945, -54.09825650099998 ], [ -66.574594863999948, -54.080565041999932 ], [ -66.633883671999968, -54.062866003999943 ], [ -66.664875549999977, -54.055731411999943 ], [ -66.712935416999983, -54.041194176999966 ], [ -66.73314751099997, -54.029296274999979 ], [ -66.76009696999995, -54.017394951999961 ], [ -66.783453166999948, -54.008400571999971 ], [ -66.824775669999951, -53.990405951999946 ], [ -66.847233551999977, -53.983788317999938 ], [ -66.877327113999968, -53.972138715999961 ], [ -66.905174887999976, -53.960220964999962 ], [ -66.950988967999933, -53.946445077999954 ], [ -66.980184214999952, -53.940350437999939 ], [ -67.015667667999935, -53.929218787999957 ], [ -67.026896608999948, -53.910129017999964 ], [ -67.040371338999933, -53.89156111099993 ], [ -67.056990170999939, -53.874577482999939 ], [ -67.087083732999986, -53.850151371999971 ], [ -67.111787403999983, -53.835541961999979 ], [ -67.145474226999966, -53.817738123999959 ], [ -67.145474226999966, -53.815080182999964 ], [ -67.148618329999977, -53.804978461999951 ], [ -67.15445737999994, -53.796469851999973 ], [ -67.156703167999979, -53.789289362999966 ], [ -67.167482950999954, -53.770135354999979 ], [ -67.180957680999938, -53.751504980999982 ], [ -67.198025670999982, -53.734197911999956 ], [ -67.228119232999973, -53.709689508999986 ], [ -67.262704370999984, -53.688632796999968 ], [ -67.271687523999958, -53.680633803999967 ], [ -67.292797932999974, -53.664631238999959 ], [ -67.316154130999962, -53.649956854999971 ], [ -67.341756115999942, -53.636878988999968 ], [ -67.356578318999937, -53.630738993999955 ], [ -67.370053047999988, -53.625399137999977 ], [ -67.432485959999951, -53.604834353999934 ], [ -67.457189629999959, -53.598956851999958 ], [ -67.49177476899996, -53.583724957999948 ], [ -67.508393601999956, -53.574903970999969 ], [ -67.536241374999975, -53.563674585999934 ], [ -67.566334936999965, -53.553779548999955 ], [ -67.583402927999941, -53.545219804999931 ], [ -67.58430124299997, -53.543882187999941 ], [ -67.603165863999948, -53.532376926999973 ], [ -67.64134426399994, -53.512569818999964 ], [ -67.670539509999969, -53.500520405999964 ], [ -67.701531387999978, -53.473195660999977 ], [ -67.707370436999952, -53.46595967899998 ], [ -67.708268751999981, -53.46247524599994 ], [ -67.712760328999934, -53.453896954999948 ], [ -67.710514540999952, -53.447193953999943 ], [ -67.702878860999988, -53.413931354999932 ], [ -67.69928559899995, -53.393800152999972 ], [ -67.69928559899995, -53.383865232999938 ], [ -67.701531387999978, -53.36371973599995 ], [ -67.70377717599996, -53.353777762999982 ], [ -67.710514540999952, -53.334424541999965 ], [ -67.727133372999958, -53.306185269999958 ], [ -67.742853890999982, -53.288156110999978 ], [ -67.760820195999941, -53.27065782699998 ], [ -67.781032289999985, -53.255307252999955 ], [ -67.804388487999972, -53.24049004699998 ], [ -67.816515743999958, -53.234022740999933 ], [ -67.826846369999942, -53.227284919999931 ], [ -67.835829522999973, -53.223241715999961 ], [ -67.841219413999966, -53.205177387999981 ], [ -67.847058463999986, -53.195737754999982 ], [ -67.861431507999953, -53.162817557999972 ], [ -67.872660448999966, -53.139326170999936 ], [ -67.874906237999937, -53.115821867999955 ], [ -67.877152025999976, -53.106362469999965 ], [ -67.882541916999969, -53.090141493999965 ], [ -67.896914961999983, -53.061198832999935 ], [ -67.920720316999962, -53.017612749999955 ], [ -67.923864419999973, -53.010028040999941 ], [ -67.923864419999973, -53.007318891999944 ], [ -67.926110208999944, -52.998648466999953 ], [ -67.932847572999947, -52.976422512999932 ], [ -67.944974829999978, -52.943333358999951 ], [ -67.964288607999947, -52.902071919999969 ], [ -67.969678499999986, -52.892836978999981 ], [ -67.983153228999981, -52.873817638999981 ], [ -68.007856899999979, -52.846088730999952 ], [ -68.025374047999946, -52.829225203999954 ], [ -68.037950461999969, -52.819702564999943 ], [ -68.058162554999967, -52.797928656999943 ], [ -68.086010328999976, -52.774237090999975 ], [ -68.09813758599995, -52.765519690999952 ], [ -68.102629161999971, -52.760887858999979 ], [ -68.118349678999948, -52.747807070999954 ], [ -68.134070196999971, -52.735812881999948 ], [ -68.146197452999957, -52.72408808299997 ], [ -68.15607892099996, -52.71590611299996 ], [ -68.159672182999941, -52.713996764999933 ], [ -68.196503108999934, -52.67934115099996 ], [ -68.222105094999961, -52.656950393999978 ], [ -68.227944143999935, -52.65012164999996 ], [ -68.231088247999935, -52.642745401999946 ], [ -68.244562976999987, -52.618968987999949 ], [ -68.267020858999956, -52.588888266999959 ], [ -68.276902326999959, -52.578218298999957 ], [ -68.291275371999973, -52.560429215999932 ], [ -68.31283493899997, -52.540715920999958 ], [ -68.289029582999945, -52.539894340999979 ], [ -68.258037705999982, -52.536607863999961 ], [ -68.225698355999953, -52.531129853999971 ], [ -68.195604793999962, -52.523733450999941 ], [ -68.152036502999977, -52.509210945999939 ], [ -68.125985358999969, -52.497150860999966 ], [ -68.101730846999942, -52.483990612999946 ], [ -68.079272964999973, -52.469180602999984 ], [ -68.059060870999986, -52.453267973999971 ], [ -68.042442037999933, -52.435702502999959 ], [ -68.028967308999938, -52.417855365999969 ], [ -68.017738367999982, -52.398627249999947 ], [ -68.013246790999972, -52.389284839999959 ], [ -68.010102687999961, -52.379665576999969 ], [ -68.005611110999951, -52.359870754999974 ], [ -68.004263637999941, -52.349419892999947 ], [ -68.004263637999941, -52.339241667999943 ], [ -68.006509426999969, -52.319428639999956 ], [ -68.008755214999951, -52.309794085999954 ], [ -68.015492578999954, -52.289967801999978 ], [ -68.034357199999988, -52.253596441999946 ], [ -68.047831929999973, -52.235675280999942 ], [ -68.06355244699995, -52.218022720999954 ], [ -68.072535599999981, -52.209745654999949 ], [ -68.082417067999984, -52.201467039999955 ], [ -68.109366526999963, -52.182972533999987 ], [ -68.111612314999945, -52.179659267999966 ], [ -68.138561772999935, -52.150105015999941 ], [ -68.15742639399997, -52.133523903999958 ], [ -68.179884275999939, -52.110023373999979 ], [ -68.18886742899997, -52.101726095999936 ], [ -68.196503108999934, -52.096470349999947 ], [ -68.215367729999969, -52.079869172999963 ], [ -68.239173084999948, -52.063261786999931 ], [ -68.243215503999977, -52.058555231999946 ], [ -68.263427597999964, -52.041939877999937 ], [ -68.286783794999963, -52.025318312999957 ], [ -68.292622844999983, -52.018667947999973 ], [ -68.309241676999989, -52.003978204999953 ], [ -68.31268887086523, -52.0 ], [ -64.5, -52.0 ], [ -64.5, -54.513176816678218 ] ] ] } }
]
}
