{
"type": "FeatureCollection",
"name": "areas_vieira",
"crs": { "type": "name", "properties": { "name": "urn:ogc:def:crs:OGC:1.3:CRS84" } },
"features": [
{ "type": "Feature", "properties": { "name": "UM_Vieira_RES_5_14_A1", "cmt": null, "desc": "This is track no: 0", "src": null, "link1_href": null, "link1_text": null, "link1_type": null, "link2_href": null, "link2_text": null, "link2_type": null, "number": 0, "type": null }, "geometry": { "type": "MultiLineString", "coordinates": [ [ [ -55.8333333333333357, -37.33333329999999961, 0.0 ], [ -55.3333333333333357, -37.33333329999999961, 0.0 ], [ -56.5, -38.5, 0.0 ], [ -57, -38.5, 0.0 ], [ -55.8333333333333357, -37.33333329999999961, 0.0 ] ] ] } },
{ "type": "Feature", "properties": { "name": "UM_Vieira_RES_5_14_A", "cmt": null, "desc": "This is track no: 1", "src": null, "link1_href": null, "link1_text": null, "link1_type": null, "link2_href": null, "link2_text": null, "link2_type": null, "number": 1, "type": null }, "geometry": { "type": "MultiLineString", "coordinates": [ [ [ -54.70014, -36.71681, 0.0 ], [ -54.38341, -36.98353, 0.0 ], [ -55.1667, -38.0, 0.0 ], [ -56.0, -38.0, 0.0 ], [ -54.70014, -36.71681, 0.0 ] ] ] } },
{ "type": "Feature", "properties": { "name": "UM_Vieira_RES_5_14_B", "cmt": null, "desc": "This is track no: 2", "src": null, "link1_href": null, "link1_text": null, "link1_type": null, "link2_href": null, "link2_text": null, "link2_type": null, "number": 2, "type": null }, "geometry": { "type": "MultiLineString", "coordinates": [ [ [ -56.0, -38.0, 0.0 ], [ -55.1667, -38.0, 0.0 ], [ -55.90018, -39.88351, 0.0 ], [ -56.58345, -39.88351, 0.0 ], [ -56.0, -38.0, 0.0 ] ] ] } },
{ "type": "Feature", "properties": { "name": "UM_Vieira_RES_5_14_C", "cmt": null, "desc": "This is track no: 3", "src": null, "link1_href": null, "link1_text": null, "link1_type": null, "link2_href": null, "link2_text": null, "link2_type": null, "number": 3, "type": null }, "geometry": { "type": "MultiLineString", "coordinates": [ [ [ -56.58345, -39.88351, 0.0 ], [ -55.90018, -39.88351, 0.0 ], [ -57.43342, -41.41675, 0.0 ], [ -58.38341, -41.41675, 0.0 ], [ -56.58345, -39.88351, 0.0 ] ] ] } },
{ "type": "Feature", "properties": { "name": "UM_Vieira_RES_5_14_D", "cmt": null, "desc": "This is track no: 4", "src": null, "link1_href": null, "link1_text": null, "link1_type": null, "link2_href": null, "link2_text": null, "link2_type": null, "number": 4, "type": null }, "geometry": { "type": "MultiLineString", "coordinates": [ [ [ -58.38341, -41.41675, 0.0 ], [ -57.43342, -41.41675, 0.0 ], [ -58.40008, -42.30006, 0.0 ], [ -59.30006, -42.30006, 0.0 ], [ -58.38341, -41.41675, 0.0 ] ] ] } },
{ "type": "Feature", "properties": { "name": "UM_Vieira_RES_5_14_E", "cmt": null, "desc": "This is track no: 5", "src": null, "link1_href": null, "link1_text": null, "link1_type": null, "link2_href": null, "link2_text": null, "link2_type": null, "number": 5, "type": null }, "geometry": { "type": "MultiLineString", "coordinates": [ [ [ -59.30006, -42.30006, 0.0 ], [ -58.40008, -42.30006, 0.0 ], [ -59.15003, -43.03334, 0.0 ], [ -60.05001, -43.03334, 0.0 ], [ -59.30006, -42.30006, 0.0 ] ] ] } },
{ "type": "Feature", "properties": { "name": "UM_Vieira_RES_5_14_F", "cmt": null, "desc": "This is track no: 6", "src": null, "link1_href": null, "link1_text": null, "link1_type": null, "link2_href": null, "link2_text": null, "link2_type": null, "number": 6, "type": null }, "geometry": { "type": "MultiLineString", "coordinates": [ [ [ -60.05001, -43.03334, 0.0 ], [ -59.15003, -43.03334, 0.0 ], [ -59.60012, -44.20004, 0.0 ], [ -60.51677, -44.20004, 0.0 ], [ -60.05001, -43.03334, 0.0 ] ] ] } },
{ "type": "Feature", "properties": { "name": "UM_Vieira_RES_5_14_G", "cmt": null, "desc": "This is track no: 7", "src": null, "link1_href": null, "link1_text": null, "link1_type": null, "link2_href": null, "link2_text": null, "link2_type": null, "number": 7, "type": null }, "geometry": { "type": "MultiLineString", "coordinates": [ [ [ -60.51677, -44.20004, 0.0 ], [ -59.60012, -44.20004, 0.0 ], [ -59.65013, -44.38341, 0.0 ], [ -60.18337, -44.90018, 0.0 ], [ -60.56678, -45.25005, 0.0 ], [ -60.91685, -45.25005, 0.0 ], [ -60.51677, -44.20004, 0.0 ] ] ] } },
{ "type": "Feature", "properties": { "name": "UM_Vieira_RES_5_14_H", "cmt": null, "desc": "This is track no: 8", "src": null, "link1_href": null, "link1_text": null, "link1_type": null, "link2_href": null, "link2_text": null, "link2_type": null, "number": 8, "type": null }, "geometry": { "type": "MultiLineString", "coordinates": [ [ [ -60.1775, -45.0, 0.0 ], [ -60.3945, -45.1667, 0.0 ], [ -60.5655, -45.2933, 0.0 ], [ -60.6838, -45.5403, 0.0 ], [ -60.7047, -45.6667, 0.0 ], [ -60.7437, -45.8333, 0.0 ], [ -60.795, -46.0, 0.0 ], [ -60.86, -46.1667, 0.0 ], [ -60.9303, -46.2845, 0.0 ], [ -60.9653, -46.6145, 0.0 ], [ -60.9305, -46.6667, 0.0 ], [ -60.8897, -46.8333, 0.0 ], [ -60.8647, -47.0, 0.0 ], [ -54.0, -47.0, 0.0 ], [ -54.0, -46.08335, 0.0 ], [ -56.0, -45.6668, 0.0 ], [ -55.8335, -45.0, 0.0 ], [ -60.1775, -45.0, 0.0 ] ] ] } },
{ "type": "Feature", "properties": { "name": "UM_Vieira_RES_5_14_I", "cmt": null, "desc": "This is track no: 9", "src": null, "link1_href": null, "link1_text": null, "link1_type": null, "link2_href": null, "link2_text": null, "link2_type": null, "number": 9, "type": null }, "geometry": { "type": "MultiLineString", "coordinates": [ [ [ -61.0, -47.5001, 0.0 ], [ -61.0, -48.5001, 0.0 ], [ -62.0, -48.5001, 0.0 ], [ -62.0, -47.5001, 0.0 ], [ -61.0, -47.5001, 0.0 ] ] ] } },
{ "type": "Feature", "properties": { "name": "UM_Vieira_RES_5_14_J", "cmt": null, "desc": "This is track no: 10", "src": null, "link1_href": null, "link1_text": null, "link1_type": null, "link2_href": null, "link2_text": null, "link2_type": null, "number": 10, "type": null }, "geometry": { "type": "MultiLineString", "coordinates": [ [ [ -64.0, -48.0, 0.0 ], [ -65.38341, -48.0, 0.0 ], [ -65.38341, -47.25005, 0.0 ], [ -65.48343, -47.0, 0.0 ], [ -65.23338, -45.5001, 0.0 ], [ -64.0, -45.5001, 0.0 ], [ -64.0, -48.0, 0.0 ] ] ] } }
]
}
