{
"type": "FeatureCollection",
"name": "area_centolla_S3",
"crs": { "type": "name", "properties": { "name": "urn:ogc:def:crs:OGC:1.3:CRS84" } },
"features": [
{ "type": "Feature", "properties": { "FID": 0 }, "geometry": { "type": "MultiLineString", "coordinates": [ [ [ -68.527294335808492, -52.54 ], [ -68.432595886999934, -52.397689659999969 ], [ -68.422426782999935, -52.392912563999971 ], [ -68.410922088999939, -52.385060342999964 ], [ -68.406115577999969, -52.380682134999972 ], [ -68.39320700199994, -52.364537491999954 ], [ -68.382523221999975, -52.354543754999952 ], [ -68.371910825999976, -52.346643944999983 ], [ -68.354731117999961, -52.336388467999939 ], [ -68.351661612999976, -52.329297673999974 ], [ -68.352006634999952, -52.323515583999949 ], [ -68.356777453999939, -52.317388471999948 ], [ -68.369614645999945, -52.306288285999983 ], [ -68.388412387999949, -52.286229429999935 ], [ -68.421498792999955, -52.253678402999981 ], [ -68.497498777999965, -52.186303964999979 ], [ -68.51467848599998, -52.169278920999943 ], [ -68.552966095999977, -52.137657272999945 ], [ -68.578152690999957, -52.113743689999978 ], [ -68.608276792999959, -52.082691444999966 ], [ -68.627809661999947, -52.063754782999979 ], [ -68.645798387999946, -52.043672131999983 ], [ -68.66956920299998, -52.021269506999943 ], [ -68.695291176999945, -51.995595122999987 ], [ -68.70844959599998, -51.981246972999941 ], [ -68.756395734999955, -51.921213171999966 ], [ -68.767614893999962, -51.904485560999944 ], [ -68.784354401999963, -51.875943925999934 ], [ -68.807256713999948, -51.843856893999941 ], [ -68.824710060999962, -51.815803048999953 ], [ -68.852109553999981, -51.775875692999932 ], [ -68.871514058999935, -51.750915146999944 ], [ -68.891941730999974, -51.727667812999982 ], [ -68.897557258999939, -51.72048184099998 ], [ -68.897616745999983, -51.719363493999936 ], [ -68.922612983999954, -51.689370387999986 ], [ -68.933142098999951, -51.672392933999959 ], [ -68.940756373999989, -51.652108028999976 ], [ -68.948418237999988, -51.642471211999975 ], [ -68.952689370999963, -51.63373858999995 ], [ -68.957003333999978, -51.627102272999934 ], [ -68.975234763999936, -51.615866457999971 ], [ -68.981802075999951, -51.613096765999956 ], [ -68.988041022999937, -51.611412106999978 ], [ -69.013610710999956, -51.60715763099995 ], [ -69.013868420999984, -51.606339139999932 ], [ -69.015075683999953, -51.608398437999938 ], [ -69.017395019999981, -51.609802245999958 ], [ -69.019287108999947, -51.609985351999967 ], [ -69.025207519999981, -51.612915038999972 ], [ -69.037902831999986, -51.615417479999962 ], [ -69.049499511999954, -51.619079589999956 ], [ -69.051574706999986, -51.620910644999981 ], [ -69.057006835999971, -51.623413085999971 ], [ -69.064514159999987, -51.625610351999967 ], [ -69.065185546999942, -51.626708983999947 ], [ -69.06750488299997, -51.627319335999971 ], [ -69.080322265999939, -51.635009765999939 ], [ -69.094604491999974, -51.640502929999968 ], [ -69.09930419899996, -51.640380858999947 ], [ -69.102294921999942, -51.641601562999938 ], [ -69.103393554999968, -51.64367675799997 ], [ -69.112304687999938, -51.646789550999983 ], [ -69.109497069999975, -51.650390624999943 ], [ -69.110290526999961, -51.652221679999968 ], [ -69.117309569999975, -51.655090331999986 ], [ -69.115600585999971, -51.653381347999982 ], [ -69.114990233999947, -51.651184081999986 ], [ -69.116394042999957, -51.649414062999938 ], [ -69.120483397999976, -51.646789550999983 ], [ -69.117004394999981, -51.644287108999947 ], [ -69.116210937999938, -51.642211913999972 ], [ -69.123718261999954, -51.642700194999975 ], [ -69.124084472999982, -51.641784667999957 ], [ -69.11828613299997, -51.641113280999946 ], [ -69.116699218999941, -51.640380858999947 ], [ -69.117187499999943, -51.639709472999982 ], [ -69.116210937999938, -51.639099120999958 ], [ -69.111511229999962, -51.638610839999956 ], [ -69.104309081999986, -51.635498046999942 ], [ -69.103393554999968, -51.634277343999941 ], [ -69.112304687999938, -51.632080077999944 ], [ -69.116821288999972, -51.629882812999938 ], [ -69.126708983999947, -51.633178710999971 ], [ -69.130981444999975, -51.633605956999986 ], [ -69.136718749999943, -51.633605956999986 ], [ -69.143493651999961, -51.632324218999941 ], [ -69.15148925799997, -51.629028319999975 ], [ -69.169006347999982, -51.623779296999942 ], [ -69.172424315999933, -51.623413085999971 ], [ -69.174377440999933, -51.621887206999986 ], [ -69.188903808999953, -51.618896483999947 ], [ -69.196899413999972, -51.616210937999938 ], [ -69.205017089999956, -51.614990233999947 ], [ -69.237487792999957, -51.604980468999941 ], [ -69.24969482399996, -51.600402831999986 ], [ -69.268615722999982, -51.599792479999962 ], [ -69.288513183999953, -51.59539794899996 ], [ -69.300109862999989, -51.593811034999931 ], [ -69.321777343999941, -51.587097167999957 ], [ -69.335205077999944, -51.585510253999985 ], [ -69.346008300999983, -51.585876464999956 ], [ -69.390808104999962, -51.592102050999983 ], [ -69.45422363299997, -51.606811522999976 ], [ -69.467224120999958, -51.603576659999931 ], [ -69.490783690999933, -51.601318358999947 ], [ -69.500183104999962, -51.601989745999958 ], [ -69.51672363299997, -51.605102538999972 ], [ -69.523620604999962, -51.608276366999974 ], [ -69.528503417999957, -51.616210937999938 ], [ -69.551025390999939, -51.616027831999986 ], [ -69.555175780999946, -51.617492675999983 ], [ -69.561706542999957, -51.61828613299997 ], [ -69.572082519999981, -51.617309569999975 ], [ -69.575805663999972, -51.619812011999954 ], [ -69.580810546999942, -51.618408202999944 ], [ -69.588684081999986, -51.619079589999956 ], [ -69.599426269999981, -51.622985839999956 ], [ -69.605407714999956, -51.623107909999931 ], [ -69.614501952999944, -51.627075194999975 ], [ -69.617797851999967, -51.626892089999956 ], [ -69.609680175999983, -51.622375487999932 ], [ -69.601379394999981, -51.62078857399996 ], [ -69.594787597999982, -51.617492675999983 ], [ -69.588500976999967, -51.61688232399996 ], [ -69.585388183999953, -51.615478515999939 ], [ -69.580993651999961, -51.615600585999971 ], [ -69.563781737999989, -51.609680175999983 ], [ -69.559204101999967, -51.609924315999933 ], [ -69.553710937999938, -51.608703612999932 ], [ -69.546875, -51.603027343999941 ], [ -69.540222167999957, -51.602783202999944 ], [ -69.532775878999985, -51.598693847999982 ], [ -69.529724120999958, -51.598815917999957 ], [ -69.527587890999939, -51.599914550999983 ], [ -69.524108886999954, -51.598999022999976 ], [ -69.517700194999975, -51.593017577999944 ], [ -69.509399413999972, -51.589721679999968 ], [ -69.50360107399996, -51.589599608999947 ], [ -69.500488280999946, -51.588684081999986 ], [ -69.499206542999957, -51.587097167999957 ], [ -69.494812011999954, -51.58508300799997 ], [ -69.484680175999983, -51.584594726999967 ], [ -69.479797362999989, -51.583312987999932 ], [ -69.47430419899996, -51.580688476999967 ], [ -69.466003417999957, -51.579589843999941 ], [ -69.45812988299997, -51.576782226999967 ], [ -69.448120116999974, -51.576477050999983 ], [ -69.445495604999962, -51.574218749999943 ], [ -69.44250488299997, -51.572814940999933 ], [ -69.440917968999941, -51.573303222999982 ], [ -69.437805175999983, -51.571289062999938 ], [ -69.424011229999962, -51.570922851999967 ], [ -69.409912108999947, -51.565795897999976 ], [ -69.396911620999958, -51.559509276999961 ], [ -69.392517089999956, -51.558898925999983 ], [ -69.390502929999968, -51.557678222999982 ], [ -69.380920409999987, -51.556518554999968 ], [ -69.374084472999982, -51.556701659999931 ], [ -69.363403319999975, -51.554687499999943 ], [ -69.356018065999933, -51.554321288999972 ], [ -69.352905272999976, -51.552978515999939 ], [ -69.344116210999971, -51.551574706999986 ], [ -69.318725585999971, -51.552917479999962 ], [ -69.306701659999987, -51.557312011999954 ], [ -69.296325683999953, -51.558776854999962 ], [ -69.289184569999975, -51.558776854999962 ], [ -69.252380370999958, -51.570800780999946 ], [ -69.241577147999976, -51.578979491999974 ], [ -69.232299804999968, -51.581298827999944 ], [ -69.222412108999947, -51.582702636999954 ], [ -69.198120116999974, -51.590209960999971 ], [ -69.154602050999983, -51.601379394999981 ], [ -69.134704589999956, -51.60321044899996 ], [ -69.12609863299997, -51.602600097999982 ], [ -69.121704101999967, -51.60070800799997 ], [ -69.112487792999957, -51.599426269999981 ], [ -69.110107421999942, -51.598083495999958 ], [ -69.101806640999939, -51.596313476999967 ], [ -69.089904784999987, -51.591003417999957 ], [ -69.081298827999944, -51.583496093999941 ], [ -69.075988769999981, -51.577392577999944 ], [ -69.066894530999946, -51.570922851999967 ], [ -69.059997558999953, -51.567199706999986 ], [ -69.050720214999956, -51.564025878999985 ], [ -69.037292479999962, -51.560729979999962 ], [ -69.012695312999938, -51.558410644999981 ], [ -69.009216308999953, -51.559387206999986 ], [ -69.004516601999967, -51.559082030999946 ], [ -69.001281737999989, -51.559875487999932 ], [ -68.994995116999974, -51.562805175999983 ], [ -68.988708495999958, -51.568786620999958 ], [ -68.988098144999981, -51.570495604999962 ], [ -68.982482909999987, -51.577026366999974 ], [ -68.981387223999945, -51.581867917999944 ], [ -68.979270959999951, -51.58242888999996 ], [ -68.969467580999947, -51.579371281999954 ], [ -68.958533957999975, -51.571994952999944 ], [ -68.95316827299996, -51.562120189999973 ], [ -68.947933458999955, -51.55693296499993 ], [ -68.946374911999953, -51.554303660999949 ], [ -68.946827009999936, -51.546594206999941 ], [ -68.95183577499995, -51.534708798999986 ], [ -68.952906531999986, -51.52801061599996 ], [ -68.957962886999951, -51.52012270299997 ], [ -68.95906933599997, -51.515958645999945 ], [ -68.963804463999963, -51.506214753999984 ], [ -68.993637510999974, -51.455962360999933 ], [ -68.997734942999955, -51.447196426999938 ], [ -69.002303507999954, -51.432220099999938 ], [ -69.008571008999979, -51.418457296999975 ], [ -69.010912397999959, -51.409905513999945 ], [ -69.016080587999966, -51.398541207999983 ], [ -69.02070625999994, -51.384378656999957 ], [ -69.025132056999951, -51.374070831999973 ], [ -69.032270439999934, -51.348858062999966 ], [ -69.048074819999954, -51.313323191999984 ], [ -69.05260055499997, -51.298089882999932 ], [ -69.069647013999941, -51.253303667999944 ], [ -69.072045509999953, -51.243209993999983 ], [ -69.078755589999957, -51.224250448999953 ], [ -69.088692219999984, -51.202478380999935 ], [ -69.095131040999945, -51.193655338999974 ], [ -69.101312880999956, -51.182733612999982 ], [ -69.108579754999937, -51.166986339999937 ], [ -69.118530660999966, -51.140260233999982 ], [ -69.124055768999938, -51.118488165999963 ], [ -69.136876776999941, -51.078910456999949 ], [ -69.138747032999959, -51.070944020999946 ], [ -69.140231816999972, -51.057024173999935 ], [ -69.146856235999962, -51.041491052999959 ], [ -69.151539015999958, -51.023802139999987 ], [ -69.155807768999978, -50.996976095999969 ], [ -69.159503852999933, -50.988754778999976 ], [ -69.16612827199998, -50.980888280999977 ], [ -69.171810424999933, -50.977019276999954 ], [ -69.17586502599994, -50.975520216999939 ], [ -69.181804160999945, -50.975334618999966 ], [ -69.186001529999942, -50.976348268999971 ], [ -69.197108853999964, -50.974092539999958 ], [ -69.205505370999958, -50.975280761999954 ], [ -69.203979491999974, -50.976806640999939 ], [ -69.203918456999986, -50.980285644999981 ], [ -69.207885741999974, -50.984802245999958 ], [ -69.219909667999957, -50.989196776999961 ], [ -69.231018065999933, -50.994689940999933 ], [ -69.242492675999983, -50.998596190999933 ], [ -69.264892577999944, -51.010192870999958 ], [ -69.270507812999938, -51.011474608999947 ], [ -69.277404784999987, -51.014282226999967 ], [ -69.283874511999954, -51.015502929999968 ], [ -69.297607421999942, -51.022216796999942 ], [ -69.307983397999976, -51.03039550799997 ], [ -69.311706542999957, -51.035522460999971 ], [ -69.325988769999981, -51.043395995999958 ], [ -69.334777831999986, -51.046691894999981 ], [ -69.340881347999982, -51.052307128999985 ], [ -69.356689452999944, -51.059997558999953 ], [ -69.374511718999941, -51.070678710999971 ], [ -69.379699706999986, -51.076110839999956 ], [ -69.382690429999968, -51.082702636999954 ], [ -69.393493651999961, -51.086486815999933 ], [ -69.405517577999944, -51.097717284999931 ], [ -69.409729003999985, -51.100097655999946 ], [ -69.414184569999975, -51.101196288999972 ], [ -69.420410155999946, -51.100097655999946 ], [ -69.425109862999989, -51.100402831999986 ], [ -69.426818847999982, -51.101806640999939 ], [ -69.424011229999962, -51.102600097999982 ], [ -69.422790526999961, -51.104492187999938 ], [ -69.427795409999987, -51.106689452999944 ], [ -69.430480956999986, -51.105712890999939 ], [ -69.434509276999961, -51.107177733999947 ], [ -69.432983397999976, -51.112182616999974 ], [ -69.434326171999942, -51.113708495999958 ], [ -69.438110351999967, -51.115295409999931 ], [ -69.442321776999961, -51.114501952999944 ], [ -69.443298339999956, -51.112792968999941 ], [ -69.442810058999953, -51.111389159999931 ], [ -69.440124511999954, -51.111816405999946 ], [ -69.43859863299997, -51.110290526999961 ], [ -69.440307616999974, -51.109008788999972 ], [ -69.449890136999954, -51.109497069999975 ], [ -69.458496093999941, -51.11437988299997 ], [ -69.464416503999985, -51.11437988299997 ], [ -69.464904784999987, -51.112609862999932 ], [ -69.458190917999957, -51.112609862999932 ], [ -69.455200194999975, -51.108581542999957 ], [ -69.456909179999968, -51.102783202999944 ], [ -69.449401854999962, -51.097412108999947 ], [ -69.448974608999947, -51.09539794899996 ], [ -69.447509765999939, -51.094116210999971 ], [ -69.442993163999972, -51.09289550799997 ], [ -69.443176269999981, -51.09149169899996 ], [ -69.441284179999968, -51.089782714999956 ], [ -69.438720702999944, -51.089294433999953 ], [ -69.435485839999956, -51.090087890999939 ], [ -69.433410644999981, -51.089416503999985 ], [ -69.433593749999943, -51.088012694999975 ], [ -69.431396483999947, -51.086791991999974 ], [ -69.427185058999953, -51.086120604999962 ], [ -69.420410155999946, -51.082702636999954 ], [ -69.414978026999961, -51.082397460999971 ], [ -69.404602050999983, -51.084411620999958 ], [ -69.396118163999972, -51.079711913999972 ], [ -69.393981933999953, -51.076293944999975 ], [ -69.39172363299997, -51.069396972999982 ], [ -69.388610839999956, -51.066284179999968 ], [ -69.388183608999952, -51.062988400999984 ], [ -69.383483886999954, -51.058410644999981 ], [ -69.376708983999947, -51.05438232399996 ], [ -69.374511718999941, -51.052001952999944 ], [ -69.374389647999976, -51.050292968999941 ], [ -69.372497558999953, -51.048095702999944 ], [ -69.371582030999946, -51.044982909999931 ], [ -69.372924804999968, -51.043823241999974 ], [ -69.380310058999953, -51.043090819999975 ], [ -69.380310058999953, -51.041198729999962 ], [ -69.383117675999983, -51.039001464999956 ], [ -69.382385253999985, -51.03680419899996 ], [ -69.369384765999939, -51.028808593999941 ], [ -69.361389159999987, -51.02508544899996 ], [ -69.360412597999982, -51.023010253999985 ], [ -69.358398437999938, -51.021911620999958 ], [ -69.358398437999938, -51.020019530999946 ], [ -69.349609374999943, -51.014282226999967 ], [ -69.349182128999985, -51.01281738299997 ], [ -69.336608886999954, -51.006408690999933 ], [ -69.321228026999961, -50.988403319999975 ], [ -69.305114745999958, -50.981506347999982 ], [ -69.292175292999957, -50.97821044899996 ], [ -69.282226562999938, -50.972106933999953 ], [ -69.271789550999983, -50.968627929999968 ], [ -69.264587401999961, -50.964721679999968 ], [ -69.261291503999985, -50.963684081999986 ], [ -69.251403808999953, -50.963195800999983 ], [ -69.244628905999946, -50.960693358999947 ], [ -69.240112304999968, -50.957824706999986 ], [ -69.234375, -50.957519530999946 ], [ -69.231506347999982, -50.958801269999981 ], [ -69.231323241999974, -50.963012694999975 ], [ -69.224792479999962, -50.970092772999976 ], [ -69.226623534999987, -50.974182128999985 ], [ -69.225205529999982, -50.97489203899994 ], [ -69.223849236999968, -50.972564925999961 ], [ -69.222578604999967, -50.960001371999965 ], [ -69.217438968999943, -50.948993984999959 ], [ -69.214012544999946, -50.944725231999939 ], [ -69.209244104999982, -50.941955539999981 ], [ -69.204861137999956, -50.940513585999952 ], [ -69.198122504999958, -50.934146148999957 ], [ -69.182917748999955, -50.92518033999994 ], [ -69.17352294899996, -50.916503905999946 ], [ -69.168884276999961, -50.915100097999982 ], [ -69.16180419899996, -50.911010741999974 ], [ -69.160400390999939, -50.908996581999986 ], [ -69.170104979999962, -50.914184569999975 ], [ -69.172180175999983, -50.914184569999975 ], [ -69.164978026999961, -50.90930175799997 ], [ -69.158508300999983, -50.907409667999957 ], [ -69.151611327999944, -50.903808593999941 ], [ -69.145812987999989, -50.905029296999942 ], [ -69.148010253999985, -50.906677245999958 ], [ -69.151916503999985, -50.905883788999972 ], [ -69.153381347999982, -50.906677245999958 ], [ -69.153808593999941, -50.911376952999944 ], [ -69.15789794899996, -50.913391112999932 ], [ -69.16180419899996, -50.916809081999986 ], [ -69.166809081999986, -50.919677733999947 ], [ -69.173889159999987, -50.920593261999954 ], [ -69.171386718999941, -50.921691894999981 ], [ -69.167175292999957, -50.921691894999981 ], [ -69.159912108999947, -50.919677733999947 ], [ -69.145141663999937, -50.910424944999932 ], [ -69.132018935999952, -50.899586499999941 ], [ -69.12833077199997, -50.876006041999972 ], [ -69.129687064999985, -50.86453703899997 ], [ -69.127997646999972, -50.86360904999998 ], [ -69.128580614999976, -50.84589396299998 ], [ -69.130805410999983, -50.824336045999985 ], [ -69.13100766499997, -50.800600921999944 ], [ -69.135788510999987, -50.781824498999981 ], [ -69.138101346999974, -50.769289498999967 ], [ -69.139143550999961, -50.755655186999945 ], [ -69.141313618999959, -50.74264905299998 ], [ -69.14102808399997, -50.727244422999945 ], [ -69.138715247999983, -50.71863553299994 ], [ -69.131505480999976, -50.706585941999947 ], [ -69.127650753999944, -50.696606482999982 ], [ -69.125994649999939, -50.680987700999935 ], [ -69.124124392999988, -50.675434038999981 ], [ -69.120269665999956, -50.667895905999956 ], [ -69.111732159999974, -50.659315569999933 ], [ -69.108605548999947, -50.655003986999986 ], [ -69.104108366999981, -50.644396349999965 ], [ -69.092615570999953, -50.622866985999963 ], [ -69.089588895999952, -50.612116580999952 ], [ -69.087190398999951, -50.606719963999979 ], [ -69.086348069999985, -50.601851586999942 ], [ -69.080980005999947, -50.588973943999974 ], [ -69.080394658999978, -50.580807633999939 ], [ -69.078210313999932, -50.569943014999978 ], [ -69.079109749999986, -50.569400497999936 ], [ -69.078638616999967, -50.566045457999962 ], [ -69.079309624999951, -50.565331618999949 ], [ -69.07725376999997, -50.564060986999948 ], [ -69.077724903999979, -50.56281890799994 ], [ -69.073855899999955, -50.561234186999968 ], [ -69.074155711999936, -50.557593611999948 ], [ -69.073513257999934, -50.556137381999974 ], [ -69.070343815999934, -50.552525359999947 ], [ -69.069173120999949, -50.552154163999944 ], [ -69.061620710999932, -50.542374578999954 ], [ -69.05009936099998, -50.529868131999933 ], [ -69.047600926999962, -50.524871263999955 ], [ -69.042447014999937, -50.523629185999937 ], [ -69.046358848999944, -50.522501320999936 ], [ -69.046358848999944, -50.521687544999963 ], [ -69.038820715999975, -50.509823552999933 ], [ -69.036850521999952, -50.50020101299998 ], [ -69.034808944999952, -50.495689553999966 ], [ -69.025543323999955, -50.488251358999946 ], [ -69.019432867999967, -50.481541278999941 ], [ -69.010238630999936, -50.474031699999955 ], [ -69.010281460999977, -50.473260754999956 ], [ -69.005698618999986, -50.46877785099997 ], [ -69.000858794999942, -50.460754307999935 ], [ -68.996946960999935, -50.455985867999971 ], [ -68.984897370999988, -50.434984744999952 ], [ -68.970991800999968, -50.419865649999963 ], [ -68.962354356999981, -50.412027705999947 ], [ -68.95837113999994, -50.409500717999947 ], [ -68.955415848999962, -50.40528907199996 ], [ -68.948120421999988, -50.398736035999946 ], [ -68.929003831999978, -50.385087447999979 ], [ -68.926005710999959, -50.383388512999943 ], [ -68.924520926999946, -50.38368832499998 ], [ -68.924920676999989, -50.382489076999946 ], [ -68.925877219999961, -50.382260647999942 ], [ -68.924606587999961, -50.38190372899993 ], [ -68.926533950999954, -50.380775864999976 ], [ -68.925577407999981, -50.379790767999964 ], [ -68.925991433999968, -50.379291080999963 ], [ -68.917867953999973, -50.373894462999942 ], [ -68.90660358599996, -50.36345814699996 ], [ -68.897509285999945, -50.360331535999933 ], [ -68.89536777099994, -50.361687827999958 ], [ -68.885045668999965, -50.357733163999967 ], [ -68.883532331999959, -50.358032975999947 ], [ -68.883032644999957, -50.359774741999956 ], [ -68.87930640899998, -50.360845498999936 ], [ -68.881033897999941, -50.359132286999966 ], [ -68.881305155999939, -50.356276933999936 ], [ -68.880605594999963, -50.354877810999938 ], [ -68.883775036999964, -50.354235356999936 ], [ -68.88466019599997, -50.351993903999983 ], [ -68.884260446999974, -50.350166477999949 ], [ -68.88213320899996, -50.349509746999956 ], [ -68.880562764999979, -50.347254017999944 ], [ -68.878092883999955, -50.346583009999961 ], [ -68.879377792999946, -50.345398037999985 ], [ -68.879106533999959, -50.343242246999978 ], [ -68.877364768999939, -50.344056021999961 ], [ -68.877336215999946, -50.344955458999948 ], [ -68.874966271999938, -50.344498601999931 ], [ -68.876051306999955, -50.342799666999952 ], [ -68.87867823199997, -50.341957337999986 ], [ -68.878778168999986, -50.339501733999953 ], [ -68.879506283999945, -50.338673681999978 ], [ -68.878506909999942, -50.338787895999985 ], [ -68.880776915999945, -50.336803424999971 ], [ -68.880005970999946, -50.335618453999984 ], [ -68.86744241699995, -50.326652644999967 ], [ -68.862431271999981, -50.324111379999977 ], [ -68.840773417999969, -50.316987273999985 ], [ -68.819643803999952, -50.312818457999981 ], [ -68.815246559999935, -50.309734676999938 ], [ -68.809221764999961, -50.308321276999948 ], [ -68.803710932999934, -50.305937056999937 ], [ -68.797115066999936, -50.301354214999947 ], [ -68.793688642999939, -50.297799299999951 ], [ -68.782552765999981, -50.293187904999968 ], [ -68.773258590999944, -50.288148206999949 ], [ -68.765334985999971, -50.286549208999986 ], [ -68.754132185999936, -50.286458788999937 ], [ -68.74880219299996, -50.288743071999932 ], [ -68.737333190999948, -50.289552088999983 ], [ -68.731670073999965, -50.286887091999972 ], [ -68.719439644999966, -50.283365489999937 ], [ -68.717678843999977, -50.281842634999975 ], [ -68.717155361999971, -50.279605941999932 ], [ -68.715394560999982, -50.278321032999941 ], [ -68.711206709999942, -50.279415584999981 ], [ -68.707304393999948, -50.277559604999965 ], [ -68.705733948999978, -50.275703625999938 ], [ -68.703402076999964, -50.274989786999981 ], [ -68.695692623999946, -50.276369874999943 ], [ -68.691647539999963, -50.276274695999973 ], [ -68.689981916999955, -50.274704251999935 ], [ -68.690362630999971, -50.272705504999976 ], [ -68.689696381999966, -50.271563362999984 ], [ -68.687269331999971, -50.27094470399993 ], [ -68.683652550999966, -50.271515773999965 ], [ -68.676323810999975, -50.271135059999949 ], [ -68.672754619999978, -50.270135686999936 ], [ -68.669090249999954, -50.266661673999977 ], [ -68.66823364399994, -50.260903377999966 ], [ -68.667091502999938, -50.259618468999975 ], [ -68.664093381999976, -50.259570879999956 ], [ -68.663617488999932, -50.26037989699995 ], [ -68.661904277999952, -50.260427485999969 ], [ -68.659334459999968, -50.261950340999931 ], [ -68.660048297999936, -50.258238381999945 ], [ -68.659191691999979, -50.257143829999961 ], [ -68.63701511499994, -50.251099998999962 ], [ -68.634159761999967, -50.25152830199994 ], [ -68.633541101999981, -50.250624106999965 ], [ -68.634540475999984, -50.249386786999935 ], [ -68.63392181599994, -50.248815715999967 ], [ -68.593804103999958, -50.238346087999957 ], [ -68.574197344999959, -50.232207077999931 ], [ -68.54293122699994, -50.223926553999945 ], [ -68.531842938999944, -50.221689860999959 ], [ -68.528559282999936, -50.21859656099997 ], [ -68.521611256999961, -50.215979153999967 ], [ -68.465027673999941, -50.202701761999947 ], [ -68.458888664999961, -50.199608462999947 ], [ -68.407206770999949, -50.186235891999956 ], [ -68.400068387999966, -50.183570894999946 ], [ -68.388409029999934, -50.177765010999963 ], [ -68.384744659999967, -50.174386175999985 ], [ -68.364519240999982, -50.165058688999977 ], [ -68.359379604999958, -50.160918426999956 ], [ -68.354906218999986, -50.15130540399997 ], [ -68.354858628999978, -50.14859281899993 ], [ -68.355905591999942, -50.145499518999941 ], [ -68.35585800299998, -50.139693633999968 ], [ -68.357761571999959, -50.137314172999936 ], [ -68.360778808999953, -50.135375976999967 ], [ -68.377075194999975, -50.132995604999962 ], [ -68.387878417999957, -50.129516601999967 ], [ -68.393310546999942, -50.131591796999942 ], [ -68.396789550999983, -50.131408690999933 ], [ -68.40148925799997, -50.129211425999983 ], [ -68.411499022999976, -50.115478515999939 ], [ -68.418212890999939, -50.113708495999958 ], [ -68.426391601999967, -50.114624022999976 ], [ -68.43328857399996, -50.112304687999938 ], [ -68.439880370999958, -50.112792968999941 ], [ -68.451721190999933, -50.110717772999976 ], [ -68.461914062999938, -50.106323241999974 ], [ -68.484375, -50.092712401999961 ], [ -68.490295409999987, -50.088012694999975 ], [ -68.500610351999967, -50.078186034999931 ], [ -68.502807616999974, -50.073181151999961 ], [ -68.500610351999967, -50.070495604999962 ], [ -68.5, -50.06610107399996 ], [ -68.500610351999967, -50.063903808999953 ], [ -68.502319335999971, -50.062683104999962 ], [ -68.50360107399996, -50.059875487999932 ], [ -68.509704589999956, -50.058105468999941 ], [ -68.513122558999953, -50.053100585999971 ], [ -68.513183593999941, -50.045715331999986 ], [ -68.512207030999946, -50.042175292999957 ], [ -68.513000487999989, -50.036987304999968 ], [ -68.510986327999944, -50.02117919899996 ], [ -68.509277343999941, -50.019775390999939 ], [ -68.510803222999982, -50.018188476999967 ], [ -68.515991210999971, -50.015808104999962 ], [ -68.516418456999986, -50.014587401999961 ], [ -68.522094726999967, -50.012390136999954 ], [ -68.521911620999958, -50.011718749999943 ], [ -68.523681640999939, -50.011474608999947 ], [ -68.525024413999972, -50.009582519999981 ], [ -68.528076171999942, -50.008117675999983 ], [ -68.528198241999974, -50.006774901999961 ], [ -68.527221679999968, -50.005310058999953 ], [ -68.528808593999941, -50.005981444999975 ], [ -68.541687011999954, -50.000183104999962 ], [ -68.550170897999976, -49.992309569999975 ], [ -68.556396483999947, -49.983703612999932 ], [ -68.566894530999946, -49.972900390999939 ], [ -68.580688476999967, -49.964416503999985 ], [ -68.593994140999939, -49.966674804999968 ], [ -68.609313964999956, -49.975585937999938 ], [ -68.623596190999933, -49.981628417999957 ], [ -68.643493651999961, -49.988708495999958 ], [ -68.659729003999985, -49.992126464999956 ], [ -68.672912597999982, -49.99328613299997 ], [ -68.683410644999981, -49.992004394999981 ], [ -68.710693358999947, -49.985900878999985 ], [ -68.733093261999954, -49.983398437999938 ], [ -68.742309569999975, -49.979980468999941 ], [ -68.754394530999946, -49.978393554999968 ], [ -68.767395019999981, -49.977294921999942 ], [ -68.795898437999938, -49.977172851999967 ], [ -68.815612792999957, -49.979187011999954 ], [ -68.823181151999961, -49.978088378999985 ], [ -68.836425780999946, -49.972595214999956 ], [ -68.848693847999982, -49.969177245999958 ], [ -68.85906982399996, -49.969177245999958 ], [ -68.880371093999941, -49.971374511999954 ], [ -68.889526366999974, -49.973999022999976 ], [ -68.895874022999976, -49.976806640999939 ], [ -68.900512694999975, -49.980590819999975 ], [ -68.901977538999972, -49.989624022999976 ], [ -68.904479979999962, -49.994995116999974 ], [ -68.916320800999983, -49.999877929999968 ], [ -68.932800292999957, -50.0 ], [ -68.911987304999968, -49.992187499999943 ], [ -68.908813476999967, -49.989807128999985 ], [ -68.905090331999986, -49.978515624999943 ], [ -68.896118163999972, -49.971496581999986 ], [ -68.882812499999943, -49.967407226999967 ], [ -68.874511718999941, -49.965820312999938 ], [ -68.866516112999989, -49.964477538999972 ], [ -68.85321044899996, -49.96398925799997 ], [ -68.836181640999939, -49.965576171999942 ], [ -68.818908690999933, -49.968811034999931 ], [ -68.808410644999981, -49.968688964999956 ], [ -68.792785644999981, -49.965393065999933 ], [ -68.762878417999957, -49.96649169899996 ], [ -68.735412597999982, -49.963378905999946 ], [ -68.720886229999962, -49.963378905999946 ], [ -68.704284667999957, -49.966979979999962 ], [ -68.692993163999972, -49.966308593999941 ], [ -68.678771972999982, -49.966674804999968 ], [ -68.659118651999961, -49.964904784999931 ], [ -68.649108886999954, -49.962890624999943 ], [ -68.640075683999953, -49.959594726999967 ], [ -68.615173339999956, -49.945190429999968 ], [ -68.610778808999953, -49.941284179999968 ], [ -68.604492187999938, -49.939086913999972 ], [ -68.598571776999961, -49.937805175999983 ], [ -68.581909179999968, -49.936279296999942 ], [ -68.57141113299997, -49.936828612999932 ], [ -68.569396972999982, -49.934997558999953 ], [ -68.573181151999961, -49.932678222999982 ], [ -68.573791503999985, -49.928894042999957 ], [ -68.577575683999953, -49.925781249999943 ], [ -68.576782226999967, -49.922180175999983 ], [ -68.579101562999938, -49.917602538999972 ], [ -68.578369140999939, -49.912902831999986 ], [ -68.580383300999983, -49.907714843999941 ], [ -68.584594726999967, -49.903808593999941 ], [ -68.583312987999989, -49.900390624999943 ], [ -68.582885741999974, -49.895507812999938 ], [ -68.587829589999956, -49.891113280999946 ], [ -68.588684081999986, -49.886474608999947 ], [ -68.590270995999958, -49.884582519999981 ], [ -68.589294433999953, -49.881225585999971 ], [ -68.595520019999981, -49.874206542999957 ], [ -68.607971190999933, -49.856689452999944 ], [ -68.610290526999961, -49.851501464999956 ], [ -68.610595702999944, -49.841918944999975 ], [ -68.621215819999975, -49.832397460999971 ], [ -68.624206542999957, -49.827392577999944 ], [ -68.625427245999958, -49.823181151999961 ], [ -68.627319335999971, -49.820800780999946 ], [ -68.627014159999987, -49.818725585999971 ], [ -68.621887206999986, -49.817199706999986 ], [ -68.620117187999938, -49.814208983999947 ], [ -68.62078857399996, -49.81219482399996 ], [ -68.624572753999985, -49.809082030999946 ], [ -68.629699706999986, -49.801696776999961 ], [ -68.631469726999967, -49.797912597999982 ], [ -68.631774901999961, -49.793579101999967 ], [ -68.631103515999939, -49.791076659999931 ], [ -68.633789062999938, -49.786376952999944 ], [ -68.635375976999967, -49.785278319999975 ], [ -68.635620116999974, -49.783508300999983 ], [ -68.643188476999967, -49.779418944999975 ], [ -68.637390136999954, -49.777587890999939 ], [ -68.626708983999947, -49.786499022999976 ], [ -68.624389647999976, -49.790222167999957 ], [ -68.625793456999986, -49.794006347999982 ], [ -68.625183104999962, -49.796875 ], [ -68.619873046999942, -49.798889159999931 ], [ -68.614990233999947, -49.804504394999981 ], [ -68.612792968999941, -49.808776854999962 ], [ -68.607177733999947, -49.825622558999953 ], [ -68.602111815999933, -49.831420897999976 ], [ -68.593994140999939, -49.834594726999967 ], [ -68.584228515999939, -49.845703124999943 ], [ -68.573791503999985, -49.855590819999975 ], [ -68.568481444999975, -49.858398437999938 ], [ -68.55828857399996, -49.87219238299997 ], [ -68.556579589999956, -49.879089354999962 ], [ -68.556518554999968, -49.883422851999967 ], [ -68.552978515999939, -49.884216308999953 ], [ -68.550903319999975, -49.888183593999941 ], [ -68.552917479999962, -49.889709472999982 ], [ -68.552917479999962, -49.892700194999975 ], [ -68.546691894999981, -49.893981933999953 ], [ -68.541625976999967, -49.900512694999975 ], [ -68.544799804999968, -49.906921386999954 ], [ -68.543518065999933, -49.909606933999953 ], [ -68.542785644999981, -49.915588378999985 ], [ -68.538085937999938, -49.921875 ], [ -68.531982421999942, -49.926513671999942 ], [ -68.533691405999946, -49.93078613299997 ], [ -68.531921386999954, -49.933593749999943 ], [ -68.529174804999968, -49.935791015999939 ], [ -68.526611327999944, -49.936584472999982 ], [ -68.518005370999958, -49.936401366999974 ], [ -68.510681151999961, -49.937927245999958 ], [ -68.499206542999957, -49.945800780999946 ], [ -68.495483397999976, -49.949890136999954 ], [ -68.49188232399996, -49.955322265999939 ], [ -68.48937988299997, -49.961791991999974 ], [ -68.48742675799997, -49.964111327999944 ], [ -68.484802245999958, -49.964111327999944 ], [ -68.476989745999958, -49.967407226999967 ], [ -68.472412108999947, -49.973083495999958 ], [ -68.465881347999982, -49.979003905999946 ], [ -68.455688476999967, -49.992309569999975 ], [ -68.45227050799997, -49.999877929999968 ], [ -68.445190429999968, -50.012023925999983 ], [ -68.443725585999971, -50.02117919899996 ], [ -68.440490722999982, -50.027282714999956 ], [ -68.422607421999942, -50.046508788999972 ], [ -68.419677733999947, -50.054504394999981 ], [ -68.416381835999971, -50.059020995999958 ], [ -68.408874511999954, -50.065307616999974 ], [ -68.403015136999954, -50.067810058999953 ], [ -68.399902343999941, -50.072387694999975 ], [ -68.380371093999941, -50.081604003999985 ], [ -68.376525878999985, -50.084411620999958 ], [ -68.369384765999939, -50.087280272999976 ], [ -68.363403319999975, -50.09289550799997 ], [ -68.359924315999933, -50.098205565999933 ], [ -68.357971190999933, -50.103088378999985 ], [ -68.356689452999944, -50.112487792999957 ], [ -68.353088378999985, -50.117492675999983 ], [ -68.343579983999973, -50.120800713999984 ], [ -68.335846735999951, -50.122668590999979 ], [ -68.326612057999967, -50.122975383999972 ], [ -68.284902475999957, -50.119753750999962 ], [ -68.238093718999949, -50.120255817999976 ], [ -68.19476849299997, -50.115327953999952 ], [ -68.149749090999933, -50.106107541999961 ], [ -68.137285473999953, -50.102367029999982 ], [ -68.102157056999943, -50.089223482999955 ], [ -68.064159877999941, -50.077025769999977 ], [ -68.039503902999968, -50.068174174999967 ], [ -67.986756011999944, -50.042801981999958 ], [ -67.970283911999957, -50.032835155999976 ], [ -67.958169166999937, -50.024373056999934 ], [ -67.916990214999942, -50.005301676999977 ], [ -67.888027415999943, -49.98705358999996 ], [ -67.864213769999935, -49.969086279999942 ], [ -67.857289537999975, -49.964853218999963 ], [ -67.836402629999952, -49.944608764999941 ], [ -67.833536806999973, -49.938332222999975 ], [ -67.829920977999961, -49.933301565999955 ], [ -67.818613778999975, -49.922365563999961 ], [ -67.793812805999949, -49.889643413999977 ], [ -67.789030088999937, -49.881091630999947 ], [ -67.785874923999984, -49.870940850999943 ], [ -67.783433596999942, -49.866343731999962 ], [ -67.773140048999949, -49.850396583999952 ], [ -67.770712997999965, -49.845114180999985 ], [ -67.767771984999968, -49.841202346999978 ], [ -67.767957582999941, -49.840317186999982 ], [ -67.765373487999966, -49.83791869099997 ], [ -67.763117758999954, -49.83330729499994 ], [ -67.761161841999979, -49.831779680999944 ], [ -67.761161841999979, -49.830152129999931 ], [ -67.758777621999968, -49.827039794999962 ], [ -67.757278561999954, -49.826640045999966 ], [ -67.757292837999955, -49.825540734999947 ], [ -67.756179250999935, -49.825626394999972 ], [ -67.756621829999972, -49.824769788999959 ], [ -67.75392352199998, -49.822399845999939 ], [ -67.753452387999971, -49.82054386599998 ], [ -67.751881943999933, -49.81957304599996 ], [ -67.752024711999979, -49.816731969999978 ], [ -67.748569733999943, -49.813876616999949 ], [ -67.748070046999942, -49.811478119999947 ], [ -67.746242620999965, -49.809336604999942 ], [ -67.746842245999972, -49.808622766999974 ], [ -67.746356835999961, -49.806424144999937 ], [ -67.743944061999969, -49.804325459999973 ], [ -67.743372990999944, -49.800856205999935 ], [ -67.732251390999977, -49.782696159999944 ], [ -67.729467420999981, -49.77507236699995 ], [ -67.729952830999935, -49.773716073999935 ], [ -67.728753582999957, -49.768133857999942 ], [ -67.727340182999967, -49.766035173999967 ], [ -67.727639994999947, -49.764593219999938 ], [ -67.724527659999978, -49.756898042999978 ], [ -67.724099356999943, -49.748474750999947 ], [ -67.721500985999967, -49.741179323999972 ], [ -67.720672932999946, -49.73605396499994 ], [ -67.721886458999961, -49.72833023499993 ], [ -67.721429601999944, -49.723447580999959 ], [ -67.719330916999979, -49.715852340999959 ], [ -67.719687836999981, -49.712654345999965 ], [ -67.718688462999978, -49.708414145999939 ], [ -67.715447636999954, -49.69943405999993 ], [ -67.715747448999934, -49.684700437999936 ], [ -67.721329664999985, -49.671808517999978 ], [ -67.720915637999951, -49.667511210999976 ], [ -67.718617078999955, -49.661472138999954 ], [ -67.716632608999987, -49.652791865999973 ], [ -67.718688462999978, -49.646567195999978 ], [ -67.719288086999939, -49.638258117999953 ], [ -67.720487335999962, -49.635959557999968 ], [ -67.719587898999976, -49.633475400999941 ], [ -67.711107499999969, -49.624067011999955 ], [ -67.708266423999987, -49.615186863999952 ], [ -67.705625221999981, -49.600082044999965 ], [ -67.706381890999978, -49.589631452999981 ], [ -67.704811445999951, -49.580351554999936 ], [ -67.703455153999982, -49.561392008999974 ], [ -67.699329167999963, -49.543374730999972 ], [ -67.697644509999975, -49.52974041899995 ], [ -67.688721530999942, -49.505469916999971 ], [ -67.687579389999939, -49.48192752999995 ], [ -67.684238626999957, -49.470106366999971 ], [ -67.682125664999944, -49.458485079999946 ], [ -67.678799178999952, -49.45068996599997 ], [ -67.677285840999957, -49.444593785999984 ], [ -67.673745203999943, -49.437269804999971 ], [ -67.673031364999986, -49.431344947999946 ], [ -67.669019593999963, -49.422521905999986 ], [ -67.66832003199994, -49.411271814999964 ], [ -67.666578266999977, -49.404775885999982 ], [ -67.660267935999968, -49.39255497399995 ], [ -67.65031702999994, -49.381461926999975 ], [ -67.643321414999946, -49.368855542999938 ], [ -67.631571636999979, -49.355463935999978 ], [ -67.625275582999961, -49.339088484999934 ], [ -67.621606453999959, -49.32658203799997 ], [ -67.60644452799994, -49.302868329999967 ], [ -67.603603451999959, -49.295672839999952 ], [ -67.604303013999981, -49.275713920999976 ], [ -67.609142836999979, -49.270874096999933 ], [ -67.609314157999961, -49.263221750999946 ], [ -67.612754858999949, -49.250272723999956 ], [ -67.615295409999987, -49.24969482399996 ], [ -67.62609863299997, -49.252807616999974 ], [ -67.636108397999976, -49.252380370999958 ], [ -67.636901854999962, -49.254272460999971 ], [ -67.645996093999941, -49.257690429999968 ], [ -67.652282714999956, -49.255798339999956 ], [ -67.668090819999975, -49.255187987999932 ], [ -67.667602538999972, -49.259277343999941 ], [ -67.664184569999975, -49.263122558999953 ], [ -67.664978026999961, -49.265686034999931 ], [ -67.671875, -49.269775390999939 ], [ -67.672912597999982, -49.27258300799997 ], [ -67.672729491999974, -49.29852294899996 ], [ -67.675903319999975, -49.302917479999962 ], [ -67.682128905999946, -49.306518554999968 ], [ -67.699096679999968, -49.308898925999983 ], [ -67.698181151999961, -49.311889647999976 ], [ -67.692199706999986, -49.319519042999957 ], [ -67.683105468999941, -49.341796874999943 ], [ -67.682800292999957, -49.345520019999981 ], [ -67.685424804999968, -49.353576659999931 ], [ -67.69110107399996, -49.357727050999983 ], [ -67.690612792999957, -49.361999511999954 ], [ -67.692993163999972, -49.368896483999947 ], [ -67.701477050999983, -49.377990722999982 ], [ -67.713806151999961, -49.385925292999957 ], [ -67.728576659999987, -49.39031982399996 ], [ -67.740783690999933, -49.390991210999971 ], [ -67.746276854999962, -49.390197753999985 ], [ -67.754211425999983, -49.390380858999947 ], [ -67.763122558999953, -49.387695312999938 ], [ -67.769592284999987, -49.394592284999931 ], [ -67.777099608999947, -49.395996093999941 ], [ -67.787597655999946, -49.394287108999947 ], [ -67.792602538999972, -49.394775390999939 ], [ -67.810791015999939, -49.399902343999941 ], [ -67.815429687999938, -49.402404784999931 ], [ -67.818603515999939, -49.405517577999944 ], [ -67.821594237999989, -49.403808593999941 ], [ -67.821289062999938, -49.401184081999986 ], [ -67.823425292999957, -49.40008544899996 ], [ -67.826293944999975, -49.402587890999939 ], [ -67.830078124999943, -49.401184081999986 ], [ -67.830200194999975, -49.395996093999941 ], [ -67.833190917999957, -49.390075683999953 ], [ -67.836181640999939, -49.388671874999943 ], [ -67.837524413999972, -49.386779784999931 ], [ -67.825805663999972, -49.386108397999976 ], [ -67.819213866999974, -49.384216308999953 ], [ -67.819396972999982, -49.376586913999972 ], [ -67.809509276999961, -49.378112792999957 ], [ -67.798889159999987, -49.382385253999985 ], [ -67.784484862999989, -49.382690429999968 ], [ -67.781494140999939, -49.380187987999932 ], [ -67.772094726999967, -49.380676269999981 ], [ -67.787170409999987, -49.374511718999941 ], [ -67.789794921999942, -49.37219238299997 ], [ -67.794982909999987, -49.363220214999956 ], [ -67.795104979999962, -49.35906982399996 ], [ -67.793090819999975, -49.354980468999941 ], [ -67.801208495999958, -49.349609374999943 ], [ -67.804687499999943, -49.342773437999938 ], [ -67.804016112999989, -49.339294433999953 ], [ -67.80187988299997, -49.33758544899996 ], [ -67.798706054999968, -49.331298827999944 ], [ -67.794494628999985, -49.332580565999933 ], [ -67.792907714999956, -49.330383300999983 ], [ -67.797607421999942, -49.328002929999968 ], [ -67.793518065999933, -49.326477050999983 ], [ -67.793029784999987, -49.328186034999931 ], [ -67.78289794899996, -49.330505370999958 ], [ -67.780822753999985, -49.329406737999932 ], [ -67.783020019999981, -49.325683593999941 ], [ -67.781921386999954, -49.320373534999931 ], [ -67.776611327999944, -49.318603515999939 ], [ -67.774902343999941, -49.318908690999933 ], [ -67.771118163999972, -49.316711425999983 ], [ -67.76477050799997, -49.317810058999953 ], [ -67.763305663999972, -49.315490722999982 ], [ -67.760803222999982, -49.313903808999953 ], [ -67.751220702999944, -49.315795897999976 ], [ -67.745178222999982, -49.31610107399996 ], [ -67.740478515999939, -49.312683104999962 ], [ -67.733276366999974, -49.312011718999941 ], [ -67.727905272999976, -49.312988280999946 ], [ -67.722717284999987, -49.315002440999933 ], [ -67.723083495999958, -49.317077636999954 ], [ -67.721496581999986, -49.318786620999958 ], [ -67.718078612999989, -49.319274901999961 ], [ -67.715698241999974, -49.317810058999953 ], [ -67.714294433999953, -49.312316894999981 ], [ -67.720092772999976, -49.30578613299997 ], [ -67.720703124999943, -49.302978515999939 ], [ -67.720092772999976, -49.301391601999967 ], [ -67.724914550999983, -49.299377440999933 ], [ -67.729370116999974, -49.294982909999931 ], [ -67.733581542999957, -49.293579101999967 ], [ -67.734985351999967, -49.292175292999957 ], [ -67.735229491999974, -49.290283202999944 ], [ -67.737609862999989, -49.287414550999983 ], [ -67.740112304999968, -49.279418944999975 ], [ -67.742004394999981, -49.278381347999982 ], [ -67.742187499999943, -49.27648925799997 ], [ -67.741394042999957, -49.275329589999956 ], [ -67.739685058999953, -49.274780272999976 ], [ -67.736389159999987, -49.275695800999983 ], [ -67.725891112999989, -49.270202636999954 ], [ -67.716186522999976, -49.269287108999947 ], [ -67.713012694999975, -49.270019530999946 ], [ -67.705322265999939, -49.269409179999968 ], [ -67.703796386999954, -49.268005370999958 ], [ -67.699218749999943, -49.267517089999956 ], [ -67.688903808999953, -49.261779784999931 ], [ -67.6875, -49.258483886999954 ], [ -67.684814452999944, -49.257019042999957 ], [ -67.682800292999957, -49.254089354999962 ], [ -67.682800292999957, -49.252807616999974 ], [ -67.680297851999967, -49.251892089999956 ], [ -67.678894042999957, -49.248779296999942 ], [ -67.669921874999943, -49.24719238299997 ], [ -67.667602538999972, -49.245910644999981 ], [ -67.667175292999957, -49.23992919899996 ], [ -67.674682616999974, -49.222595214999956 ], [ -67.674804687999938, -49.220581054999968 ], [ -67.672790526999961, -49.218688964999956 ], [ -67.670227050999983, -49.218505858999947 ], [ -67.669921874999943, -49.217224120999958 ], [ -67.667785644999981, -49.21649169899996 ], [ -67.667419433999953, -49.208801269999981 ], [ -67.664611815999933, -49.203491210999971 ], [ -67.659912108999947, -49.202575683999953 ], [ -67.65789794899996, -49.200805663999972 ], [ -67.643188476999967, -49.196105956999986 ], [ -67.635009765999939, -49.196777343999941 ], [ -67.633972167999957, -49.195312499999943 ], [ -67.631286620999958, -49.195312499999943 ], [ -67.623474120999958, -49.189880370999958 ], [ -67.619201659999987, -49.189514159999931 ], [ -67.613891601999967, -49.185180663999972 ], [ -67.611572265999939, -49.180603026999961 ], [ -67.610717772999976, -49.180419921999942 ], [ -67.610109294999972, -49.177263126999947 ], [ -67.615201341999978, -49.172504204999939 ], [ -67.617580802999953, -49.164509215999942 ], [ -67.61658142899995, -49.162605646999964 ], [ -67.61377366499994, -49.161986986999977 ], [ -67.613726075999978, -49.160892434999937 ], [ -67.624671595999985, -49.157894313999975 ], [ -67.626622753999982, -49.156561815999964 ], [ -67.631809978999968, -49.157180475999951 ], [ -67.633475601999976, -49.155657620999932 ], [ -67.636473722999938, -49.150565574999973 ], [ -67.636997203999954, -49.14823370299996 ], [ -67.636330954999949, -49.141142908999939 ], [ -67.634237029999952, -49.134623185999942 ], [ -67.629478107999944, -49.126533017999975 ], [ -67.619865084999958, -49.11563508699993 ], [ -67.611346614999945, -49.110733396999933 ], [ -67.602352251999946, -49.107640097999933 ], [ -67.599068595999938, -49.103547424999931 ], [ -67.598735470999941, -49.102262515999939 ], [ -67.600163147999979, -49.096646987999975 ], [ -67.598307167999963, -49.093410920999986 ], [ -67.593310299999985, -49.090460389999976 ], [ -67.591739855999947, -49.088033338999935 ], [ -67.587694771999963, -49.07651674799996 ], [ -67.582555136999986, -49.065618816999972 ], [ -67.581888886999934, -49.057766594999975 ], [ -67.580889513999978, -49.054625706999957 ], [ -67.575273985999956, -49.041919384999971 ], [ -67.567992834999984, -49.032163594999986 ], [ -67.562186949999955, -49.026833601999954 ], [ -67.55362089099998, -49.016601919999971 ], [ -67.547005988999956, -49.010558088999971 ], [ -67.539582070999984, -49.005561220999937 ], [ -67.531016010999963, -49.001278190999983 ], [ -67.497465610999939, -48.973200550999934 ], [ -67.495419273999971, -48.970583143999932 ], [ -67.493706062999934, -48.964396544999943 ], [ -67.490565173999983, -48.960589407999976 ], [ -67.467722347999938, -48.944551840999964 ], [ -67.43003168599995, -48.922327674999963 ], [ -67.402858240999933, -48.907337070999972 ], [ -67.36730909399995, -48.889919415999941 ], [ -67.333711104999963, -48.874976400999969 ], [ -67.302682932999971, -48.86436400499997 ], [ -67.267800034999937, -48.856226247999984 ], [ -67.254950944999962, -48.85417991199995 ], [ -67.247051134999936, -48.853941965999979 ], [ -67.245004797999968, -48.853132948999985 ], [ -67.243719888999976, -48.852514288999942 ], [ -67.242482569999936, -48.84951616799998 ], [ -67.237914003999947, -48.846375279999961 ], [ -67.228872052999975, -48.841521178999983 ], [ -67.219925278999938, -48.837999576999948 ], [ -67.216260908999971, -48.834240027999954 ], [ -67.215880195999944, -48.83057565799993 ], [ -67.21183511199996, -48.82586432599993 ], [ -67.199319146999983, -48.816108535999945 ], [ -67.193275315999983, -48.813633895999942 ], [ -67.192942190999986, -48.810540596999942 ], [ -67.19551200899997, -48.81049300799998 ], [ -67.196987019999938, -48.809049829999935 ], [ -67.061981499999945, -48.756893997999953 ], [ -67.197177631999978, -48.808779795999953 ], [ -67.197653523999975, -48.805829263999954 ], [ -67.196939685999951, -48.80164141299997 ], [ -67.194988527999953, -48.797643917999949 ], [ -67.190848265999932, -48.793456066999966 ], [ -67.19413192199994, -48.790981426999963 ], [ -67.194179510999959, -48.785461077999969 ], [ -67.19265665599994, -48.782129831999953 ], [ -67.186993538999957, -48.775039038999978 ], [ -67.186279700999933, -48.772707166999965 ], [ -67.176238374999969, -48.764141106999944 ], [ -67.151587158999973, -48.748389074999977 ], [ -67.151587158999973, -48.745057829999951 ], [ -67.149064929999952, -48.738538106999954 ], [ -67.149350465999987, -48.735349628999984 ], [ -67.148208323999938, -48.727544996999939 ], [ -67.139785032999953, -48.711555018999945 ], [ -67.141260297999963, -48.708033416999967 ], [ -67.13854771299998, -48.704083510999965 ], [ -67.140831994999985, -48.697183073999952 ], [ -67.137453160999939, -48.692471741999952 ], [ -67.133074952999948, -48.689235674999964 ], [ -67.12969611799997, -48.685143001999961 ], [ -67.123461929999962, -48.681050328999959 ], [ -67.112897122999982, -48.67633899599997 ], [ -67.082322635999958, -48.664707079999971 ], [ -67.076564339999948, -48.659722108999972 ], [ -67.062061524999933, -48.651048973999934 ], [ -67.044251258999964, -48.646789738999985 ], [ -67.035173615999952, -48.643660747999945 ], [ -67.021420330999945, -48.636498569999958 ], [ -67.023490461999984, -48.634975714999939 ], [ -67.023300104999976, -48.632298820999949 ], [ -67.013984514999947, -48.623506712999983 ], [ -66.990582515999961, -48.613441592999948 ], [ -66.976713475999986, -48.609485766999967 ], [ -66.954712141999948, -48.605684549999978 ], [ -66.938888725999959, -48.605006403999937 ], [ -66.920436005999989, -48.606160441999975 ], [ -66.903256297999974, -48.60161567199998 ], [ -66.896605703999967, -48.601353930999949 ], [ -66.875261938999984, -48.593382736999956 ], [ -66.870324556999947, -48.588409662999936 ], [ -66.86915862099994, -48.585685179999984 ], [ -66.870498257999941, -48.581414047999942 ], [ -66.870541087999982, -48.578087560999961 ], [ -66.87349637899996, -48.575175100999957 ], [ -66.871997317999956, -48.572491068999966 ], [ -66.869127687999935, -48.569735652999952 ], [ -66.867742841999984, -48.568736279999939 ], [ -66.866829128999939, -48.568365083999936 ], [ -66.788983899999948, -48.520067597999969 ], [ -66.866738445682927, -48.568287355183237 ], [ -66.864701890999982, -48.566237844999932 ], [ -66.862174902999982, -48.560684182999978 ], [ -66.856192937999936, -48.554202531999977 ], [ -66.847726815999977, -48.548934404999954 ], [ -66.838846667999974, -48.544679928999983 ], [ -66.842444412999953, -48.542252878999932 ], [ -66.842815608999956, -48.537041858999942 ], [ -66.838832390999983, -48.530931402999954 ], [ -66.831051552999952, -48.523036350999973 ], [ -66.817645669999933, -48.51492714799997 ], [ -66.808094513999947, -48.511186635999934 ], [ -66.804782303999957, -48.510744055999965 ], [ -66.801341602999969, -48.507403292999982 ], [ -66.794736131999969, -48.504231898999933 ], [ -66.785855983999966, -48.501405098999953 ], [ -66.771636324999974, -48.498364147999951 ], [ -66.77185047599994, -48.496265463999976 ], [ -66.770308585999942, -48.492924699999946 ], [ -66.762513470999977, -48.485643549999963 ], [ -66.756174586999975, -48.48196014399997 ], [ -66.755218043999946, -48.474579055999982 ], [ -66.750806522999937, -48.471909300999982 ], [ -66.742583105999984, -48.469482250999931 ], [ -66.739956180999968, -48.466983816999971 ], [ -66.736415542999964, -48.465070729999979 ], [ -66.718041344999961, -48.458760398999971 ], [ -66.693870779999941, -48.453335227999958 ], [ -66.683106098999986, -48.452721326999949 ], [ -66.684790756999973, -48.449337733999982 ], [ -66.680250745999956, -48.44484055199996 ], [ -66.662233466999965, -48.435789082999975 ], [ -66.645872292999968, -48.431805864999944 ], [ -66.61306428499995, -48.426580568999952 ], [ -66.579199795999955, -48.423354019999977 ], [ -66.550974628999938, -48.422383198999967 ], [ -66.541723284999932, -48.423653831999957 ], [ -66.535627105999936, -48.418285767999976 ], [ -66.529373881999959, -48.416258466999977 ], [ -66.516082212999947, -48.415901547999965 ], [ -66.49435297499997, -48.417471991999946 ], [ -66.493710520999969, -48.416843813999947 ], [ -66.494924045999937, -48.415087771999936 ], [ -66.494809831999987, -48.413674371999946 ], [ -66.491583281999965, -48.409691153999972 ], [ -66.486258048999957, -48.406964291999941 ], [ -66.477663435999943, -48.404879883999968 ], [ -66.475950223999973, -48.403437930999985 ], [ -66.47052505299996, -48.401667611999983 ], [ -66.468098001999977, -48.401482013999953 ], [ -66.468440644999987, -48.400768175999985 ], [ -66.467084351999972, -48.400139997999986 ], [ -66.471024738999972, -48.398326848999943 ], [ -66.474051413999973, -48.398269741999968 ], [ -66.475436259999981, -48.397441688999947 ], [ -66.47539342999994, -48.395414387999949 ], [ -66.473023486999978, -48.392244945999948 ], [ -66.472766504999981, -48.390446073999954 ], [ -66.46721284299997, -48.386505685999964 ], [ -66.468040894999945, -48.383564672999967 ], [ -66.467598315999965, -48.381380326999931 ], [ -66.473323298999958, -48.377182957999935 ], [ -66.476621231999957, -48.375840941999968 ], [ -66.477592051999977, -48.373942131999968 ], [ -66.477563497999938, -48.371058225999946 ], [ -66.474808081999981, -48.366147017999936 ], [ -66.469668446999947, -48.36150706899997 ], [ -66.465371139999945, -48.358937250999986 ], [ -66.457276213999933, -48.355211014999952 ], [ -66.448039145999985, -48.352312831999939 ], [ -66.437131696999984, -48.350199869999983 ], [ -66.423682982999935, -48.349043451999933 ], [ -66.394387058999939, -48.349614522999957 ], [ -66.369659700999932, -48.35329792899995 ], [ -66.361678987999937, -48.35693850399997 ], [ -66.361122193999961, -48.358380456999953 ], [ -66.362464209999985, -48.361078765999935 ], [ -66.359194830999968, -48.361335747999931 ], [ -66.358395331999986, -48.360464864999983 ], [ -66.358423885999969, -48.361778327999957 ], [ -66.355925451999951, -48.360778953999954 ], [ -66.355925451999951, -48.359536874999947 ], [ -66.352370536999956, -48.357109824999952 ], [ -66.351412208999932, -48.355184364999957 ], [ -66.349856040999953, -48.35507015099995 ], [ -66.348214212999949, -48.355998140999986 ], [ -66.347014964999971, -48.358211039999958 ], [ -66.346201188999942, -48.357711352999956 ], [ -66.345687225999939, -48.35856795899997 ], [ -66.342903255999943, -48.356326506999949 ], [ -66.340147840999975, -48.357026067999982 ], [ -66.343174514999987, -48.361023562999947 ], [ -66.342674827999986, -48.362122873999965 ], [ -66.343402942999944, -48.365863385999944 ], [ -66.346058421999942, -48.367590874999962 ], [ -66.34889949799998, -48.366677161999974 ], [ -66.349784657999976, -48.367219678999959 ], [ -66.348213419999979, -48.369070700999941 ], [ -66.346271779999938, -48.369941583999946 ], [ -66.343003193999948, -48.368804399999931 ], [ -66.340262054999982, -48.363636210999971 ], [ -66.334722668999973, -48.360752303999959 ], [ -66.335193802999981, -48.360009911999953 ], [ -66.334008830999949, -48.358468020999965 ], [ -66.333880339999951, -48.354684677999956 ], [ -66.336535818999948, -48.353314108999939 ], [ -66.337278210999955, -48.352114860999961 ], [ -66.340005072999986, -48.353599643999985 ], [ -66.342974639999966, -48.35381379599994 ], [ -66.342960362999975, -48.35210058399997 ], [ -66.338121372999979, -48.35118020799996 ], [ -66.33716482899996, -48.350138003999973 ], [ -66.337378980999972, -48.348981585999979 ], [ -66.341119492999951, -48.348453345999985 ], [ -66.345116987999972, -48.346554535999985 ], [ -66.347943787999952, -48.343899057999977 ], [ -66.350899077999941, -48.337517342999945 ], [ -66.354982232999987, -48.333362803999933 ], [ -66.359379476999948, -48.323911584999962 ], [ -66.360178975999986, -48.314717347999931 ], [ -66.358579977999966, -48.309449220999966 ], [ -66.356395632999977, -48.306879402999982 ], [ -66.354896572999962, -48.302482158999965 ], [ -66.350135627999975, -48.299106774999984 ], [ -66.347637193999958, -48.299106774999984 ], [ -66.347565809999935, -48.297293625999941 ], [ -66.343254226999989, -48.29396713899996 ], [ -66.343925234999972, -48.289255805999971 ], [ -66.342754539999987, -48.285186927999973 ], [ -66.337557796999988, -48.277163385999984 ], [ -66.331661492999956, -48.271995195999978 ], [ -66.327278525999986, -48.269425377999937 ], [ -66.315814282999952, -48.265385053999978 ], [ -66.31233075199998, -48.265270838999982 ], [ -66.312016662999952, -48.263643287999969 ], [ -66.307790739999973, -48.260530952999943 ], [ -66.304093057999978, -48.256490627999938 ], [ -66.296569201999944, -48.251950616999977 ], [ -66.291829315999962, -48.25042300299998 ], [ -66.283277532999932, -48.249923315999979 ], [ -66.283234701999959, -48.248452808999957 ], [ -66.281949793999956, -48.247396327999979 ], [ -66.279979599999933, -48.247182176999956 ], [ -66.279908215999967, -48.245583178999937 ], [ -66.278894565999963, -48.245112045999974 ], [ -66.279208653999945, -48.244141225999954 ], [ -66.277666763999946, -48.242242415999954 ], [ -66.268458249999981, -48.240357882999945 ], [ -66.262647605999973, -48.237945108999952 ], [ -66.263090185999943, -48.23242000099998 ], [ -66.261077161999935, -48.229921566999963 ], [ -66.257836335999968, -48.228893639999967 ], [ -66.256637086999945, -48.227637283999968 ], [ -66.257822058999977, -48.224239413999953 ], [ -66.255651989999933, -48.219613741999979 ], [ -66.245486932999938, -48.215830398999969 ], [ -66.237706095999954, -48.207050187999982 ], [ -66.228254875999937, -48.20129665099995 ], [ -66.224828452999986, -48.200054571999942 ], [ -66.215834089999987, -48.199440670999934 ], [ -66.212964459999966, -48.199811866999937 ], [ -66.212150683999937, -48.200782686999958 ], [ -66.209994892999987, -48.200254446999963 ], [ -66.208453001999942, -48.201325203999943 ], [ -66.206911110999954, -48.199811866999937 ], [ -66.205255005999959, -48.201125329999968 ], [ -66.204355569999962, -48.199040921999938 ], [ -66.202128394999988, -48.196956513999964 ], [ -66.197502721999967, -48.19482927599995 ], [ -66.185981371999958, -48.194329588999949 ], [ -66.184425204999968, -48.195386069999984 ], [ -66.183668535999971, -48.194386695999981 ], [ -66.177743677999956, -48.193273107999971 ], [ -66.174288700999966, -48.19355864399995 ], [ -66.171276302999956, -48.195000596999932 ], [ -66.165165846999969, -48.191488512999967 ], [ -66.163124269999969, -48.192102413999976 ], [ -66.162153449999948, -48.190646182999956 ], [ -66.159926273999986, -48.190460584999983 ], [ -66.158769855999935, -48.187947874999963 ], [ -66.155914502999963, -48.186277492999977 ], [ -66.155928779999954, -48.184878369999979 ], [ -66.157670544999974, -48.180338357999972 ], [ -66.165051632999962, -48.181109303999961 ], [ -66.166764844999932, -48.179524582999932 ], [ -66.167021826999985, -48.178468101999954 ], [ -66.165879685999982, -48.176754889999984 ], [ -66.162838733999934, -48.17541287399996 ], [ -66.162938671999939, -48.174656204999962 ], [ -66.164409178999961, -48.174513437999963 ], [ -66.164294964999954, -48.172671734999938 ], [ -66.16343835899994, -48.171986449999963 ], [ -66.161568101999933, -48.172500413999956 ], [ -66.159312372999977, -48.171758021999949 ], [ -66.157970356999954, -48.170830031999969 ], [ -66.157813312999963, -48.169616506999944 ], [ -66.156299975999957, -48.168916944999978 ], [ -66.152702230999978, -48.16864568699998 ], [ -66.154358334999984, -48.166803983999955 ], [ -66.150303733999976, -48.166675492999957 ], [ -66.147905236999975, -48.16354888099994 ], [ -66.144621580999967, -48.164576808999982 ], [ -66.144336045999978, -48.163291899999933 ], [ -66.146349069999985, -48.161835669999959 ], [ -66.144336045999978, -48.161792838999986 ], [ -66.141337924999959, -48.160436545999971 ], [ -66.142979752999963, -48.158808994999958 ], [ -66.140838237999958, -48.157324210999946 ], [ -66.139310623999961, -48.151285138999981 ], [ -66.137468920999936, -48.150342872999943 ], [ -66.138354080999989, -48.149257838999972 ], [ -66.134485076999965, -48.147987205999982 ], [ -66.136897850999958, -48.145774307999943 ], [ -66.138011437999978, -48.142961784999954 ], [ -66.137354706999986, -48.142433543999971 ], [ -66.134427969999933, -48.143432917999974 ], [ -66.135498727999959, -48.142305053999962 ], [ -66.13851112499998, -48.14164832199998 ], [ -66.13851112499998, -48.139235548999977 ], [ -66.13517036199994, -48.137351015999968 ], [ -66.130287707999969, -48.137408122999943 ], [ -66.123806055999978, -48.13956391399995 ], [ -66.124434233999978, -48.138550263999946 ], [ -66.128460281999935, -48.136936989999981 ], [ -66.129259780999973, -48.133053708999967 ], [ -66.127089711999986, -48.128842062999979 ], [ -66.121064916999956, -48.123588212999948 ], [ -66.115496977999953, -48.121089778999931 ], [ -66.102019710999969, -48.117877506999946 ], [ -66.099250018999953, -48.114765171999977 ], [ -66.090912386999946, -48.113808628999948 ], [ -66.088813702999971, -48.112395228999958 ], [ -66.081161355999939, -48.110082392999971 ], [ -66.072937938999985, -48.109725472999969 ], [ -66.066013706999968, -48.111038935999943 ], [ -66.062230363999959, -48.113308941999946 ], [ -66.063386781999952, -48.118234425999958 ], [ -66.062701497999967, -48.119662102999939 ], [ -66.061787783999932, -48.119861976999971 ], [ -66.060816963999969, -48.119362290999959 ], [ -66.062444515999971, -48.11859134499997 ], [ -66.060602812999946, -48.116492660999938 ], [ -66.060945454999967, -48.114493912999933 ], [ -66.056148461999953, -48.113908565999964 ], [ -66.056005693999964, -48.11256654999994 ], [ -66.057776012999966, -48.111224533999973 ], [ -66.05719066599994, -48.109497044999955 ], [ -66.052136690999987, -48.106598861999942 ], [ -66.047396803999959, -48.105328229999941 ], [ -66.037203192999982, -48.104500176999977 ], [ -66.029265310999961, -48.105628041999978 ], [ -66.027023858999939, -48.10691295099997 ], [ -66.026195806999965, -48.108312073999969 ], [ -66.027252286999953, -48.110011008999948 ], [ -66.029650783999955, -48.11022515999997 ], [ -66.029493739999964, -48.111624282999969 ], [ -66.022483847999979, -48.108197859999962 ], [ -66.01661609699994, -48.10925433999995 ], [ -66.014131938999981, -48.105356782999934 ], [ -66.007164877999969, -48.10327237499996 ], [ -66.004852041999982, -48.103372312999966 ], [ -66.004366630999982, -48.104286025999954 ], [ -66.002824740999984, -48.10468577499995 ], [ -66.002539204999948, -48.10658458499995 ], [ -65.994901135999953, -48.105185461999952 ], [ -65.991831630999968, -48.109282893999932 ], [ -65.989661561999981, -48.108240689999946 ], [ -65.991474711999956, -48.107369806999941 ], [ -65.991460434999965, -48.105128354999977 ], [ -65.987634261999972, -48.102016019999951 ], [ -65.983622489999959, -48.100645449999945 ], [ -65.975527563999947, -48.099988718999953 ], [ -65.97418554799998, -48.100459851999972 ], [ -65.973857181999961, -48.101444948999983 ], [ -65.962692750999963, -48.10088815499995 ], [ -65.961721930999943, -48.101687653999932 ], [ -65.959152112999959, -48.101873251999962 ], [ -65.95902362299995, -48.103300928999943 ], [ -65.956653678999942, -48.102258724999956 ], [ -65.952798952999956, -48.102929732999939 ], [ -65.945189435999964, -48.10959698299996 ], [ -65.943533330999969, -48.113880011999981 ], [ -65.944532704999972, -48.11636416999994 ], [ -65.94607459599996, -48.117020900999933 ], [ -65.95221360499994, -48.115236304999939 ], [ -65.953926816999967, -48.115464732999953 ], [ -65.953084487999945, -48.116464106999956 ], [ -65.950400455999954, -48.11650693699994 ], [ -65.94704541599998, -48.118805496999983 ], [ -65.948373154999956, -48.120290279999949 ], [ -65.948358877999965, -48.121974938999983 ], [ -65.950443285999938, -48.12315990999997 ], [ -65.945103775999939, -48.124958782999954 ], [ -65.943162134999966, -48.124045069999966 ], [ -65.940906405999954, -48.12473035499994 ], [ -65.940992066999968, -48.123631043999978 ], [ -65.93974998799996, -48.12331695499995 ], [ -65.942548234999947, -48.122788713999967 ], [ -65.942219868999985, -48.120375940999963 ], [ -65.93800822299994, -48.120190342999933 ], [ -65.94116338799995, -48.119205245999979 ], [ -65.940692254999988, -48.118462853999972 ], [ -65.942748108999979, -48.117506310999943 ], [ -65.942077100999938, -48.114408252999965 ], [ -65.940121183999963, -48.112509442999965 ], [ -65.937936838999974, -48.111681389999944 ], [ -65.934667459999957, -48.112038309999946 ], [ -65.933825130999935, -48.112723593999931 ], [ -65.934767396999973, -48.114208377999944 ], [ -65.930041787999983, -48.115593223999952 ], [ -65.929128073999948, -48.114922215999968 ], [ -65.929670591999979, -48.113223280999932 ], [ -65.928899645999934, -48.112366674999976 ], [ -65.928028762999986, -48.112423781999951 ], [ -65.927629013999933, -48.113794351999957 ], [ -65.926772407999977, -48.112537995999958 ], [ -65.925730203999933, -48.112480888999983 ], [ -65.924987811999983, -48.113151896999966 ], [ -65.925630266999974, -48.115964419999955 ], [ -65.924859320999985, -48.116150017999985 ], [ -65.922846296999978, -48.115536116999976 ], [ -65.922817743999985, -48.113623030999975 ], [ -65.920119434999947, -48.11196692599998 ], [ -65.921804093999981, -48.111124596999957 ], [ -65.921290129999988, -48.109896794999941 ], [ -65.916949992999946, -48.110296543999937 ], [ -65.917206974999942, -48.108212135999963 ], [ -65.915936342999942, -48.108212135999963 ], [ -65.916121940999972, -48.107326976999957 ], [ -65.908098397999936, -48.10561376499993 ], [ -65.917563893999954, -48.10561376499993 ], [ -65.917392572999972, -48.10371495499993 ], [ -65.914822754999932, -48.103186714999936 ], [ -65.916407475999961, -48.098732363999943 ], [ -65.917992196999933, -48.09743317799996 ], [ -65.917621000999986, -48.096747892999986 ], [ -65.913352247999967, -48.098047078999969 ], [ -65.912624132999952, -48.099489031999951 ], [ -65.910554001999969, -48.099731736999956 ], [ -65.904543482999941, -48.103329481999936 ], [ -65.909768779999979, -48.099660352999933 ], [ -65.909254815999986, -48.098732363999943 ], [ -65.907741478999981, -48.098875130999943 ], [ -65.90836965699998, -48.098461104999956 ], [ -65.908112674999984, -48.097161918999973 ], [ -65.909483243999944, -48.096819276999952 ], [ -65.908955003999949, -48.095777072999965 ], [ -65.905785561999949, -48.094492163999973 ], [ -65.904700527999978, -48.094991850999975 ], [ -65.903515555999945, -48.097675882999965 ], [ -65.901117059999933, -48.099017898999932 ], [ -65.902387691999934, -48.100302807999981 ], [ -65.896434279999937, -48.103029669999955 ], [ -65.896962520999978, -48.102044572999944 ], [ -65.894249934999948, -48.101102306999962 ], [ -65.898361643999976, -48.098375443999942 ], [ -65.899460954999938, -48.096048331999953 ], [ -65.904158010999936, -48.094349395999984 ], [ -65.905571410999983, -48.092864612999961 ], [ -65.903772537999942, -48.090737374999946 ], [ -65.899632275999977, -48.09066599099998 ], [ -65.903401341999938, -48.090123473999938 ], [ -65.905742731999965, -48.086497174999977 ], [ -65.905628517999958, -48.082371189999947 ], [ -65.904372161999959, -48.080372442999931 ], [ -65.91562225399997, -48.080757914999936 ], [ -65.918677481999964, -48.080072629999961 ], [ -65.919534087999978, -48.078759167999976 ], [ -65.922632145999955, -48.079187470999955 ], [ -65.926344104999941, -48.077545642999951 ], [ -65.927343478999944, -48.076317840999934 ], [ -65.92934222599996, -48.07801677599997 ], [ -65.93089839299995, -48.078130989999977 ], [ -65.935224253999934, -48.076617652999971 ], [ -65.935595448999948, -48.07486161099996 ], [ -65.938664953999933, -48.075546895999935 ], [ -65.940263951999952, -48.075047208999933 ], [ -65.948073342999976, -48.06980763599995 ], [ -65.948587306999968, -48.067780334999952 ], [ -65.947830637999971, -48.066909451999948 ], [ -65.948929948999933, -48.066952281999932 ], [ -65.949244037999961, -48.06809442399998 ], [ -65.95017202799994, -48.068394235999961 ], [ -65.953041657999961, -48.067551906999938 ], [ -65.955482984999946, -48.065781587999936 ], [ -65.959608969999977, -48.061327236999944 ], [ -65.967889493999962, -48.04974877899997 ], [ -65.97054497299996, -48.050005760999966 ], [ -65.971201703999952, -48.053175202999967 ], [ -65.972201077999955, -48.053774826999984 ], [ -65.980296003999968, -48.050981339999964 ], [ -65.979534575999935, -48.049220538999975 ], [ -65.975441902999933, -48.049172949999956 ], [ -65.975203956999962, -48.047412148999967 ], [ -65.973324182999988, -48.045936882999968 ], [ -65.958904649999965, -48.040107202999934 ], [ -65.957334204999938, -48.03596694099997 ], [ -65.952194568999971, -48.034444085999951 ], [ -65.951769807999938, -48.03337311599995 ], [ -65.952812011999981, -48.032316634999972 ], [ -65.952426538999987, -48.03147430599995 ], [ -65.943303685999979, -48.032230974999948 ], [ -65.943438152999988, -48.030803510999931 ], [ -65.942118713999946, -48.031617073999939 ], [ -65.940868334999948, -48.03085109999995 ], [ -65.94053521099994, -48.029066503999957 ], [ -65.942510162999952, -48.028233692999947 ], [ -65.942343600999948, -48.026948783999956 ], [ -65.947863949999942, -48.028019540999935 ], [ -65.947857973999987, -48.026306116999933 ], [ -65.949328480999952, -48.026463160999981 ], [ -65.951284397999984, -48.025420956999938 ], [ -65.950342130999957, -48.024564350999981 ], [ -65.947515331999966, -48.02452152099994 ], [ -65.948628918999987, -48.022380005999935 ], [ -65.953068993999977, -48.022194407999962 ], [ -65.95421113499998, -48.021480569999937 ], [ -65.953525849999949, -48.020438365999951 ], [ -65.956152774999964, -48.020052892999956 ], [ -65.956823782999948, -48.01901068899997 ], [ -65.95576730199997, -48.016854897999963 ], [ -65.95324031499996, -48.014456400999961 ], [ -65.949171436999961, -48.013200045999952 ], [ -65.946530234999955, -48.013985267999942 ], [ -65.946858599999985, -48.014856149999957 ], [ -65.945759288999966, -48.015527157999941 ], [ -65.947044197999958, -48.016398040999945 ], [ -65.93810694299998, -48.015484327999957 ], [ -65.935694168999987, -48.016683576999981 ], [ -65.935451463999982, -48.018182636999938 ], [ -65.931867995999937, -48.017211816999975 ], [ -65.934309322999979, -48.016255273999946 ], [ -65.933609761999946, -48.012015073999976 ], [ -65.932638941999983, -48.011501109999983 ], [ -65.934751902999949, -48.010630227999968 ], [ -65.936051088999932, -48.011743815999978 ], [ -65.937964174999934, -48.01110136099993 ], [ -65.938863611999977, -48.009359595999967 ], [ -65.937007631999961, -48.008488712999963 ], [ -65.941033679999975, -48.008988399999964 ], [ -65.942746891999946, -48.008460158999981 ], [ -65.943360792999954, -48.005576252999958 ], [ -65.942803998999977, -48.003606058999935 ], [ -65.941433428999972, -48.002235488999986 ], [ -65.938763673999972, -48.002863666999986 ], [ -65.934580581999967, -48.001907123999956 ], [ -65.93568517346192, -48.0 ], [ -65.442044388498999, -48.0 ], [ -65.460234753999941, -48.020283167999935 ], [ -65.468319590999954, -48.028117220999945 ], [ -65.516828616999987, -48.06636634399996 ], [ -65.537939025999947, -48.090144688999942 ], [ -65.54467638999995, -48.100375004999933 ], [ -65.552761227999952, -48.108196805999967 ], [ -65.563541010999984, -48.122934636999958 ], [ -65.582405631999961, -48.142778871999951 ], [ -65.586448050999934, -48.149692474999938 ], [ -65.61025340599997, -48.175535036999975 ], [ -65.631363814999986, -48.202265293999972 ], [ -65.647084332999952, -48.219377303999977 ], [ -65.690203466999947, -48.25748337999994 ], [ -65.70008493499995, -48.26528110299995 ], [ -65.720746185999985, -48.279373949999979 ], [ -65.752636378999966, -48.295860614999981 ], [ -65.764763634999952, -48.301255087999948 ], [ -65.777789206999955, -48.30664898699996 ], [ -65.795755511999971, -48.312641536999934 ], [ -65.82539991699997, -48.325223585999936 ], [ -65.838425487999984, -48.329716418999965 ], [ -65.844264537999948, -48.333010909999985 ], [ -65.869417365999936, -48.343791382999939 ], [ -65.881993779999959, -48.347683767999968 ], [ -65.91792639099998, -48.362951005999946 ], [ -65.950714898999934, -48.374922090999974 ], [ -65.943079218999969, -48.381504979999931 ], [ -65.926909543999955, -48.397958458999938 ], [ -65.908044922999977, -48.42516973599993 ], [ -65.898163454999974, -48.44459739499996 ], [ -65.890078616999972, -48.474172855999939 ], [ -65.888281986999971, -48.494178738999949 ], [ -65.889180301999943, -48.514773514999945 ], [ -65.893222720999972, -48.534464989999947 ], [ -65.904900818999977, -48.56368963999995 ], [ -65.917028075999951, -48.582169937999936 ], [ -65.930951962999984, -48.599153893999983 ], [ -65.93903679999994, -48.607792649999965 ], [ -65.957003105999945, -48.624172415999965 ], [ -65.977664356999981, -48.638760795999985 ], [ -65.999673081999958, -48.652154550999967 ], [ -66.024376751999966, -48.663759576999951 ], [ -66.050427894999984, -48.673874586999943 ], [ -66.078275668999936, -48.682203061999985 ], [ -66.107021757999973, -48.689043272999982 ], [ -66.15103920699994, -48.694990523999934 ], [ -66.180683611999939, -48.69617988899995 ], [ -66.226497690999963, -48.694990523999934 ], [ -66.270515139999986, -48.689043272999982 ], [ -66.285337341999934, -48.685771984999974 ], [ -66.313185115999943, -48.678336442999978 ], [ -66.340134574999979, -48.669114836999938 ], [ -66.377863816999934, -48.652154550999967 ], [ -66.399872540999979, -48.638760795999985 ], [ -66.422779580999986, -48.622385791999932 ], [ -66.433559363999962, -48.611069030999943 ], [ -66.49419564599998, -48.619110149999983 ], [ -66.51530605499994, -48.620896890999973 ], [ -66.543153828999948, -48.642630469999972 ], [ -66.55393361199998, -48.649476085999936 ], [ -66.579984754999941, -48.662569441999949 ], [ -66.603790109999977, -48.69617988899995 ], [ -66.618612312999971, -48.71342250899994 ], [ -66.700359003999949, -48.781146257999978 ], [ -66.715181205999954, -48.796282427999984 ], [ -66.73045256599994, -48.807557372999952 ], [ -66.736291614999971, -48.81319388999998 ], [ -66.749317186999974, -48.823278696999978 ], [ -66.757402023999987, -48.830989231999979 ], [ -66.771325910999963, -48.841663386999983 ], [ -66.777164959999936, -48.847592483999961 ], [ -66.817139989999987, -48.879004914999939 ], [ -66.836902926999983, -48.893519052999977 ], [ -66.859809965999943, -48.907140714999969 ], [ -66.893496789999972, -48.923126596999964 ], [ -66.978387583999961, -48.957745025999941 ], [ -66.99904883499994, -48.975488697999936 ], [ -67.043964599999981, -49.004160871999943 ], [ -67.06776995499996, -49.016865907999943 ], [ -67.092473624999968, -49.027204808999954 ], [ -67.120321398999977, -49.036950937999961 ], [ -67.148618329999977, -49.044333089999952 ], [ -67.178262734999976, -49.049352323999983 ], [ -67.185449256999959, -49.051418918999957 ], [ -67.202966404999984, -49.058503732999952 ], [ -67.21689029199996, -49.066472934999979 ], [ -67.223178498999971, -49.069129048999969 ], [ -67.238000700999976, -49.078276796999944 ], [ -67.262704370999984, -49.100401434999981 ], [ -67.281568991999961, -49.114261154999951 ], [ -67.284713095999962, -49.131064526999978 ], [ -67.289653829999963, -49.150808538999968 ], [ -67.288755514999934, -49.162592236999956 ], [ -67.289653829999963, -49.182029174999968 ], [ -67.283814780999933, -49.206167406999953 ], [ -67.281568991999961, -49.229705485999943 ], [ -67.27662825799996, -49.24940995299994 ], [ -67.275729942999988, -49.259700186999964 ], [ -67.27662825799996, -49.279098758999965 ], [ -67.27977236199996, -49.289676564999979 ], [ -67.281568991999961, -49.299370882999938 ], [ -67.288755514999934, -49.319047386999955 ], [ -67.298636982999938, -49.337835472999984 ], [ -67.304476031999968, -49.34693335999998 ], [ -67.311662553999952, -49.356029555999953 ], [ -67.316603287999953, -49.360430332999954 ], [ -67.320645706999983, -49.370990583999969 ], [ -67.326484756999946, -49.380082304999974 ], [ -67.331425490999948, -49.395035972999949 ], [ -67.335467908999988, -49.403536997999936 ], [ -67.341306958999951, -49.41965556599996 ], [ -67.343552746999933, -49.421120626999937 ], [ -67.343552746999933, -49.42551554399995 ], [ -67.341306958999951, -49.435182968999982 ], [ -67.341306958999951, -49.451583911999933 ], [ -67.34534937799998, -49.472370033999937 ], [ -67.350290111999982, -49.491684391999968 ], [ -67.355230845999984, -49.503971357999944 ], [ -67.358374948999938, -49.526781778999975 ], [ -67.360620736999977, -49.536429120999969 ], [ -67.362417367999967, -49.539644475999978 ], [ -67.362417367999967, -49.553380415999982 ], [ -67.363315682999939, -49.563606783999944 ], [ -67.367358101999969, -49.583761029999948 ], [ -67.37229883599997, -49.597192545999974 ], [ -67.378137884999944, -49.630171564999955 ], [ -67.385324407999974, -49.647673428999951 ], [ -67.386222722999946, -49.662545038999951 ], [ -67.385324407999974, -49.683241043999942 ], [ -67.387121037999975, -49.713540333999958 ], [ -67.390265141999976, -49.724024122999936 ], [ -67.392061771999977, -49.737416763999931 ], [ -67.396104190999949, -49.753133817999981 ], [ -67.398349978999988, -49.756334811999977 ], [ -67.398349978999988, -49.772918380999954 ], [ -67.39924829499995, -49.783389273999944 ], [ -67.403290712999933, -49.803161419999981 ], [ -67.406434816999933, -49.81304444999995 ], [ -67.410028077999982, -49.823216036999952 ], [ -67.414070496999955, -49.83106122099997 ], [ -67.422155333999967, -49.842681363999986 ], [ -67.423053649999986, -49.847619073999965 ], [ -67.42619775299994, -49.854008298999986 ], [ -67.42889269899996, -49.864461562999963 ], [ -67.435180905999971, -49.873461162999945 ], [ -67.450003107999976, -49.899869602999956 ], [ -67.453147211999976, -49.903060847999939 ], [ -67.460782891999941, -49.914663584999971 ], [ -67.460782891999941, -49.917273813999941 ], [ -67.467071098999952, -49.926263515999949 ], [ -67.477850881999984, -49.944817566999973 ], [ -67.483689930999958, -49.950614234999932 ], [ -67.502554551999935, -49.983352231999959 ], [ -67.510639389999938, -49.991750407999973 ], [ -67.517825911999978, -50.000726138999937 ], [ -67.521868330999951, -50.003910670999971 ], [ -67.523664960999952, -50.009121264999976 ], [ -67.533546429999944, -50.026196452999955 ], [ -67.548368631999949, -50.043554792999942 ], [ -67.566334936999965, -50.060906823999971 ], [ -67.573521459999938, -50.066689432999965 ], [ -67.585199557999942, -50.078830627999935 ], [ -67.604513336999958, -50.095014081999977 ], [ -67.633259425999938, -50.115235671999983 ], [ -67.64134426399994, -50.119856543999958 ], [ -67.667844564999939, -50.141510905999951 ], [ -67.679073505999952, -50.148726837999959 ], [ -67.770701664999933, -50.201802419999979 ], [ -67.795405334999941, -50.214485623999963 ], [ -67.834482049999963, -50.232351659999949 ], [ -67.858287404999942, -50.241282153999975 ], [ -67.878948655999977, -50.25078696199995 ], [ -67.905898114999957, -50.261153667999963 ], [ -67.919822001999933, -50.265472459999955 ], [ -67.962491977999946, -50.287348286999986 ], [ -67.976415864999979, -50.291664690999937 ], [ -67.989441435999936, -50.296843854999963 ], [ -68.018636682999954, -50.305186871999979 ], [ -68.056365924999966, -50.312665566999954 ], [ -68.108019053999953, -50.324744037999949 ], [ -68.132722723999962, -50.329344547999938 ], [ -68.152934817999949, -50.335094556999934 ], [ -68.185723325999959, -50.341993642999967 ], [ -68.211325310999939, -50.352915136999968 ], [ -68.264325912999936, -50.371303522999938 ], [ -68.305199258999949, -50.38221823799995 ], [ -68.327207982999937, -50.389110441999946 ], [ -68.33708945099994, -50.391120477999948 ], [ -68.358649017999937, -50.398585576999949 ], [ -68.386945948999937, -50.405188332999955 ], [ -68.426471821999939, -50.417243153999948 ], [ -68.440395708999972, -50.420399858999986 ], [ -68.445336442999974, -50.422982459999957 ], [ -68.452522964999957, -50.424704115999987 ], [ -68.490252206999969, -50.438188241999967 ], [ -68.505972724999936, -50.446506308999972 ], [ -68.51899829599995, -50.452242049999938 ], [ -68.549990173999959, -50.464284830999986 ], [ -68.577837946999978, -50.473171572999945 ], [ -68.601643301999957, -50.478904063999948 ], [ -68.606584035999958, -50.481483456999968 ], [ -68.615567188999933, -50.484635855999954 ], [ -68.616465504999951, -50.485782129999961 ], [ -68.623652026999935, -50.489507328999935 ], [ -68.633533494999938, -50.497816323999984 ], [ -68.644762435999951, -50.504978071999972 ], [ -68.673508524999988, -50.521302773999935 ], [ -68.682491677999963, -50.529606145999935 ], [ -68.684288307999964, -50.532182755999941 ], [ -68.688330726999936, -50.54105666199996 ], [ -68.689229042999955, -50.550501234999956 ], [ -68.693271460999938, -50.570242830999973 ], [ -68.70135629899994, -50.589118317999976 ], [ -68.711237766999943, -50.608843649999983 ], [ -68.73414480699995, -50.638558880999938 ], [ -68.748068693999983, -50.651410580999936 ], [ -68.761992580999959, -50.67482014899997 ], [ -68.769179102999942, -50.684237760999963 ], [ -68.775916466999945, -50.694794642999966 ], [ -68.779958885999974, -50.699359041999969 ], [ -68.802865925999981, -50.744978465999964 ], [ -68.802865925999981, -50.756091432999938 ], [ -68.792086142999949, -50.775176747999978 ], [ -68.783102989999975, -50.794823592999933 ], [ -68.780857201999936, -50.804216976999953 ], [ -68.779060570999945, -50.816738534999956 ], [ -68.76513668399997, -50.84632153299998 ], [ -68.757950161999986, -50.886115035999978 ], [ -68.757950161999986, -50.904294978999985 ], [ -68.755255215999966, -50.911394581999957 ], [ -68.753009427999984, -50.92133219699997 ], [ -68.748967008999955, -50.94091724599997 ], [ -68.748068693999983, -50.950848521999944 ], [ -68.748967008999955, -50.970988272999932 ], [ -68.752111111999966, -50.981196623999949 ], [ -68.753907742999957, -50.991119247999961 ], [ -68.759746791999987, -51.009257958999967 ], [ -68.760645107999949, -51.017191403999959 ], [ -68.761992580999959, -51.019741149999959 ], [ -68.762890895999988, -51.040983551999943 ], [ -68.766034998999942, -51.055705872999965 ], [ -68.766034998999942, -51.072687319999943 ], [ -68.767382471999952, -51.082590271999948 ], [ -68.772772363999934, -51.107196951999981 ], [ -68.774119836999944, -51.110024461999956 ], [ -68.762890895999988, -51.12811641199994 ], [ -68.753907742999957, -51.147331304999966 ], [ -68.740433013999962, -51.170491513999934 ], [ -68.735043121999979, -51.182349533999968 ], [ -68.726958283999977, -51.194204487999968 ], [ -68.721568392999984, -51.204081273999975 ], [ -68.703602086999979, -51.241875583999956 ], [ -68.699110510999958, -51.261606476999987 ], [ -68.696864721999987, -51.27992039999998 ], [ -68.690127357999984, -51.310051954999949 ], [ -68.689229042999955, -51.319622305999985 ], [ -68.684737465999945, -51.331723110999974 ], [ -68.67126273699995, -51.358164857999952 ], [ -68.668118632999949, -51.367443961999982 ], [ -68.666771159999939, -51.368849721999936 ], [ -68.660033795999937, -51.382623874999979 ], [ -68.646559066999941, -51.395269936999966 ], [ -68.638923386999977, -51.404260553999961 ], [ -68.629041918999974, -51.418304838999973 ], [ -68.616465504999951, -51.431502511999952 ], [ -68.609728139999959, -51.440766673999974 ], [ -68.598499198999946, -51.459569919999979 ], [ -68.572897212999976, -51.514531745999932 ], [ -68.566159848999973, -51.534144831999981 ], [ -68.563914059999945, -51.544508317999941 ], [ -68.561668271999963, -51.564108425999962 ], [ -68.561668271999963, -51.574465052999983 ], [ -68.563015744999973, -51.584259679999946 ], [ -68.563914059999945, -51.632921476999968 ], [ -68.565261532999955, -51.642703436999966 ], [ -68.571998897999947, -51.670360924999954 ], [ -68.568405636999955, -51.674549972999955 ], [ -68.55493090799996, -51.698280558999954 ], [ -68.542803650999986, -51.715582041999937 ], [ -68.532922182999982, -51.732876874999931 ], [ -68.518099980999978, -51.752395306999972 ], [ -68.505972724999936, -51.771905262999951 ], [ -68.496091255999943, -51.784164327999974 ], [ -68.457014541999968, -51.846522216999972 ], [ -68.428717609999978, -51.881282448999968 ], [ -68.414344565999954, -51.894901093999977 ], [ -68.399971520999941, -51.911571337999931 ], [ -68.380657741999983, -51.92962375299993 ], [ -68.376166165999962, -51.932955707999952 ], [ -68.347420076999981, -51.964874340999984 ], [ -68.34158102799995, -51.968758528999956 ], [ -68.332597874999976, -51.977080648999959 ], [ -68.310589149999942, -52.002592129999982 ], [ -68.292622844999983, -52.018667947999973 ], [ -68.286783794999963, -52.025318312999957 ], [ -68.263427597999964, -52.041939877999937 ], [ -68.243215503999977, -52.058555231999946 ], [ -68.239173084999948, -52.063261786999931 ], [ -68.215367729999969, -52.079869172999963 ], [ -68.196503108999934, -52.096470349999947 ], [ -68.18886742899997, -52.101726095999936 ], [ -68.179884275999939, -52.110023373999979 ], [ -68.15742639399997, -52.133523903999958 ], [ -68.138561772999935, -52.150105015999941 ], [ -68.111612314999945, -52.179659267999966 ], [ -68.109366526999963, -52.182972533999987 ], [ -68.082417067999984, -52.201467039999955 ], [ -68.072535599999981, -52.209745654999949 ], [ -68.06355244699995, -52.218022720999954 ], [ -68.047831929999973, -52.235675280999942 ], [ -68.034357199999988, -52.253596441999946 ], [ -68.015492578999954, -52.289967801999978 ], [ -68.008755214999951, -52.309794085999954 ], [ -68.006509426999969, -52.319428639999956 ], [ -68.004263637999941, -52.339241667999943 ], [ -68.004263637999941, -52.349419892999947 ], [ -68.005611110999951, -52.359870754999974 ], [ -68.010102687999961, -52.379665576999969 ], [ -68.013246790999972, -52.389284839999959 ], [ -68.017738367999982, -52.398627249999947 ], [ -68.028967308999938, -52.417855365999969 ], [ -68.042442037999933, -52.435702502999959 ], [ -68.059060870999986, -52.453267973999971 ], [ -68.079272964999973, -52.469180602999984 ], [ -68.101730846999942, -52.483990612999946 ], [ -68.113858102999984, -52.49084540299998 ], [ -68.152036502999977, -52.509210945999939 ], [ -68.195604793999962, -52.523733450999941 ], [ -68.225698355999953, -52.531129853999971 ], [ -68.258037705999982, -52.536607863999961 ], [ -68.289029582999945, -52.539894340999979 ], [ -68.527294335808492, -52.54 ] ], [ [ -67.057861327999944, -48.749889373999963 ], [ -67.056213378999985, -48.749450683999953 ], [ -67.055923461999953, -48.747966765999934 ], [ -67.057632445999957, -48.747398375999978 ], [ -67.05953216599994, -48.747982024999942 ], [ -67.059326171999942, -48.749649047999981 ], [ -67.057861327999944, -48.749889373999963 ] ], [ [ -67.143455504999963, -48.744956969999976 ], [ -67.143249511999954, -48.743309020999959 ], [ -67.145240783999952, -48.743797301999962 ], [ -67.144554137999933, -48.74523925799997 ], [ -67.143455504999963, -48.744956969999976 ] ], [ [ -67.137718200999984, -48.738349914999958 ], [ -67.134559630999945, -48.736488341999973 ], [ -67.135665893999942, -48.734539031999986 ], [ -67.138282775999983, -48.734638213999972 ], [ -67.140617370999962, -48.736099242999956 ], [ -67.139816283999949, -48.737842559999933 ], [ -67.137718200999984, -48.738349914999958 ] ], [ [ -67.690345763999971, -49.295410155999946 ], [ -67.68309783899997, -49.292243957999972 ], [ -67.681457519999981, -49.289199828999983 ], [ -67.682632445999957, -49.285953521999943 ], [ -67.684471129999963, -49.284904479999966 ], [ -67.685981749999939, -49.28260421799996 ], [ -67.691406249999943, -49.282730102999949 ], [ -67.696800231999987, -49.28903579699994 ], [ -67.701217650999979, -49.291797637999935 ], [ -67.705429076999962, -49.293262481999932 ], [ -67.706382750999978, -49.294933318999938 ], [ -67.705162047999977, -49.296699523999962 ], [ -67.70298767099996, -49.296676635999972 ], [ -67.702957152999943, -49.297805785999969 ], [ -67.701026916999979, -49.298904418999939 ], [ -67.694175719999976, -49.297821044999978 ], [ -67.690345763999971, -49.295410155999946 ] ], [ [ -67.691032409999934, -49.269168853999986 ], [ -67.689331054999968, -49.267738341999973 ], [ -67.692489623999961, -49.265510558999949 ], [ -67.695594787999937, -49.267738341999973 ], [ -67.696723937999934, -49.269649505999951 ], [ -67.715766906999988, -49.271701812999936 ], [ -67.723556518999942, -49.271133422999981 ], [ -67.723533629999963, -49.272083281999983 ], [ -67.733757018999938, -49.275753020999957 ], [ -67.733642577999944, -49.276874541999973 ], [ -67.727653502999942, -49.280899047999981 ], [ -67.717887877999942, -49.283992766999972 ], [ -67.716209411999955, -49.285869597999977 ], [ -67.712814330999947, -49.284175872999981 ], [ -67.709533690999933, -49.28520965599995 ], [ -67.704757689999951, -49.284862517999954 ], [ -67.698097228999984, -49.279205321999939 ], [ -67.696784972999978, -49.274036406999983 ], [ -67.691032409999934, -49.269168853999986 ] ], [ [ -69.415809630999945, -51.089576720999958 ], [ -69.420097350999981, -51.087345122999977 ], [ -69.425361632999966, -51.089717864999955 ], [ -69.428855895999959, -51.089813231999983 ], [ -69.43042755099998, -51.088809966999975 ], [ -69.431121825999981, -51.089588164999952 ], [ -69.430335998999965, -51.090595244999975 ], [ -69.431152343999941, -51.092739104999964 ], [ -69.435653686999956, -51.093563079999967 ], [ -69.438163756999984, -51.090709685999968 ], [ -69.44020080599995, -51.090629577999948 ], [ -69.441116332999968, -51.091552733999947 ], [ -69.439788817999954, -51.094486236999956 ], [ -69.441619872999979, -51.096984862999932 ], [ -69.444221496999944, -51.098461150999981 ], [ -69.445709228999988, -51.096679686999948 ], [ -69.447517394999977, -51.096748351999963 ], [ -69.447647094999979, -51.098239898999964 ], [ -69.454841613999974, -51.10321807899993 ], [ -69.454208373999961, -51.107574462999935 ], [ -69.452865600999985, -51.109722136999949 ], [ -69.447959899999944, -51.106529235999972 ], [ -69.442634582999972, -51.107978820999961 ], [ -69.439453124999943, -51.107345580999947 ], [ -69.437538146999941, -51.108783721999941 ], [ -69.436706542999957, -51.110702514999957 ], [ -69.437225341999977, -51.111564635999969 ], [ -69.442070006999984, -51.113098144999981 ], [ -69.439857482999969, -51.114059447999978 ], [ -69.435195922999981, -51.113220214999956 ], [ -69.434387206999986, -51.111648559999935 ], [ -69.436508178999986, -51.107570647999978 ], [ -69.435928344999979, -51.106285094999976 ], [ -69.429450988999974, -51.10481262199994 ], [ -69.426734923999959, -51.105606078999983 ], [ -69.42421722399996, -51.104190825999979 ], [ -69.429351806999932, -51.102230071999941 ], [ -69.425636291999979, -51.097896575999982 ], [ -69.423088073999963, -51.09705734299996 ], [ -69.414871215999938, -51.098720550999985 ], [ -69.410430907999967, -51.096881865999933 ], [ -69.408714293999935, -51.094886779999968 ], [ -69.408798217999959, -51.092529296999942 ], [ -69.415809630999945, -51.089576720999958 ] ], [ [ -66.10604858399995, -48.125541686999952 ], [ -66.107917785999973, -48.125522613999976 ], [ -66.104377746999944, -48.126617431999932 ], [ -66.103286742999956, -48.12577056899994 ], [ -66.10604858399995, -48.125541686999952 ] ], [ [ -65.89422607399996, -48.115585326999962 ], [ -65.893310546999942, -48.11402893099995 ], [ -65.893836974999942, -48.112842559999933 ], [ -65.897209166999971, -48.111942290999934 ], [ -65.896057128999985, -48.113788604999968 ], [ -65.896720885999969, -48.115020751999964 ], [ -65.89422607399996, -48.115585326999962 ] ], [ [ -65.984169005999945, -48.110702514999957 ], [ -65.984016417999953, -48.108200072999978 ], [ -65.984718322999981, -48.107601165999938 ], [ -65.987968444999979, -48.109424590999936 ], [ -65.988128661999951, -48.110130309999931 ], [ -65.987136840999938, -48.110698699999944 ], [ -65.984169005999945, -48.110702514999957 ] ], [ [ -65.992073058999949, -48.114208220999956 ], [ -65.991020202999948, -48.112419127999942 ], [ -65.994613646999937, -48.111572265999939 ], [ -65.994995116999974, -48.113464354999962 ], [ -65.993148803999986, -48.114555358999951 ], [ -65.992073058999949, -48.114208220999956 ] ], [ [ -65.890716552999947, -48.088180541999975 ], [ -65.889793395999959, -48.086891173999959 ], [ -65.891990661999955, -48.086132049999947 ], [ -65.892173766999974, -48.087188720999961 ], [ -65.890716552999947, -48.088180541999975 ] ], [ [ -65.888603209999985, -48.083339690999935 ], [ -65.890701293999939, -48.082401275999985 ], [ -65.892623900999979, -48.08351898199993 ], [ -65.896553039999958, -48.083366393999938 ], [ -65.889343261999954, -48.086334228999931 ], [ -65.888336181999932, -48.084869384999934 ], [ -65.888603209999985, -48.083339690999935 ] ], [ [ -65.896476745999962, -48.076576232999969 ], [ -65.898010253999985, -48.073684691999972 ], [ -65.899215697999978, -48.07424926799996 ], [ -65.899459838999974, -48.075832366999975 ], [ -65.902435302999947, -48.077331542999957 ], [ -65.902069091999977, -48.077926635999972 ], [ -65.899581908999949, -48.07782745399993 ], [ -65.899826049999945, -48.078746795999962 ], [ -65.898338317999958, -48.079158782999968 ], [ -65.895286559999988, -48.077205657999968 ], [ -65.896476745999962, -48.076576232999969 ] ], [ [ -65.92495727499994, -48.007263183999953 ], [ -65.924713134999934, -48.006355285999973 ], [ -65.926025390999939, -48.006633758999953 ], [ -65.925842284999987, -48.00721359299996 ], [ -65.92495727499994, -48.007263183999953 ] ], [ [ -65.88765716599994, -48.001201629999969 ], [ -65.887969970999961, -48.000270843999942 ], [ -65.889045714999952, -48.000114440999937 ], [ -65.890167235999968, -48.001445769999975 ], [ -65.887840270999959, -48.001819610999974 ], [ -65.88765716599994, -48.001201629999969 ] ], [ [ -65.903793334999932, -48.00659942599998 ], [ -65.901100158999952, -48.005714416999979 ], [ -65.898414611999954, -48.003391265999937 ], [ -65.900955199999942, -48.002979278999931 ], [ -65.903541564999955, -48.004215239999951 ], [ -65.903564452999944, -48.005619048999961 ], [ -65.904640197999981, -48.006755828999985 ], [ -65.903793334999932, -48.00659942599998 ] ], [ [ -66.325286864999953, -48.360271453999985 ], [ -66.323959350999985, -48.35978698699995 ], [ -66.324203490999935, -48.358074187999932 ], [ -66.326026916999979, -48.359169005999945 ], [ -66.325286864999953, -48.360271453999985 ] ], [ [ -66.221160888999975, -48.246936797999979 ], [ -66.220039367999959, -48.246429442999954 ], [ -66.21935272199994, -48.244659423999963 ], [ -66.222549437999987, -48.24584579499998 ], [ -66.222282409999934, -48.246707915999934 ], [ -66.221160888999975, -48.246936797999979 ] ], [ [ -66.108596801999965, -48.142044066999972 ], [ -66.108909606999987, -48.141067504999967 ], [ -66.110206603999984, -48.141479491999974 ], [ -66.109184264999953, -48.142032622999977 ], [ -66.108596801999965, -48.142044066999972 ] ], [ [ -66.083915709999985, -48.13044357299998 ], [ -66.084289550999983, -48.129692077999948 ], [ -66.08739471399997, -48.128566741999975 ], [ -66.087142943999936, -48.129272460999971 ], [ -66.083915709999985, -48.13044357299998 ] ], [ [ -67.046661376999964, -48.755077361999952 ], [ -67.045448302999944, -48.754970550999985 ], [ -67.043777465999938, -48.75333023099995 ], [ -67.043029784999987, -48.750999450999984 ], [ -67.043975829999965, -48.749237060999974 ], [ -67.046325683999953, -48.749767302999942 ], [ -67.047988891999978, -48.752490996999938 ], [ -67.046661376999964, -48.755077361999952 ] ] ] } }
]
}
