{
"type": "FeatureCollection",
"name": "area_centolla_S1",
"crs": { "type": "name", "properties": { "name": "urn:ogc:def:crs:OGC:1.3:CRS84" } },
"features": [
{ "type": "Feature", "properties": { "FID": 0 }, "geometry": { "type": "MultiLineString", "coordinates": [ [ [ -68.31268887086523, -52.0 ], [ -68.332597874999976, -51.977080648999959 ], [ -68.34158102799995, -51.968758528999956 ], [ -68.347420076999981, -51.964874340999984 ], [ -68.376166165999962, -51.932955707999952 ], [ -68.380657741999983, -51.92962375299993 ], [ -68.399971520999941, -51.911571337999931 ], [ -68.414344565999954, -51.894901093999977 ], [ -68.428717609999978, -51.881282448999968 ], [ -68.457014541999968, -51.846522216999972 ], [ -68.496091255999943, -51.784164327999974 ], [ -68.505972724999936, -51.771905262999951 ], [ -68.518099980999978, -51.752395306999972 ], [ -68.532922182999982, -51.732876874999931 ], [ -68.542803650999986, -51.715582041999937 ], [ -68.55493090799996, -51.698280558999954 ], [ -68.568405636999955, -51.674549972999955 ], [ -68.571998897999947, -51.670360924999954 ], [ -68.565261532999955, -51.642703436999966 ], [ -68.563914059999945, -51.632921476999968 ], [ -68.563015744999973, -51.584259679999946 ], [ -68.561668271999963, -51.574465052999983 ], [ -68.561668271999963, -51.564108425999962 ], [ -68.563914059999945, -51.544508317999941 ], [ -68.566159848999973, -51.534144831999981 ], [ -68.572897212999976, -51.514531745999932 ], [ -68.598499198999946, -51.459569919999979 ], [ -68.609728139999959, -51.440766673999974 ], [ -68.616465504999951, -51.431502511999952 ], [ -68.629041918999974, -51.418304838999973 ], [ -68.638923386999977, -51.404260553999961 ], [ -68.646559066999941, -51.395269936999966 ], [ -68.660033795999937, -51.382623874999979 ], [ -68.666771159999939, -51.368849721999936 ], [ -68.668118632999949, -51.367443961999982 ], [ -68.67126273699995, -51.358164857999952 ], [ -68.684737465999945, -51.331723110999974 ], [ -68.689229042999955, -51.319622305999985 ], [ -68.690127357999984, -51.310051954999949 ], [ -68.696864721999987, -51.27992039999998 ], [ -68.699110510999958, -51.261606476999987 ], [ -68.703602086999979, -51.241875583999956 ], [ -68.721568392999984, -51.204081273999975 ], [ -68.726958283999977, -51.194204487999968 ], [ -68.735043121999979, -51.182349533999968 ], [ -68.740433013999962, -51.170491513999934 ], [ -68.753907742999957, -51.147331304999966 ], [ -68.762890895999988, -51.12811641199994 ], [ -68.774119836999944, -51.110024461999956 ], [ -68.772772363999934, -51.107196951999981 ], [ -68.767382471999952, -51.082590271999948 ], [ -68.766034998999942, -51.072687319999943 ], [ -68.766034998999942, -51.055705872999965 ], [ -68.762890895999988, -51.040983551999943 ], [ -68.761992580999959, -51.019741149999959 ], [ -68.760645107999949, -51.017191403999959 ], [ -68.759746791999987, -51.009257958999967 ], [ -68.753907742999957, -50.991119247999961 ], [ -68.752111111999966, -50.981196623999949 ], [ -68.748967008999955, -50.970988272999932 ], [ -68.748068693999983, -50.950848521999944 ], [ -68.748967008999955, -50.94091724599997 ], [ -68.753009427999984, -50.92133219699997 ], [ -68.755255215999966, -50.911394581999957 ], [ -68.757950161999986, -50.904294978999985 ], [ -68.757950161999986, -50.886115035999978 ], [ -68.76513668399997, -50.84632153299998 ], [ -68.779060570999945, -50.816738534999956 ], [ -68.780857201999936, -50.804216976999953 ], [ -68.783102989999975, -50.794823592999933 ], [ -68.792086142999949, -50.775176747999978 ], [ -68.802865925999981, -50.756091432999938 ], [ -68.802865925999981, -50.744978465999964 ], [ -68.779958885999974, -50.699359041999969 ], [ -68.775916466999945, -50.694794642999966 ], [ -68.769179102999942, -50.684237760999963 ], [ -68.761992580999959, -50.67482014899997 ], [ -68.748068693999983, -50.651410580999936 ], [ -68.73414480699995, -50.638558880999938 ], [ -68.711237766999943, -50.608843649999983 ], [ -68.70135629899994, -50.589118317999976 ], [ -68.693271460999938, -50.570242830999973 ], [ -68.689229042999955, -50.550501234999956 ], [ -68.688330726999936, -50.54105666199996 ], [ -68.682491677999963, -50.529606145999935 ], [ -68.673508524999988, -50.521302773999935 ], [ -68.644762435999951, -50.504978071999972 ], [ -68.633533494999938, -50.497816323999984 ], [ -68.623652026999935, -50.489507328999935 ], [ -68.616465504999951, -50.485782129999961 ], [ -68.615567188999933, -50.484635855999954 ], [ -68.606584035999958, -50.481483456999968 ], [ -68.601643301999957, -50.478904063999948 ], [ -68.577837946999978, -50.473171572999945 ], [ -68.549990173999959, -50.464284830999986 ], [ -68.51899829599995, -50.452242049999938 ], [ -68.505972724999936, -50.446506308999972 ], [ -68.490252206999969, -50.438188241999967 ], [ -68.452522964999957, -50.424704115999987 ], [ -68.445336442999974, -50.422982459999957 ], [ -68.440395708999972, -50.420399858999986 ], [ -68.426471821999939, -50.417243153999948 ], [ -68.386945948999937, -50.405188332999955 ], [ -68.358649017999937, -50.398585576999949 ], [ -68.33708945099994, -50.391120477999948 ], [ -68.327207982999937, -50.389110441999946 ], [ -68.305199258999949, -50.38221823799995 ], [ -68.264325912999936, -50.371303522999938 ], [ -68.211325310999939, -50.352915136999968 ], [ -68.185723325999959, -50.341993642999967 ], [ -68.152934817999949, -50.335094556999934 ], [ -68.132722723999962, -50.329344547999938 ], [ -68.108019053999953, -50.324744037999949 ], [ -68.056365924999966, -50.312665566999954 ], [ -68.018636682999954, -50.305186871999979 ], [ -67.989441435999936, -50.296843854999963 ], [ -67.976415864999979, -50.291664690999937 ], [ -67.962491977999946, -50.287348286999986 ], [ -67.919822001999933, -50.265472459999955 ], [ -67.905898114999957, -50.261153667999963 ], [ -67.878948655999977, -50.25078696199995 ], [ -67.858287404999942, -50.241282153999975 ], [ -67.834482049999963, -50.232351659999949 ], [ -67.795405334999941, -50.214485623999963 ], [ -67.770701664999933, -50.201802419999979 ], [ -67.724887584999976, -50.175560492999978 ], [ -67.720845165999947, -50.172387408999953 ], [ -67.715006116999973, -50.169791092999958 ], [ -67.667844564999939, -50.141510905999951 ], [ -67.64134426399994, -50.119856543999958 ], [ -67.633259425999938, -50.115235671999983 ], [ -67.604513336999958, -50.095014081999977 ], [ -67.585199557999942, -50.078830627999935 ], [ -67.573521459999938, -50.066689432999965 ], [ -67.566334936999965, -50.060906823999971 ], [ -67.548368631999949, -50.043554792999942 ], [ -67.533546429999944, -50.026196452999955 ], [ -67.523664960999952, -50.009121264999976 ], [ -67.521868330999951, -50.003910670999971 ], [ -67.517825911999978, -50.000726138999937 ], [ -67.510639389999938, -49.991750407999973 ], [ -67.502554551999935, -49.983352231999959 ], [ -67.483689930999958, -49.950614234999932 ], [ -67.477850881999984, -49.944817566999973 ], [ -67.467071098999952, -49.926263515999949 ], [ -67.460782891999941, -49.917273813999941 ], [ -67.460782891999941, -49.914663584999971 ], [ -67.453147211999976, -49.903060847999939 ], [ -67.450003107999976, -49.899869602999956 ], [ -67.435180905999971, -49.873461162999945 ], [ -67.42889269899996, -49.864461562999963 ], [ -67.42619775299994, -49.854008298999986 ], [ -67.423053649999986, -49.847619073999965 ], [ -67.422155333999967, -49.842681363999986 ], [ -67.414070496999955, -49.83106122099997 ], [ -67.410028077999982, -49.823216036999952 ], [ -67.403290712999933, -49.803161419999981 ], [ -67.39924829499995, -49.783389273999944 ], [ -67.398349978999988, -49.772918380999954 ], [ -67.398349978999988, -49.756334811999977 ], [ -67.396104190999949, -49.753133817999981 ], [ -67.392061771999977, -49.737416763999931 ], [ -67.390265141999976, -49.724024122999936 ], [ -67.387121037999975, -49.713540333999958 ], [ -67.385324407999974, -49.683241043999942 ], [ -67.386222722999946, -49.664002793999941 ], [ -67.385324407999974, -49.647673428999951 ], [ -67.378137884999944, -49.630171564999955 ], [ -67.37229883599997, -49.597192545999974 ], [ -67.367358101999969, -49.583761029999948 ], [ -67.363315682999939, -49.563606783999944 ], [ -67.362417367999967, -49.553380415999982 ], [ -67.362417367999967, -49.539644475999978 ], [ -67.360620736999977, -49.536429120999969 ], [ -67.358374948999938, -49.526781778999975 ], [ -67.355230845999984, -49.503971357999944 ], [ -67.350290111999982, -49.491684391999968 ], [ -67.34534937799998, -49.472370033999937 ], [ -67.341306958999951, -49.451583911999933 ], [ -67.341306958999951, -49.435182968999982 ], [ -67.343552746999933, -49.42551554399995 ], [ -67.343552746999933, -49.421120626999937 ], [ -67.341306958999951, -49.41965556599996 ], [ -67.335467908999988, -49.403536997999936 ], [ -67.331425490999948, -49.395035972999949 ], [ -67.326484756999946, -49.380082304999974 ], [ -67.320645706999983, -49.370990583999969 ], [ -67.316603287999953, -49.360430332999954 ], [ -67.311662553999952, -49.356029555999953 ], [ -67.304476031999968, -49.34693335999998 ], [ -67.298636982999938, -49.337835472999984 ], [ -67.288755514999934, -49.319047386999955 ], [ -67.281568991999961, -49.299370882999938 ], [ -67.27977236199996, -49.289676564999979 ], [ -67.27662825799996, -49.279098758999965 ], [ -67.275729942999988, -49.269400431999941 ], [ -67.27662825799996, -49.24940995299994 ], [ -67.281568991999961, -49.229705485999943 ], [ -67.283814780999933, -49.206167406999953 ], [ -67.289653829999963, -49.182029174999968 ], [ -67.288755514999934, -49.171722663999958 ], [ -67.289653829999963, -49.150808538999968 ], [ -67.284713095999962, -49.131064526999978 ], [ -67.281568991999961, -49.114261154999951 ], [ -67.262704370999984, -49.100401434999981 ], [ -67.238000700999976, -49.078276796999944 ], [ -67.223178498999971, -49.069129048999969 ], [ -67.21689029199996, -49.066472934999979 ], [ -67.202966404999984, -49.058503732999952 ], [ -67.185449256999959, -49.051418918999957 ], [ -67.178262734999976, -49.049352323999983 ], [ -67.148618329999977, -49.044333089999952 ], [ -67.120321398999977, -49.036950937999961 ], [ -67.092473624999968, -49.027204808999954 ], [ -67.06776995499996, -49.016865907999943 ], [ -67.043964599999981, -49.004160871999943 ], [ -66.99904883499994, -48.975488697999936 ], [ -66.978387583999961, -48.957745025999941 ], [ -66.893496789999972, -48.923126596999964 ], [ -66.859809965999943, -48.907140714999969 ], [ -66.836902926999983, -48.893519052999977 ], [ -66.817139989999987, -48.879004914999939 ], [ -66.777164959999936, -48.847592483999961 ], [ -66.771325910999963, -48.841663386999983 ], [ -66.757402023999987, -48.830989231999979 ], [ -66.749317186999974, -48.823278696999978 ], [ -66.736291614999971, -48.81319388999998 ], [ -66.73045256599994, -48.807557372999952 ], [ -66.715181205999954, -48.796282427999984 ], [ -66.700359003999949, -48.781146257999978 ], [ -66.618612312999971, -48.71342250899994 ], [ -66.603790109999977, -48.69617988899995 ], [ -66.579984754999941, -48.662569441999949 ], [ -66.55393361199998, -48.649476085999936 ], [ -66.543153828999948, -48.642630469999972 ], [ -66.51530605499994, -48.620896890999973 ], [ -66.49419564599998, -48.619110149999983 ], [ -66.433559363999962, -48.611069030999943 ], [ -66.422779580999986, -48.622385791999932 ], [ -66.399872540999979, -48.638760795999985 ], [ -66.377863816999934, -48.652154550999967 ], [ -66.340134574999979, -48.669114836999938 ], [ -66.313185115999943, -48.678336442999978 ], [ -66.285337341999934, -48.685771984999974 ], [ -66.270515139999986, -48.689043272999982 ], [ -66.226497690999963, -48.694990523999934 ], [ -66.196853286999954, -48.69617988899995 ], [ -66.15103920699994, -48.694990523999934 ], [ -66.107021757999973, -48.689043272999982 ], [ -66.078275668999936, -48.682203061999985 ], [ -66.050427894999984, -48.673874586999943 ], [ -66.024376751999966, -48.663759576999951 ], [ -65.999673081999958, -48.652154550999967 ], [ -65.977664356999981, -48.638760795999985 ], [ -65.957003105999945, -48.624172415999965 ], [ -65.93903679999994, -48.607792649999965 ], [ -65.930951962999984, -48.599153893999983 ], [ -65.917028075999951, -48.582169937999936 ], [ -65.904900818999977, -48.56368963999995 ], [ -65.893222720999972, -48.534464989999947 ], [ -65.889180301999943, -48.514773514999945 ], [ -65.888281986999971, -48.494178738999949 ], [ -65.890078616999972, -48.474172855999939 ], [ -65.898163454999974, -48.44459739499996 ], [ -65.908044922999977, -48.42516973599993 ], [ -65.926909543999955, -48.397958458999938 ], [ -65.943079218999969, -48.381504979999931 ], [ -65.950714898999934, -48.374922090999974 ], [ -65.91792639099998, -48.362951005999946 ], [ -65.881993779999959, -48.347683767999968 ], [ -65.869417365999936, -48.343791382999939 ], [ -65.844264537999948, -48.333010909999985 ], [ -65.838425487999984, -48.329716418999965 ], [ -65.82539991699997, -48.325223585999936 ], [ -65.795755511999971, -48.312641536999934 ], [ -65.777789206999955, -48.30664898699996 ], [ -65.764763634999952, -48.301255087999948 ], [ -65.752636378999966, -48.295860614999981 ], [ -65.720746185999985, -48.279373949999979 ], [ -65.70008493499995, -48.26528110299995 ], [ -65.690203466999947, -48.25748337999994 ], [ -65.647084332999952, -48.219377303999977 ], [ -65.631363814999986, -48.202265293999972 ], [ -65.61025340599997, -48.175535036999975 ], [ -65.586448050999934, -48.149692474999938 ], [ -65.582405631999961, -48.142778871999951 ], [ -65.563541010999984, -48.122934636999958 ], [ -65.552761227999952, -48.108196805999967 ], [ -65.54467638999995, -48.100375004999933 ], [ -65.537939025999947, -48.090144688999942 ], [ -65.516828616999987, -48.06636634399996 ], [ -65.468319590999954, -48.028117220999945 ], [ -65.460234753999941, -48.020283167999935 ], [ -65.442044388498999, -48.0 ], [ -64.5, -48.0 ], [ -64.5, -52.0 ], [ -68.31268887086523, -52.0 ] ] ] } }
]
}
