{
"type": "FeatureCollection",
"name": "area_centolla_C5",
"crs": { "type": "name", "properties": { "name": "urn:ogc:def:crs:OGC:1.3:CRS84" } },
"features": [
{ "type": "Feature", "properties": { "FID": 0 }, "geometry": { "type": "MultiLineString", "coordinates": [ [ [ -65.93568517346192, -48.0 ], [ -65.934309322999979, -47.997495602999948 ], [ -65.931710951999946, -47.99595371199996 ], [ -65.928684276999945, -47.996724657999948 ], [ -65.927170939999939, -47.996082202999958 ], [ -65.927299430999938, -47.995396917999983 ], [ -65.929026919999956, -47.995254150999983 ], [ -65.928969812999981, -47.993026974999964 ], [ -65.927713456999982, -47.991656405999947 ], [ -65.925900307999939, -47.991556467999942 ], [ -65.924115711999946, -47.990243005999957 ], [ -65.926842574999966, -47.990671308999936 ], [ -65.92862716999997, -47.990085960999977 ], [ -65.931382585999984, -47.987330545999953 ], [ -65.932624664999935, -47.988843882999959 ], [ -65.936465114999976, -47.988843882999959 ], [ -65.938349647999985, -47.987987276999945 ], [ -65.941219277999949, -47.985060539999949 ], [ -65.941918838999982, -47.983775630999958 ], [ -65.941433428999972, -47.982947577999937 ], [ -65.942518463999988, -47.982062418999931 ], [ -65.943246578999947, -47.983404434999954 ], [ -65.944645701999946, -47.983618585999977 ], [ -65.948143508999976, -47.982376507999959 ], [ -65.950784710999983, -47.979264172999933 ], [ -65.951441441999975, -47.976708631999941 ], [ -65.94945697199995, -47.968656535999969 ], [ -65.942718337999963, -47.956421346999946 ], [ -65.934809009999981, -47.947441260999938 ], [ -65.922873633999984, -47.93894658499994 ], [ -65.909553410999933, -47.933178771999962 ], [ -65.903471508999985, -47.93199379999993 ], [ -65.894776957999966, -47.931679711999948 ], [ -65.890094178999959, -47.933321539999952 ], [ -65.878929747999962, -47.934092484999951 ], [ -65.874946529999988, -47.935120411999947 ], [ -65.871905578999986, -47.936705132999975 ], [ -65.868350663999934, -47.94103099299997 ], [ -65.869164439999963, -47.943443766999962 ], [ -65.873318978999976, -47.943329552999955 ], [ -65.87307627399997, -47.944700121999972 ], [ -65.874732377999976, -47.945956477999971 ], [ -65.871577212999966, -47.94605641499993 ], [ -65.87020664399995, -47.945371129999955 ], [ -65.868836073999944, -47.946755976999953 ], [ -65.870606392999946, -47.94779817999995 ], [ -65.867736762999982, -47.948697616999937 ], [ -65.861926118999975, -47.948055161999946 ], [ -65.866037827999946, -47.947227109999972 ], [ -65.867665378999959, -47.945956477999971 ], [ -65.865952166999932, -47.943986283999948 ], [ -65.867751039999973, -47.942944079999961 ], [ -65.866880156999969, -47.940988162999986 ], [ -65.862582850999956, -47.938389791999953 ], [ -65.85882806099994, -47.937504631999957 ], [ -65.852888925999935, -47.937832997999976 ], [ -65.841952923999941, -47.94070262799994 ], [ -65.838626436999959, -47.942373008999937 ], [ -65.837341527999968, -47.945913646999941 ], [ -65.840725121999981, -47.950881961999983 ], [ -65.841039210999952, -47.952880708999942 ], [ -65.840082666999933, -47.953223351999952 ], [ -65.839939899999933, -47.954522536999946 ], [ -65.841467513999987, -47.955407696999941 ], [ -65.840596630999983, -47.956692605999933 ], [ -65.842395502999977, -47.960575885999958 ], [ -65.839425935999941, -47.961004188999937 ], [ -65.838455115999977, -47.963159980999933 ], [ -65.840182604999939, -47.963616836999961 ], [ -65.837612786999955, -47.964116523999962 ], [ -65.836242216999949, -47.962774507999939 ], [ -65.837769830999946, -47.961361107999949 ], [ -65.836841840999966, -47.959119655999984 ], [ -65.83547127199995, -47.95836298699993 ], [ -65.833515354999975, -47.95889122799997 ], [ -65.831830696999987, -47.960561608999967 ], [ -65.833986487999937, -47.962446141999976 ], [ -65.832830069999943, -47.962945828999977 ], [ -65.83375805999998, -47.96394520299998 ], [ -65.831188241999939, -47.965372878999972 ], [ -65.826376971999935, -47.964901745999953 ], [ -65.828332888999967, -47.964145077999945 ], [ -65.82539187499998, -47.96311714999996 ], [ -65.826890934999938, -47.96156098299997 ], [ -65.821066014999985, -47.960404564999976 ], [ -65.820694818999982, -47.958805566999956 ], [ -65.819424186999981, -47.958834120999938 ], [ -65.81936707999995, -47.957749085999978 ], [ -65.81795367999996, -47.957078077999938 ], [ -65.815169710999953, -47.95729222999995 ], [ -65.812357187999964, -47.958876950999979 ], [ -65.812085928999977, -47.959505128999979 ], [ -65.812999641999966, -47.959976261999941 ], [ -65.812071651999986, -47.96060443999994 ], [ -65.804290814999945, -47.960847144999946 ], [ -65.803405654999949, -47.960019091999982 ], [ -65.80486188499998, -47.958691352999949 ], [ -65.804076662999933, -47.957063801999936 ], [ -65.800835836999966, -47.956392793999953 ], [ -65.801849487999959, -47.954137064999941 ], [ -65.799650865999979, -47.954051403999983 ], [ -65.800093445999948, -47.952795048999974 ], [ -65.798323126999946, -47.951624353999932 ], [ -65.791641599999934, -47.952866431999951 ], [ -65.789414424999961, -47.951524415999984 ], [ -65.787444230999938, -47.95189561199993 ], [ -65.779520625999965, -47.950710640999944 ], [ -65.771554189999961, -47.95159579999995 ], [ -65.77139714599997, -47.952780771999983 ], [ -65.770497709999972, -47.952909262999981 ], [ -65.764701342999956, -47.949625605999984 ], [ -65.765657885999985, -47.946684592999986 ], [ -65.767385374999947, -47.946042137999939 ], [ -65.767542418999938, -47.94498565799995 ], [ -65.769940915999939, -47.943143954999982 ], [ -65.771111610999981, -47.944514523999942 ], [ -65.777907350999953, -47.945885093999948 ], [ -65.785017180999944, -47.945885093999948 ], [ -65.788729139999987, -47.942801311999972 ], [ -65.788886183999978, -47.940802564999956 ], [ -65.790399521999973, -47.938032871999951 ], [ -65.790299583999968, -47.935962740999969 ], [ -65.787387123999963, -47.93500619799994 ], [ -65.790627949999987, -47.931679711999948 ], [ -65.785274161999951, -47.923413463999964 ], [ -65.779406411999958, -47.922713902999931 ], [ -65.776508227999955, -47.920615217999966 ], [ -65.772710607999954, -47.920900752999955 ], [ -65.771825448999948, -47.919815718999985 ], [ -65.77014079099996, -47.919458799999973 ], [ -65.763473540999939, -47.919358861999967 ], [ -65.765800653999975, -47.917588542999965 ], [ -65.76177460599996, -47.916774767999982 ], [ -65.761489069999982, -47.916032375999976 ], [ -65.762831085999949, -47.914461931999938 ], [ -65.769484058999979, -47.913690985999949 ], [ -65.770943164999949, -47.911637610999946 ], [ -65.774041222999983, -47.911137923999945 ], [ -65.774155436999933, -47.910309870999981 ], [ -65.772813420999967, -47.909381881999934 ], [ -65.769372719999978, -47.908325400999956 ], [ -65.768230578999976, -47.907354580999936 ], [ -65.783078415999967, -47.908439614999963 ], [ -65.78437760099996, -47.906897723999975 ], [ -65.78720440099994, -47.906597911999938 ], [ -65.787518489999968, -47.905512877999968 ], [ -65.788946166999949, -47.905441493999945 ], [ -65.786619053999971, -47.904670548999945 ], [ -65.788817675999951, -47.903842495999982 ], [ -65.792629571999953, -47.90412803199996 ], [ -65.792843723999965, -47.903242871999964 ], [ -65.791915733999986, -47.902786015999936 ], [ -65.794314230999987, -47.902429096999981 ], [ -65.798483045999944, -47.902571863999981 ], [ -65.800596007999957, -47.903628344999959 ], [ -65.805892687999972, -47.902329158999976 ], [ -65.810247100999959, -47.902814568999986 ], [ -65.813345159999983, -47.904499227999963 ], [ -65.816457494999952, -47.90364262199995 ], [ -65.820983229999968, -47.90457061099994 ], [ -65.821554299999946, -47.904242245999967 ], [ -65.820983229999968, -47.903028720999941 ], [ -65.823210404999941, -47.903656897999952 ], [ -65.827350666999962, -47.901501106999945 ], [ -65.827993121999953, -47.900830098999961 ], [ -65.827593371999967, -47.899273930999982 ], [ -65.829435074999935, -47.899816447999967 ], [ -65.830991242999971, -47.899145439999984 ], [ -65.831762187999971, -47.898445878999951 ], [ -65.831390991999967, -47.897817700999951 ], [ -65.832490302999986, -47.897589272999937 ], [ -65.831647973999964, -47.897232353999982 ], [ -65.831376714999976, -47.895561971999939 ], [ -65.833903702999976, -47.894020080999951 ], [ -65.837815536999983, -47.893834482999978 ], [ -65.840228309999986, -47.895033731999945 ], [ -65.843797501999973, -47.89416284899994 ], [ -65.85035053699994, -47.883740809999949 ], [ -65.853862621999951, -47.876316890999931 ], [ -65.858188481999946, -47.872776253999973 ], [ -65.861115218999942, -47.866208940999968 ], [ -65.861286539999981, -47.859199048999983 ], [ -65.864455981999981, -47.849990534999961 ], [ -65.863413777999938, -47.839625602999945 ], [ -65.866868755999974, -47.825591541999984 ], [ -65.868139387999975, -47.821908135999934 ], [ -65.874178459999939, -47.813027987999931 ], [ -65.875791733999961, -47.809158983999964 ], [ -65.875648966999961, -47.805689729999983 ], [ -65.874135628999966, -47.803833749999967 ], [ -65.870923356999981, -47.80216336899997 ], [ -65.870209518999957, -47.80323412599995 ], [ -65.872094051999966, -47.80401934799994 ], [ -65.870409393999978, -47.805104382999957 ], [ -65.867925235999962, -47.803833749999967 ], [ -65.866583219999939, -47.804076454999972 ], [ -65.865955042999985, -47.803348339999957 ], [ -65.866925862999949, -47.802991420999945 ], [ -65.86504132999994, -47.801078333999953 ], [ -65.866683157999944, -47.800964119999946 ], [ -65.866326237999942, -47.800236004999931 ], [ -65.868253601999982, -47.799764871999969 ], [ -65.873950031999982, -47.802506010999934 ], [ -65.87908966699996, -47.799222354999984 ], [ -65.88084570999996, -47.796424108999986 ], [ -65.880859985999962, -47.794810833999975 ], [ -65.875834564999934, -47.793054791999964 ], [ -65.880931369999985, -47.793497371999933 ], [ -65.883929490999947, -47.78870037799993 ], [ -65.885799746999965, -47.780419853999945 ], [ -65.884900310999967, -47.776222484999948 ], [ -65.87987488899995, -47.775580029999958 ], [ -65.880017656999939, -47.774238013999934 ], [ -65.884771819999969, -47.772653292999962 ], [ -65.886356540999941, -47.77044039499998 ], [ -65.888526609999985, -47.770426117999932 ], [ -65.898263363999945, -47.767085354999949 ], [ -65.897678016999976, -47.765657677999968 ], [ -65.89505109199996, -47.763716037999984 ], [ -65.891110703999971, -47.764329938999936 ], [ -65.889012019999939, -47.766528560999973 ], [ -65.888084029999959, -47.765629123999986 ], [ -65.887013271999933, -47.766185917999962 ], [ -65.885999621999986, -47.765500633999977 ], [ -65.884043704999954, -47.766385792999984 ], [ -65.878589979999958, -47.765100883999935 ], [ -65.877819034999959, -47.765886105999982 ], [ -65.877819034999959, -47.764886732999969 ], [ -65.876791107999964, -47.765443525999956 ], [ -65.873650218999956, -47.765015222999978 ], [ -65.878033186999971, -47.76441559899996 ], [ -65.880859985999962, -47.762688110999932 ], [ -65.883172821999949, -47.76284515499998 ], [ -65.883843829999932, -47.764001572999973 ], [ -65.887427298999967, -47.764843901999939 ], [ -65.89549367099994, -47.762716663999981 ], [ -65.903808593999941, -47.763610839999956 ], [ -65.907775878999985, -47.762023925999983 ], [ -65.910400390999939, -47.761901854999962 ], [ -65.917907714999956, -47.763000487999932 ], [ -65.919677733999947, -47.764404296999942 ], [ -65.940307616999974, -47.766906737999932 ], [ -65.943603515999939, -47.766113280999946 ], [ -65.946289062999938, -47.764282226999967 ], [ -65.949218749999943, -47.760498046999942 ], [ -65.951782226999967, -47.758972167999957 ], [ -65.957275390999939, -47.758972167999957 ], [ -65.963378905999946, -47.763183593999941 ], [ -65.978088378999985, -47.762695312999938 ], [ -65.980590819999975, -47.763793944999975 ], [ -65.981811522999976, -47.766174315999933 ], [ -65.985107421999942, -47.766906737999932 ], [ -65.987792968999941, -47.769287108999947 ], [ -66.000976562999938, -47.773681640999939 ], [ -66.005187987999932, -47.773986815999933 ], [ -66.005981444999975, -47.77508544899996 ], [ -66.011779784999987, -47.775390624999943 ], [ -66.019104003999985, -47.778808593999941 ], [ -66.018981933999953, -47.780029296999942 ], [ -66.023376464999956, -47.780273437999938 ], [ -66.024719237999932, -47.77899169899996 ], [ -66.026916503999985, -47.778808593999941 ], [ -66.031677245999958, -47.781188964999956 ], [ -66.033386229999962, -47.783020019999981 ], [ -66.033569335999971, -47.784790038999972 ], [ -66.036193847999982, -47.786376952999944 ], [ -66.040100097999982, -47.786682128999985 ], [ -66.040771483999947, -47.787780761999954 ], [ -66.042907714999956, -47.788574218999941 ], [ -66.046691894999981, -47.789001464999956 ], [ -66.05242919899996, -47.792175292999957 ], [ -66.052307218999943, -47.793823354999972 ], [ -66.056091308999953, -47.796997069999975 ], [ -66.061279296999942, -47.798889159999931 ], [ -66.082702636999954, -47.810974120999958 ], [ -66.088195800999983, -47.812988280999946 ], [ -66.103820800999983, -47.814880370999958 ], [ -66.108703612999932, -47.813903808999953 ], [ -66.111389159999987, -47.815185546999942 ], [ -66.115600585999971, -47.814514159999931 ], [ -66.12219238299997, -47.818176269999981 ], [ -66.127929687999938, -47.818908690999933 ], [ -66.133789062999938, -47.815979003999985 ], [ -66.13781738299997, -47.81610107399996 ], [ -66.147705077999944, -47.820922851999967 ], [ -66.155883788999972, -47.821289062999938 ], [ -66.179321288999972, -47.828125 ], [ -66.186096190999933, -47.828491210999971 ], [ -66.190185546999942, -47.829528808999953 ], [ -66.194885253999985, -47.831604003999985 ], [ -66.202697753999985, -47.837402343999941 ], [ -66.232421874999943, -47.84680175799997 ], [ -66.237609862999932, -47.848999022999976 ], [ -66.242370604999962, -47.852111815999933 ], [ -66.250305175999983, -47.854492187999938 ], [ -66.254089354999962, -47.85711669899996 ], [ -66.255310058999953, -47.85906982399996 ], [ -66.258422851999967, -47.860107421999942 ], [ -66.261108397999976, -47.862304687999938 ], [ -66.267028808999953, -47.864013671999942 ], [ -66.281982421999942, -47.871398925999983 ], [ -66.281799315999933, -47.868774413999972 ], [ -66.269775390999939, -47.861999511999954 ], [ -66.264892577999944, -47.860778808999953 ], [ -66.261108397999976, -47.858703612999932 ], [ -66.258789062999938, -47.857299804999968 ], [ -66.254577636999954, -47.852783202999944 ], [ -66.236511229999962, -47.843322753999985 ], [ -66.227783202999944, -47.839599608999947 ], [ -66.206420897999976, -47.825927733999947 ], [ -66.19500732399996, -47.82000732399996 ], [ -66.18859863299997, -47.819580077999944 ], [ -66.184020995999958, -47.817871093999941 ], [ -66.179199218999941, -47.817810058999953 ], [ -66.176818847999982, -47.815429687999938 ], [ -66.171813964999956, -47.813110351999967 ], [ -66.165222167999957, -47.812316894999981 ], [ -66.150390624999943, -47.807006835999971 ], [ -66.138977050999983, -47.809082030999946 ], [ -66.130187987999932, -47.809082030999946 ], [ -66.123413085999971, -47.807983397999976 ], [ -66.113281249999943, -47.801574706999986 ], [ -66.111511229999962, -47.799011229999962 ], [ -66.105285644999981, -47.799011229999962 ], [ -66.092773437999938, -47.790588378999985 ], [ -66.090576171999942, -47.787902831999986 ], [ -66.083984374999943, -47.784729003999985 ], [ -66.08312988299997, -47.781494140999939 ], [ -66.079589843999941, -47.779785155999946 ], [ -66.070312499999943, -47.777526854999962 ], [ -66.060607909999987, -47.76672363299997 ], [ -66.057189940999933, -47.766296386999954 ], [ -66.05187988299997, -47.755676269999981 ], [ -66.046081542999957, -47.750976562999938 ], [ -66.034423827999944, -47.744079589999956 ], [ -66.02648925799997, -47.743408202999944 ], [ -66.022277831999986, -47.741699218999941 ], [ -66.017395019999981, -47.741088866999974 ], [ -66.014709472999982, -47.741210937999938 ], [ -66.009216308999953, -47.744689940999933 ], [ -66.002319335999971, -47.743713378999985 ], [ -66.00360107399996, -47.74188232399996 ], [ -66.002929687999938, -47.739501952999944 ], [ -66.005310058999953, -47.737609862999932 ], [ -66.006713866999974, -47.734924315999933 ], [ -66.006713866999974, -47.731872558999953 ], [ -66.005310058999953, -47.730773925999983 ], [ -66.000976562999938, -47.732971190999933 ], [ -66.002075194999975, -47.734497069999975 ], [ -66.00099357299996, -47.737323498999956 ], [ -66.002075194999975, -47.737915038999972 ], [ -66.002502440999933, -47.73937988299997 ], [ -66.000793456999986, -47.741271972999982 ], [ -66.000793456999986, -47.742614745999958 ], [ -66.001892089999956, -47.743896483999947 ], [ -66.001403808999953, -47.745300292999957 ], [ -65.992797851999967, -47.743591308999953 ], [ -65.989685058999953, -47.744201659999931 ], [ -65.984680175999983, -47.741821288999972 ], [ -65.982727050999983, -47.741821288999972 ], [ -65.977905272999976, -47.744018554999968 ], [ -65.972412108999947, -47.742675780999946 ], [ -65.974182128999985, -47.745117187999938 ], [ -65.965209960999971, -47.746826171999942 ], [ -65.960998534999987, -47.746826171999942 ], [ -65.958801269999981, -47.745910644999981 ], [ -65.958007812999938, -47.744506835999971 ], [ -65.935119628999985, -47.750305175999983 ], [ -65.92492675799997, -47.751403808999953 ], [ -65.918090819999975, -47.751220702999944 ], [ -65.906677245999958, -47.755615233999947 ], [ -65.903320312999938, -47.755676269999981 ], [ -65.900695800999983, -47.757080077999944 ], [ -65.899597167999957, -47.758728026999961 ], [ -65.896933542999932, -47.757492160999959 ], [ -65.892019955999956, -47.757301803999951 ], [ -65.884741184999939, -47.75539585599995 ], [ -65.883541935999972, -47.755809881999937 ], [ -65.878188148999982, -47.752683269999977 ], [ -65.877231605999953, -47.752840314999958 ], [ -65.87701745399994, -47.751712449999957 ], [ -65.871463791999986, -47.753040188999933 ], [ -65.866838119999954, -47.751840940999955 ], [ -65.862983392999979, -47.752040815999976 ], [ -65.861641376999955, -47.751069995999956 ], [ -65.855930670999953, -47.751398360999985 ], [ -65.851904622999939, -47.749513827999976 ], [ -65.851804684999934, -47.748785712999961 ], [ -65.853118147999965, -47.74798621399998 ], [ -65.851890345999948, -47.746415769999942 ], [ -65.847278950999964, -47.746858349999968 ], [ -65.846836370999938, -47.745644824999943 ], [ -65.844680578999942, -47.745459226999969 ], [ -65.845494354999971, -47.744930985999986 ], [ -65.843352839999966, -47.743360541999948 ], [ -65.84086868299994, -47.74341764899998 ], [ -65.840897235999932, -47.744131486999947 ], [ -65.842439126999977, -47.744274254999937 ], [ -65.842125037999949, -47.745259351999948 ], [ -65.841025726999987, -47.74543067299993 ], [ -65.842096483999967, -47.747043947999941 ], [ -65.838641506999977, -47.746815518999938 ], [ -65.839398175999975, -47.745245074999957 ], [ -65.83882710499995, -47.741890034999983 ], [ -65.839569496999957, -47.741575945999955 ], [ -65.842367742999954, -47.742903685999977 ], [ -65.845137435999959, -47.740833553999948 ], [ -65.845722782999985, -47.737764049999953 ], [ -65.844894730999954, -47.734623160999945 ], [ -65.840397548999988, -47.726242699999943 ], [ -65.832374006999942, -47.714164554999968 ], [ -65.821723538999947, -47.691021917999933 ], [ -65.820281585999965, -47.688580590999948 ], [ -65.818839632999982, -47.688052349999964 ], [ -65.817697490999933, -47.68354089199994 ], [ -65.812172382999961, -47.673532878999936 ], [ -65.803377894999983, -47.66161177999993 ], [ -65.795539949999977, -47.646292809999977 ], [ -65.79401233599998, -47.641338771999983 ], [ -65.793027239999958, -47.641010405999964 ], [ -65.792698873999939, -47.63795517799997 ], [ -65.784304135999946, -47.616368707999982 ], [ -65.780006828999944, -47.60229181699998 ], [ -65.774281845999951, -47.591584241999954 ], [ -65.766872203999981, -47.582489941999938 ], [ -65.762703388999967, -47.570854377999979 ], [ -65.758748723999986, -47.562416808999956 ], [ -65.756207459999985, -47.554007793999972 ], [ -65.755079594999984, -47.545670162999954 ], [ -65.749697254999944, -47.527610053999979 ], [ -65.74697039199998, -47.521085571999947 ], [ -65.739803455999947, -47.510235228999932 ], [ -65.738575653999987, -47.499856020999971 ], [ -65.738390055999957, -47.477141685999982 ], [ -65.731537207999963, -47.453313762999983 ], [ -65.729095880999978, -47.431969997999943 ], [ -65.726426125999978, -47.419377889999964 ], [ -65.725398198999983, -47.399518908999937 ], [ -65.726069206999966, -47.382201191999968 ], [ -65.725098386999946, -47.375334066999983 ], [ -65.721100891999981, -47.364383787999941 ], [ -65.720344223999973, -47.352077214999952 ], [ -65.718459690999964, -47.345681223999975 ], [ -65.717845789999956, -47.332161126999949 ], [ -65.718445413999973, -47.328277845999935 ], [ -65.723313790999953, -47.317170521999969 ], [ -65.725897885999984, -47.306205965999936 ], [ -65.73019519199994, -47.29524140999996 ], [ -65.734706649999964, -47.278194950999932 ], [ -65.736919548999936, -47.273497894999934 ], [ -65.743072834999964, -47.264160889999971 ], [ -65.745414224999934, -47.254909545999965 ], [ -65.745828250999978, -47.247742608999943 ], [ -65.750068450999947, -47.242745740999965 ], [ -65.754594184999974, -47.234536600999945 ], [ -65.756578655999988, -47.229910927999981 ], [ -65.757720796999934, -47.222058706999974 ], [ -65.757206833999987, -47.218889264999973 ], [ -65.755279469999948, -47.214620511999954 ], [ -65.752424116999975, -47.211208364999948 ], [ -65.748583666999934, -47.208538609999948 ], [ -65.743129941999939, -47.20743929899993 ], [ -65.741745095999988, -47.208081752999931 ], [ -65.741045533999966, -47.211108426999942 ], [ -65.73719080799998, -47.211722327999951 ], [ -65.736120049999954, -47.210180437999952 ], [ -65.736762504999945, -47.208952635999935 ], [ -65.736191433999977, -47.208181689999947 ], [ -65.738404332999949, -47.205554764999931 ], [ -65.736890995999943, -47.202228278999939 ], [ -65.735563255999978, -47.201971296999943 ], [ -65.738175904999935, -47.201200351999944 ], [ -65.741602327999942, -47.202099787999941 ], [ -65.746056678999935, -47.200843432999932 ], [ -65.755108148999966, -47.196617509999953 ], [ -65.767271953999966, -47.189536233999945 ], [ -65.797338822999961, -47.169534484999986 ], [ -65.809274198999958, -47.157356402999937 ], [ -65.831560230999969, -47.146705935999933 ], [ -65.841625350999948, -47.139381954999976 ], [ -65.847892850999983, -47.132043696999972 ], [ -65.852133050999953, -47.121564550999949 ], [ -65.85254707699994, -47.115311326999972 ], [ -65.851833238999973, -47.113141258999974 ], [ -65.850948078999977, -47.11212760899997 ], [ -65.848435368999958, -47.113626668999984 ], [ -65.84737888799998, -47.113341133999938 ], [ -65.846679325999958, -47.109129487999951 ], [ -65.850548329999981, -47.106773820999933 ], [ -65.853417959999945, -47.106202750999955 ], [ -65.861798421999936, -47.10614564399998 ], [ -65.863354588999982, -47.10688803499994 ], [ -65.864753711999981, -47.106331241999953 ], [ -65.864682327999958, -47.104175449999957 ], [ -65.866566860999967, -47.101305819999936 ], [ -65.867294976999972, -47.101291542999945 ], [ -65.867309252999974, -47.100177954999936 ], [ -65.869322276999981, -47.101006007999956 ], [ -65.868922527999985, -47.09900726099994 ], [ -65.87025026699996, -47.09855040399998 ], [ -65.866209941999955, -47.097179834999963 ], [ -65.864125533999982, -47.097551029999977 ], [ -65.867637618999936, -47.094081775999939 ], [ -65.86738063699994, -47.092097305999971 ], [ -65.872705870999937, -47.091626172999952 ], [ -65.875047259999974, -47.092711206999979 ], [ -65.87560405399995, -47.094338757999935 ], [ -65.879073308999978, -47.095495175999986 ], [ -65.883013695999978, -47.096009139999978 ], [ -65.883641873999977, -47.095038319999958 ], [ -65.889837989999933, -47.096109076999937 ], [ -65.891465540999945, -47.09729404899997 ], [ -65.894592152999962, -47.097308324999972 ], [ -65.903015444999937, -47.095466622999936 ], [ -65.921018446999938, -47.089113461999943 ], [ -65.923930906999942, -47.08624383199998 ], [ -65.925487074999978, -47.086486536999985 ], [ -65.928356704999942, -47.085258734999968 ], [ -65.930969352999966, -47.085701314999937 ], [ -65.934895463999965, -47.083973825999976 ], [ -65.936765719999983, -47.081775203999939 ], [ -65.935038230999965, -47.080675892999977 ], [ -65.936123265999981, -47.077834816999939 ], [ -65.940763214999947, -47.078048967999962 ], [ -65.940506232999951, -47.076992486999984 ], [ -65.936879933999933, -47.075008016999959 ], [ -65.93845037799997, -47.07472248199997 ], [ -65.940691830999981, -47.072181216999979 ], [ -65.942305104999946, -47.073251974999948 ], [ -65.943404415999964, -47.072652349999942 ], [ -65.945488823999938, -47.073080652999977 ], [ -65.945246118999933, -47.072224046999963 ], [ -65.946773732999986, -47.072024172999932 ], [ -65.94744474099997, -47.073166313999934 ], [ -65.944675047999965, -47.076007389999972 ], [ -65.946930776999977, -47.077106700999934 ], [ -65.952184626999951, -47.077649218999966 ], [ -65.959773798999947, -47.076266156999964 ], [ -65.960951631999933, -47.073446495999974 ], [ -65.962950379999938, -47.072232969999959 ], [ -65.964699283999948, -47.072411429999931 ], [ -65.967768787999944, -47.074695712999983 ], [ -65.972908423999968, -47.073589262999974 ], [ -65.974229024999943, -47.072161586999982 ], [ -65.972944115999951, -47.069877303999931 ], [ -65.975049938999973, -47.069092081999941 ], [ -65.97847636299997, -47.069770227999982 ], [ -65.984829523999963, -47.074267409999948 ], [ -65.986899654999945, -47.074909863999949 ], [ -65.993716810999956, -47.07369633899998 ], [ -65.996929082999941, -47.071626207999941 ], [ -66.00435300099997, -47.071804666999981 ], [ -66.007779424999967, -47.073089575999973 ], [ -66.015810105999947, -47.073732030999963 ], [ -66.029837028999964, -47.073018192999939 ], [ -66.040080607999982, -47.071376364999935 ], [ -66.048539591999941, -47.072911116999933 ], [ -66.062744973999941, -47.073268035999945 ], [ -66.075308527999937, -47.075195398999938 ], [ -66.087408087999961, -47.080941797999969 ], [ -66.102184539999939, -47.08533190299994 ], [ -66.110714907999977, -47.085260518999974 ], [ -66.122707391999938, -47.082690701999979 ], [ -66.143658545999983, -47.083690074999936 ], [ -66.157257164999976, -47.081370100999948 ], [ -66.16328909899994, -47.082191014999978 ], [ -66.182277197999952, -47.087152190999973 ], [ -66.197696104999977, -47.087402033999979 ], [ -66.215684829999987, -47.084903599999961 ], [ -66.240383635999933, -47.079192893999959 ], [ -66.263212184999986, -47.078274421999936 ], [ -66.280301473999941, -47.075005042999976 ], [ -66.295634719999953, -47.070978994999962 ], [ -66.301174104999973, -47.073334660999933 ], [ -66.305685563999987, -47.073648749999961 ], [ -66.335195638999949, -47.069537040999933 ], [ -66.344718241999942, -47.06965125499994 ], [ -66.355211664999956, -47.068180747999975 ], [ -66.364562946999968, -47.065682313999957 ], [ -66.38243745799997, -47.06352652299995 ], [ -66.404081034999933, -47.057516003999979 ], [ -66.415973580999946, -47.057544557999961 ], [ -66.419753354999955, -47.055209116999947 ], [ -66.423907893999967, -47.054152635999969 ], [ -66.42773406699996, -47.05352445799997 ], [ -66.431731561999982, -47.054152635999969 ], [ -66.433302005999963, -47.051425773999938 ], [ -66.437285223999936, -47.051854076999973 ], [ -66.43832742799998, -47.050483506999967 ], [ -66.441225610999936, -47.049940989999982 ], [ -66.442239260999941, -47.048698910999974 ], [ -66.446693611999933, -47.047314064999966 ], [ -66.450619722999988, -47.047428278999973 ], [ -66.455773635999947, -47.045358147999934 ], [ -66.458500497999978, -47.045615129999931 ], [ -66.460542075999967, -47.047199850999959 ], [ -66.462041135999982, -47.046443181999962 ], [ -66.461912644999984, -47.044958398999938 ], [ -66.466666807999957, -47.045914941999968 ], [ -66.468322912999952, -47.044630032999976 ], [ -66.469921910999972, -47.044758523999974 ], [ -66.469407946999979, -47.044016131999967 ], [ -66.470335936999959, -47.043844810999985 ], [ -66.470907007999983, -47.041888893999953 ], [ -66.471820720999972, -47.042103044999976 ], [ -66.472491728999955, -47.044030408999959 ], [ -66.473491101999969, -47.044544371999962 ], [ -66.477845515999945, -47.043016758999954 ], [ -66.47904476399998, -47.040975180999965 ], [ -66.481514644999947, -47.042374303999964 ], [ -66.484155846999954, -47.040603984999962 ], [ -66.48990938299994, -47.040432663999979 ], [ -66.492108004999977, -47.041232162999961 ], [ -66.496533802999977, -47.040718198999969 ], [ -66.497775880999939, -47.038276871999983 ], [ -66.506384770999944, -47.038448192999965 ], [ -66.512752208999984, -47.037677247999966 ], [ -66.515907373999937, -47.038191211999958 ], [ -66.516935300999933, -47.037620140999934 ], [ -66.51850574599996, -47.038176934999967 ], [ -66.518263040999955, -47.039290522999977 ], [ -66.520918518999963, -47.040603984999962 ], [ -66.52814256299996, -47.040618261999953 ], [ -66.529413194999961, -47.039062093999974 ], [ -66.535023963999947, -47.039504673999943 ], [ -66.537351076999983, -47.041203608999979 ], [ -66.539335546999951, -47.044415881999953 ], [ -66.547316258999956, -47.046671610999965 ], [ -66.550528531999987, -47.046000602999982 ], [ -66.552627215999962, -47.046999975999938 ], [ -66.555425462999949, -47.04627186099998 ], [ -66.558837609999955, -47.048798848999979 ], [ -66.566047376999961, -47.046200476999957 ], [ -66.567503606999935, -47.044729969999935 ], [ -66.568017569999938, -47.042731222999976 ], [ -66.570444619999932, -47.043330846999936 ], [ -66.572000787999968, -47.042131598999958 ], [ -66.574613435999936, -47.044872737999981 ], [ -66.579624580999962, -47.044801353999958 ], [ -66.584193145999961, -47.043045311999947 ], [ -66.583750565999935, -47.041631911999957 ], [ -66.585992018999946, -47.04103228799994 ], [ -66.587862274999964, -47.039219138999954 ], [ -66.594914996999933, -47.038076996999962 ], [ -66.596870913999965, -47.039547503999984 ], [ -66.598284313999955, -47.038876495999943 ], [ -66.598427081999944, -47.036977685999943 ], [ -66.60262445099994, -47.039704548999964 ], [ -66.60596521399998, -47.038847942999951 ], [ -66.610319627999957, -47.04277405299996 ], [ -66.616115994999973, -47.045229656999936 ], [ -66.625895579999963, -47.04627186099998 ], [ -66.630506974999946, -47.045786450999969 ], [ -66.647382112999935, -47.040347002999965 ], [ -66.652007784999967, -47.037149007999972 ], [ -66.656233707999945, -47.031952264999973 ], [ -66.659160444999941, -47.030153391999932 ], [ -66.674108218999947, -47.029967793999958 ], [ -66.682274528999983, -47.033122959999957 ], [ -66.688641965999977, -47.034050948999948 ], [ -66.701219796999965, -47.03456491299994 ], [ -66.710099945999957, -47.033094405999975 ], [ -66.743136381999932, -47.02240110799994 ], [ -66.757527362999951, -47.016761785999961 ], [ -66.776729612999986, -47.00771031599993 ], [ -66.791934368999932, -46.999144255999965 ], [ -66.794547016999957, -46.99700274199995 ], [ -66.796374442999934, -46.993776191999984 ], [ -66.807196231999967, -46.983682518999956 ], [ -66.81369215999996, -46.978714203999971 ], [ -66.822914950999973, -46.973931487999948 ], [ -66.828183077999938, -46.969034556999986 ], [ -66.842217138999956, -46.960125854999944 ], [ -66.856579564999947, -46.946848461999934 ], [ -66.857264849999979, -46.944564179999986 ], [ -66.855451700999936, -46.942608262999954 ], [ -66.854809245999945, -46.937896929999965 ], [ -66.855580191999934, -46.935484156999962 ], [ -66.857293403999961, -46.935384218999957 ], [ -66.858863847999942, -46.93278584799998 ], [ -66.862647190999951, -46.932357544999945 ], [ -66.865573927999947, -46.933885158999942 ], [ -66.867943870999966, -46.934042202999933 ], [ -66.872012748999964, -46.933742390999953 ], [ -66.87748075099995, -46.931572322999955 ], [ -66.882349127999987, -46.928103068999974 ], [ -66.890586821999932, -46.916124861999947 ], [ -66.89940986299996, -46.912013152999975 ], [ -66.911645051999983, -46.895709086999943 ], [ -66.922395456999936, -46.887000258999933 ], [ -66.924979550999979, -46.879876152999941 ], [ -66.931189944999971, -46.874879284999963 ], [ -66.934288002999949, -46.874665132999951 ], [ -66.936372410999979, -46.872623555999951 ], [ -66.936986311999988, -46.870853236999949 ], [ -66.938927951999972, -46.870110844999942 ], [ -66.938813737999965, -46.867640964999964 ], [ -66.936315303999947, -46.864657119999947 ], [ -66.938185559999965, -46.860345536999944 ], [ -66.942625633999967, -46.858204021999939 ], [ -66.946080611999946, -46.857704334999937 ], [ -66.946323316999951, -46.855505712999957 ], [ -66.950706283999978, -46.850423184999954 ], [ -66.953147610999963, -46.849595131999934 ], [ -66.950920434999944, -46.846982483999966 ], [ -66.953204717999938, -46.847282295999946 ], [ -66.954660947999969, -46.84892412399995 ], [ -66.956131454999934, -46.849181105999946 ], [ -66.956445543999962, -46.848638588999961 ], [ -66.953832895999938, -46.845440592999978 ], [ -66.956102900999952, -46.84624009199996 ], [ -66.960243163999962, -46.845997386999954 ], [ -66.963155623999967, -46.84706814499998 ], [ -66.963198453999951, -46.848838463999982 ], [ -66.966539216999934, -46.850865763999934 ], [ -66.973549108999975, -46.849066891999939 ], [ -66.982457810999961, -46.84357033699996 ], [ -66.986441028999934, -46.839115985999968 ], [ -66.986184046999938, -46.836788872999932 ], [ -66.984142469999938, -46.835718115999953 ], [ -66.982700515999966, -46.832034709999959 ], [ -66.983599952999953, -46.829821810999931 ], [ -66.984941968999976, -46.828808160999984 ], [ -67.001345972999957, -46.824953433999951 ], [ -67.002088364999963, -46.822954686999935 ], [ -67.000475089999952, -46.819385494999949 ], [ -67.002159748999986, -46.817515238999931 ], [ -67.007099509999932, -46.817615175999947 ], [ -67.008412971999974, -46.816730016999941 ], [ -67.011582413999975, -46.816730016999941 ], [ -67.009954862999962, -46.817772220999984 ], [ -67.011582413999975, -46.818157692999932 ], [ -67.016279469999972, -46.815859133999936 ], [ -67.022361372999967, -46.814559947999953 ], [ -67.025102511999933, -46.81530233999996 ], [ -67.027472454999952, -46.81485976099998 ], [ -67.048287979999941, -46.796428455999944 ], [ -67.049458673999936, -46.793630208999957 ], [ -67.053755980999938, -46.787990886999978 ], [ -67.066048276999936, -46.781023824999977 ], [ -67.075613709999971, -46.774028209999983 ], [ -67.08315184199995, -46.766989763999959 ], [ -67.085793043999956, -46.76160742299993 ], [ -67.085122035999973, -46.759937041999933 ], [ -67.082323789999975, -46.759251756999959 ], [ -67.082052530999988, -46.75673904599995 ], [ -67.085764489999974, -46.754768851999984 ], [ -67.079097240999943, -46.755482690999941 ], [ -67.079382775999989, -46.753541049999967 ], [ -67.081909763999988, -46.75294142599995 ], [ -67.081766995999942, -46.750243116999968 ], [ -67.087092229999939, -46.750857017999977 ], [ -67.09216048199994, -46.750143179999952 ], [ -67.096586278999951, -46.751014062999957 ], [ -67.099769997999942, -46.748587012999963 ], [ -67.098256660999937, -46.745217695999941 ], [ -67.099769997999942, -46.74491788399996 ], [ -67.100212577999969, -46.74286202899998 ], [ -67.102839502999984, -46.740320764999979 ], [ -67.103496233999977, -46.73810786599995 ], [ -67.100012702999948, -46.740506362999952 ], [ -67.099141819999943, -46.737294090999967 ], [ -67.099812827999983, -46.736080565999941 ], [ -67.098941945999968, -46.73558087899994 ], [ -67.098071062999963, -46.736565975999952 ], [ -67.097956848999956, -46.738621829999943 ], [ -67.096029484999974, -46.739150069999937 ], [ -67.094744575999982, -46.736808680999957 ], [ -67.095544074999964, -46.735024084999964 ], [ -67.097856910999951, -46.733953326999938 ], [ -67.100041256999987, -46.73368206899994 ], [ -67.100697987999979, -46.734367353999971 ], [ -67.101611700999968, -46.733467916999984 ], [ -67.103553340999952, -46.733453640999983 ], [ -67.11000643899996, -46.735066914999948 ], [ -67.109235493999961, -46.733753452999963 ], [ -67.112490596999976, -46.731740428999956 ], [ -67.114332298999955, -46.731911749999938 ], [ -67.114817708999965, -46.732925399999942 ], [ -67.117101991999959, -46.731840365999972 ], [ -67.125154087999988, -46.723217198999976 ], [ -67.125125533999949, -46.722075057999973 ], [ -67.122926911999969, -46.721418326999981 ], [ -67.120985271999984, -46.71772064399994 ], [ -67.121142316999965, -46.715707619999932 ], [ -67.117087714999968, -46.713666042999932 ], [ -67.118244132999962, -46.710639367999931 ], [ -67.119943067999941, -46.710296725999967 ], [ -67.121627726999975, -46.707441372999938 ], [ -67.125661983999976, -46.707324283999981 ], [ -67.12853161399994, -46.704725911999958 ], [ -67.131115708999971, -46.705254151999952 ], [ -67.133485651999933, -46.70760981899997 ], [ -67.135812764999969, -46.705125661999944 ], [ -67.145563795999976, -46.703498109999941 ], [ -67.148804621999943, -46.702241754999932 ], [ -67.149375691999978, -46.701684960999955 ], [ -67.148190720999935, -46.69972904399998 ], [ -67.149561289999951, -46.69905803599994 ], [ -67.148090782999986, -46.697787403999939 ], [ -67.150118083999985, -46.698044385999935 ], [ -67.152345259999947, -46.69667381599993 ], [ -67.154986460999964, -46.697173502999931 ], [ -67.156485521999969, -46.696645262999937 ], [ -67.15460098899996, -46.696316896999974 ], [ -67.154158408999933, -46.695174755999972 ], [ -67.152687901999968, -46.694432363999965 ], [ -67.148704683999938, -46.693518650999977 ], [ -67.150503556999979, -46.691434242999946 ], [ -67.152245321999942, -46.691705501999934 ], [ -67.152188214999967, -46.690934555999945 ], [ -67.156271369999956, -46.68786505099996 ], [ -67.159198106999952, -46.687165489999984 ], [ -67.161025532999986, -46.688478951999969 ], [ -67.165337116999979, -46.686822847999963 ], [ -67.16423780599996, -46.688464675999967 ], [ -67.166093784999987, -46.687979265999957 ], [ -67.165122964999966, -46.69039203899996 ], [ -67.166079508999985, -46.69020644099993 ], [ -67.168306683999958, -46.692333678999944 ], [ -67.169648699999982, -46.692005313999971 ], [ -67.170233690999964, -46.689828939999984 ], [ -67.172553664999953, -46.68685461299998 ], [ -67.174546463999945, -46.686081287999968 ], [ -67.178532060999942, -46.686111031999985 ], [ -67.180643831999987, -46.685099760999947 ], [ -67.184421226999973, -46.688252546999934 ], [ -67.186622227999976, -46.685813598999971 ], [ -67.187336066999933, -46.682839272999956 ], [ -67.190637568999932, -46.681590055999948 ], [ -67.191410893999944, -46.683850543999938 ], [ -67.189953473999935, -46.686973585999965 ], [ -67.190845771999932, -46.686824869999953 ], [ -67.194444705999956, -46.682750042999942 ], [ -67.194266246999973, -46.67906187899996 ], [ -67.198460046999969, -46.677188052999952 ], [ -67.198251843999969, -46.67617678199997 ], [ -67.200631304999945, -46.673618860999966 ], [ -67.204468185999986, -46.674094753999952 ], [ -67.205182023999953, -46.673470144999953 ], [ -67.204640696999945, -46.67264923099998 ], [ -67.205497302999959, -46.672149543999979 ], [ -67.21444407599995, -46.671150170999965 ], [ -67.218798489999983, -46.673267890999966 ], [ -67.220583084999987, -46.677098822999938 ], [ -67.230524473999935, -46.674005523999938 ], [ -67.237949690999983, -46.667931858999964 ], [ -67.247229588999971, -46.654273752999984 ], [ -67.249693410999953, -46.649278164999942 ], [ -67.254463149999935, -46.646231173999979 ], [ -67.262267781999981, -46.64337582099995 ], [ -67.276639726999974, -46.641948144999958 ], [ -67.283919578999985, -46.637951930999975 ], [ -67.296198895999964, -46.634714582999948 ], [ -67.303575224999975, -46.63400074499998 ], [ -67.31463247399995, -46.63120577199993 ], [ -67.328234659999964, -46.629214549999972 ], [ -67.355322443999967, -46.618840099999943 ], [ -67.367048427999976, -46.610635717999969 ], [ -67.378679233999947, -46.60553415399994 ], [ -67.393184427999984, -46.595102596999936 ], [ -67.400113417999933, -46.587621571999932 ], [ -67.404624875999957, -46.578827083999954 ], [ -67.420882652999978, -46.568137263999972 ], [ -67.429180913999971, -46.560724143999948 ], [ -67.440278719999981, -46.548541303999968 ], [ -67.445437391999974, -46.54109834999997 ], [ -67.455126556999971, -46.523966230999974 ], [ -67.461122798999952, -46.517722524999954 ], [ -67.462055546999977, -46.513268173999961 ], [ -67.466395683999963, -46.505197041999963 ], [ -67.476770133999935, -46.491929167999956 ], [ -67.482157233999942, -46.488102993999973 ], [ -67.483394553999972, -46.486180389999959 ], [ -67.483680088999961, -46.481992538999975 ], [ -67.486801941999943, -46.477519151999957 ], [ -67.492322290999937, -46.472874443999956 ], [ -67.492112898999949, -46.472303372999932 ], [ -67.49393080699997, -46.471894105999979 ], [ -67.494382903999963, -46.471127919999958 ], [ -67.492959986999949, -46.464146580999966 ], [ -67.494611332999966, -46.460244264999972 ], [ -67.507969626999966, -46.442907511999977 ], [ -67.513746957999956, -46.43822473299997 ], [ -67.514315648999968, -46.436839886999962 ], [ -67.513587533999953, -46.43506956799996 ], [ -67.515472066999962, -46.43034395799998 ], [ -67.527650148999953, -46.414482470999985 ], [ -67.53787231299998, -46.397992805999934 ], [ -67.541926914999976, -46.394823363999933 ], [ -67.542740690999949, -46.389255424999931 ], [ -67.56736811199994, -46.349066328999982 ], [ -67.568310377999978, -46.34585405699994 ], [ -67.571865292999973, -46.340414608999936 ], [ -67.572336425999936, -46.337959004999959 ], [ -67.577147696999987, -46.329535712999984 ], [ -67.590453642999933, -46.298269594999965 ], [ -67.592809308999961, -46.295157259999939 ], [ -67.592966352999952, -46.291588068999943 ], [ -67.598477184999979, -46.278424890999986 ], [ -67.613667663999934, -46.231440053999961 ], [ -67.622033848999934, -46.196362038999951 ], [ -67.627716001999943, -46.158128859999977 ], [ -67.628643991999979, -46.125306574999968 ], [ -67.627601787999936, -46.112557422999942 ], [ -67.626730904999988, -46.109602131999964 ], [ -67.627373359999979, -46.105818788999954 ], [ -67.626074173999939, -46.100836197999968 ], [ -67.627159207999966, -46.094882785999971 ], [ -67.627244868999981, -46.083632694999949 ], [ -67.624974862999977, -46.077379470999972 ], [ -67.625360335999972, -46.07463833199995 ], [ -67.624703603999933, -46.072511093999935 ], [ -67.620820323999965, -46.070683667999958 ], [ -67.614938295999934, -46.065743906999955 ], [ -67.619343856999933, -46.065036899999939 ], [ -67.623802559999945, -46.060819048999974 ], [ -67.624501618999943, -46.056795054999952 ], [ -67.623050631999945, -46.052072001999932 ], [ -67.624260766999953, -46.051449310999942 ], [ -67.624019914999963, -46.048741192999955 ], [ -67.618274708999934, -46.046056571999941 ], [ -67.608799230999978, -46.044206121999935 ], [ -67.60856425299994, -46.044911054999943 ], [ -67.606707928999981, -46.045040292999943 ], [ -67.602930660999959, -46.043324955999935 ], [ -67.600768865999953, -46.040129257999979 ], [ -67.601661781999951, -46.035206473999949 ], [ -67.600181421999935, -46.03414319999996 ], [ -67.599917071999982, -46.032363242999963 ], [ -67.596844737999959, -46.027740055999971 ], [ -67.597297069999968, -46.025689874999955 ], [ -67.593807649999974, -46.02362794499993 ], [ -67.585965267999939, -46.02227682299997 ], [ -67.590935046999959, -46.020397000999935 ], [ -67.593384689999937, -46.018382066999948 ], [ -67.593537425999955, -46.014199462999954 ], [ -67.592850115999966, -46.012619237999957 ], [ -67.594254107999973, -46.009899369999971 ], [ -67.59569251645668, -46.0 ], [ -65.405593446547584, -46.0 ], [ -65.565786799999955, -47.003320912999982 ], [ -65.571625848999986, -47.025746577999939 ], [ -65.570727533999957, -47.035881096999958 ], [ -65.54782049399995, -47.047548749999976 ], [ -65.515930300999969, -47.068421300999944 ], [ -65.489879157999951, -47.092966716999968 ], [ -65.482243477999987, -47.101861620999955 ], [ -65.475056955999946, -47.110755028999961 ], [ -65.462929699999961, -47.129150437999954 ], [ -65.457988965999959, -47.138652225999977 ], [ -65.453946546999987, -47.14815230499994 ], [ -65.448107496999967, -47.167759966999938 ], [ -65.446310866999966, -47.177867323999976 ], [ -65.445412551999937, -47.191340787999934 ], [ -65.444065078999984, -47.196851667999965 ], [ -65.443166762999965, -47.206953451999937 ], [ -65.444065078999984, -47.227457181999966 ], [ -65.446310866999966, -47.240306198999974 ], [ -65.438226028999964, -47.265383339999971 ], [ -65.43418361099998, -47.274860609999962 ], [ -65.42834456099996, -47.294421185999965 ], [ -65.426098772999978, -47.30480978199995 ], [ -65.424302141999988, -47.324359214999959 ], [ -65.424302141999988, -47.350006802999985 ], [ -65.425200457999949, -47.36007921199996 ], [ -65.427446245999988, -47.368929124999966 ], [ -65.42834456099996, -47.386014385999943 ], [ -65.430141191999951, -47.396079877999966 ], [ -65.430141191999951, -47.406753286999958 ], [ -65.431488664999961, -47.416205059999982 ], [ -65.432386979999933, -47.435103485999946 ], [ -65.436429398999962, -47.453995085999964 ], [ -65.437327713999935, -47.468311588999939 ], [ -65.441370132999964, -47.485973355999931 ], [ -65.444065078999984, -47.502107333999959 ], [ -65.444065078999984, -47.515497790999973 ], [ -65.449005812999985, -47.545917865999968 ], [ -65.456192334999969, -47.565377397999953 ], [ -65.462929699999961, -47.578751607999948 ], [ -65.466073802999972, -47.595768359999965 ], [ -65.473260324999956, -47.615209261999951 ], [ -65.478201058999957, -47.624623335999956 ], [ -65.479997689999948, -47.631303255999967 ], [ -65.484040108999977, -47.641321526999945 ], [ -65.493921576999981, -47.660441949999949 ], [ -65.498862310999982, -47.667724067999984 ], [ -65.503803044999984, -47.679251997999984 ], [ -65.502006414999983, -47.687138052999956 ], [ -65.499760625999954, -47.707454281999958 ], [ -65.499760625999954, -47.717457855999953 ], [ -65.502904729999955, -47.737459207999962 ], [ -65.505150517999937, -47.747759917999986 ], [ -65.508743778999985, -47.75896718599995 ], [ -65.502904729999955, -47.762298607999981 ], [ -65.482243477999987, -47.77713597099995 ], [ -65.464277172999971, -47.792574417999958 ], [ -65.448107496999967, -47.810126260999937 ], [ -65.43418361099998, -47.828277062999973 ], [ -65.429242875999932, -47.836745251999957 ], [ -65.419361407999986, -47.856398188999947 ], [ -65.411276570999974, -47.885712486999978 ], [ -65.409479939999983, -47.905950766999979 ], [ -65.409479939999983, -47.915915948999952 ], [ -65.410378255999944, -47.925879201999976 ], [ -65.414420673999985, -47.946101684999974 ], [ -65.417115619999947, -47.956059087999961 ], [ -65.426098772999978, -47.975364913999954 ], [ -65.431488664999961, -47.984713563999946 ], [ -65.442044388498999, -48.0 ], [ -65.93568517346192, -48.0 ] ], [ [ -66.169456481999987, -47.818874358999949 ], [ -66.16323852499994, -47.817543029999968 ], [ -66.162078856999983, -47.816642760999969 ], [ -66.168037414999958, -47.814613341999973 ], [ -66.172134398999958, -47.815788268999938 ], [ -66.177009582999972, -47.818504332999964 ], [ -66.17226409899996, -47.819660186999954 ], [ -66.169456481999987, -47.818874358999949 ] ], [ [ -66.155265807999967, -47.815341948999958 ], [ -66.151168822999978, -47.814559936999956 ], [ -66.144248961999949, -47.810462951999966 ], [ -66.145713805999947, -47.809551238999973 ], [ -66.150566100999981, -47.809192656999983 ], [ -66.160301207999964, -47.813354491999974 ], [ -66.159721374999947, -47.815650939999955 ], [ -66.15737914999994, -47.816287993999936 ], [ -66.155265807999967, -47.815341948999958 ] ], [ [ -66.065216063999969, -47.781593322999981 ], [ -66.064773559999935, -47.777431487999934 ], [ -66.065872191999972, -47.776245116999974 ], [ -66.069671630999949, -47.778995513999973 ], [ -66.077690124999947, -47.780986785999971 ], [ -66.080062865999935, -47.782878875999984 ], [ -66.073257445999957, -47.783740996999938 ], [ -66.07248687699996, -47.78342437699996 ], [ -66.072898864999956, -47.782333373999961 ], [ -66.072044372999983, -47.78166198699995 ], [ -66.069366454999965, -47.782867431999932 ], [ -66.065216063999969, -47.781593322999981 ] ], [ [ -65.934265136999954, -47.762157439999953 ], [ -65.933799743999941, -47.760986327999944 ], [ -65.934432982999965, -47.759941100999981 ], [ -65.940902709999932, -47.758121489999951 ], [ -65.94622039799998, -47.758964538999976 ], [ -65.947723388999975, -47.759956359999933 ], [ -65.94608306899994, -47.762004851999961 ], [ -65.939880370999958, -47.763267516999974 ], [ -65.938545226999963, -47.765872954999963 ], [ -65.936714171999938, -47.765628814999957 ], [ -65.934265136999954, -47.762157439999953 ] ], [ [ -65.990211486999954, -47.761676787999932 ], [ -65.991813659999934, -47.760204314999953 ], [ -66.000091552999947, -47.761123656999985 ], [ -66.000198363999971, -47.761714934999986 ], [ -66.005592345999958, -47.761196135999967 ], [ -66.009994506999988, -47.763050078999981 ], [ -66.014175414999954, -47.763122558999953 ], [ -66.015937804999965, -47.76609420799997 ], [ -66.019020080999951, -47.767204284999934 ], [ -66.020561217999955, -47.766464232999965 ], [ -66.028373717999955, -47.766391753999983 ], [ -66.033103942999958, -47.767646789999958 ], [ -66.038940429999968, -47.767570495999962 ], [ -66.039604186999952, -47.768314361999956 ], [ -66.038940429999968, -47.769798278999986 ], [ -66.045547484999986, -47.771282195999959 ], [ -66.052009582999972, -47.776733397999976 ], [ -66.050949096999943, -47.782936095999958 ], [ -66.053047179999965, -47.785682677999944 ], [ -66.054809569999975, -47.78642272899998 ], [ -66.051841735999972, -47.787975310999968 ], [ -66.046440124999947, -47.788204192999956 ], [ -66.045562743999938, -47.786201476999963 ], [ -66.04159545899995, -47.786052703999985 ], [ -66.039726256999984, -47.784126281999932 ], [ -66.036857604999966, -47.782863616999975 ], [ -66.036636352999949, -47.781600951999962 ], [ -66.027717589999952, -47.777969359999986 ], [ -66.027259826999966, -47.776985167999953 ], [ -66.030471801999965, -47.776855468999941 ], [ -66.030143737999936, -47.775814055999945 ], [ -66.022102355999948, -47.77225494399994 ], [ -66.022323607999965, -47.773590087999935 ], [ -66.012969970999961, -47.772701262999931 ], [ -66.008346557999971, -47.773811339999952 ], [ -66.007133483999951, -47.773368834999985 ], [ -66.007797240999935, -47.772327422999979 ], [ -66.004936217999955, -47.769508361999954 ], [ -66.006034850999981, -47.767650603999982 ], [ -66.004379271999937, -47.766986846999941 ], [ -66.002731322999978, -47.768321990999937 ], [ -66.002624511999954, -47.769432067999958 ], [ -66.005706786999951, -47.771812438999973 ], [ -66.003059386999951, -47.772109984999986 ], [ -65.991943358999947, -47.764904021999939 ], [ -65.989959716999977, -47.76557540899995 ], [ -65.990211486999954, -47.761676787999932 ] ], [ [ -66.056800841999973, -47.774223327999948 ], [ -66.052932738999971, -47.77035903899997 ], [ -66.052459716999977, -47.768463134999934 ], [ -66.060073852999949, -47.773391723999964 ], [ -66.059143065999933, -47.775012969999977 ], [ -66.056800841999973, -47.774223327999948 ] ], [ [ -65.967636107999965, -47.752487182999971 ], [ -65.968894957999964, -47.751411437999934 ], [ -65.970298766999974, -47.753913878999981 ], [ -65.969947814999955, -47.755058288999976 ], [ -65.965072631999988, -47.75435256999998 ], [ -65.963714599999946, -47.753009795999958 ], [ -65.965408324999942, -47.751976012999933 ], [ -65.967636107999965, -47.752487182999971 ] ], [ [ -65.766006794999953, -47.950622247999945 ], [ -65.762931823999963, -47.953392028999986 ], [ -65.760810851999963, -47.953948974999946 ], [ -65.762557982999965, -47.951099395999961 ], [ -65.764050708999946, -47.952169712999932 ], [ -65.766006794999953, -47.950622247999945 ] ], [ [ -65.870071410999969, -47.959709166999971 ], [ -65.870033263999971, -47.958168029999968 ], [ -65.871963500999982, -47.959426879999967 ], [ -65.871475219999979, -47.959671020999963 ], [ -65.870071410999969, -47.959709166999971 ] ], [ [ -65.864532470999961, -47.96060943599997 ], [ -65.863227843999937, -47.959461211999951 ], [ -65.862213134999934, -47.956596374999947 ], [ -65.86421966599994, -47.957111358999953 ], [ -65.866287230999944, -47.958953856999983 ], [ -65.866035460999967, -47.960128783999949 ], [ -65.864532470999961, -47.96060943599997 ] ], [ [ -65.870124816999976, -47.956066131999933 ], [ -65.868164062999938, -47.954765319999979 ], [ -65.870971679999968, -47.954708098999959 ], [ -65.870124816999976, -47.956066131999933 ] ], [ [ -65.870658874999947, -47.950122832999966 ], [ -65.870399474999942, -47.948688506999986 ], [ -65.872512816999972, -47.948856353999986 ], [ -65.872268676999965, -47.950054168999941 ], [ -65.870658874999947, -47.950122832999966 ] ], [ [ -65.716804503999981, -47.905250548999959 ], [ -65.719291686999952, -47.906703948999962 ], [ -65.718994140999939, -47.909259795999958 ], [ -65.719558715999938, -47.909793853999986 ], [ -65.725883483999951, -47.911212920999958 ], [ -65.725845336999953, -47.911968230999946 ], [ -65.723114013999975, -47.91255569499998 ], [ -65.718841552999947, -47.915409087999933 ], [ -65.715515136999954, -47.913799285999971 ], [ -65.710693358999947, -47.914379119999978 ], [ -65.713867187999938, -47.910541533999947 ], [ -65.713363646999937, -47.907474517999958 ], [ -65.716804503999981, -47.905250548999959 ] ], [ [ -65.737037658999952, -47.91472244299996 ], [ -65.739273070999957, -47.915287017999958 ], [ -65.742202758999952, -47.920646666999971 ], [ -65.741661071999943, -47.921665191999978 ], [ -65.738250731999983, -47.918994903999931 ], [ -65.736137389999953, -47.91612625099998 ], [ -65.737037658999952, -47.91472244299996 ] ], [ [ -65.758880614999953, -47.912731170999962 ], [ -65.760810851999963, -47.913673400999983 ], [ -65.755577086999949, -47.914230346999943 ], [ -65.756118773999958, -47.913051604999964 ], [ -65.758880614999953, -47.912731170999962 ] ] ] } }
]
}
