{
"type": "FeatureCollection",
"name": "area_centolla_C4",
"crs": { "type": "name", "properties": { "name": "urn:ogc:def:crs:OGC:1.3:CRS84" } },
"features": [
{ "type": "Feature", "properties": { "FID": 0 }, "geometry": { "type": "MultiLineString", "coordinates": [ [ [ -67.59569251645668, -46.0 ], [ -67.592936125999984, -45.993109163999975 ], [ -67.592698179999957, -45.988052808999953 ], [ -67.58978333999994, -45.987101024999959 ], [ -67.585470566999959, -45.987160511999946 ], [ -67.587195675999965, -45.985941037999964 ], [ -67.58731464899995, -45.983145170999933 ], [ -67.586065431999941, -45.980795452999985 ], [ -67.582496240999944, -45.978118559999984 ], [ -67.572561990999986, -45.976571909999961 ], [ -67.57169943699995, -45.971961703999966 ], [ -67.568159987999934, -45.965447929999982 ], [ -67.565185661999976, -45.962592576999953 ], [ -67.560248280999986, -45.96083772399993 ], [ -67.549451475999945, -45.961492075999956 ], [ -67.535442399999965, -45.960778237999932 ], [ -67.531218855999953, -45.958963898999968 ], [ -67.532527559999949, -45.957387505999975 ], [ -67.547994055999936, -45.954056259999959 ], [ -67.550581719999968, -45.952003974999968 ], [ -67.550551976999941, -45.948167093999984 ], [ -67.555667817999961, -45.945133281999972 ], [ -67.557303697999942, -45.94028512999995 ], [ -67.557303697999942, -45.937340546999962 ], [ -67.552068882999947, -45.925681187999942 ], [ -67.547726366999939, -45.918840236999984 ], [ -67.544900756999937, -45.916014627999971 ], [ -67.536007521999977, -45.912653638999984 ], [ -67.532765505999976, -45.910571609999977 ], [ -67.514294939999957, -45.894867167999962 ], [ -67.507275529999959, -45.884278565999978 ], [ -67.502754553999978, -45.880620144999966 ], [ -67.499096132999966, -45.874760721999962 ], [ -67.496121805999962, -45.873481761999983 ], [ -67.494039777999944, -45.87461200599995 ], [ -67.477294320999988, -45.864053147999982 ], [ -67.474706656999956, -45.86369622899997 ], [ -67.473308723999935, -45.865153648999978 ], [ -67.466319056999964, -45.864201863999938 ], [ -67.463731392999932, -45.862655213999972 ], [ -67.458437092999986, -45.862357781999947 ], [ -67.456414550999966, -45.86143574099998 ], [ -67.456265834999954, -45.858907562999946 ], [ -67.456533523999951, -45.861257280999951 ], [ -67.458794011999942, -45.862268551999932 ], [ -67.46536727299997, -45.861852145999933 ], [ -67.465486245999955, -45.860959847999936 ], [ -67.464653434999946, -45.860543442999983 ], [ -67.467895449999958, -45.860543442999983 ], [ -67.46783596399996, -45.86146548399995 ], [ -67.472832831999938, -45.861078821999968 ], [ -67.474855373999958, -45.858431670999948 ], [ -67.475777414999982, -45.853761978999955 ], [ -67.473278980999964, -45.849627664999957 ], [ -67.468311855999957, -45.846861541999942 ], [ -67.469144666999966, -45.843916958999955 ], [ -67.468460571999969, -45.841894416999935 ], [ -67.467151868999963, -45.839604185999974 ], [ -67.461708851999958, -45.834369371999969 ], [ -67.46248217599998, -45.831811450999965 ], [ -67.462125256999968, -45.82883712499995 ], [ -67.459031957999969, -45.824018715999955 ], [ -67.454748927999958, -45.819467996999947 ], [ -67.449246424999956, -45.816582900999947 ], [ -67.441602405999959, -45.817177765999986 ], [ -67.426522571999953, -45.810693734999973 ], [ -67.416380118999939, -45.800372822999975 ], [ -67.406594585999983, -45.797844644999941 ], [ -67.405791517999944, -45.796595427999932 ], [ -67.406088950999958, -45.793442641999945 ], [ -67.405315625999947, -45.792461114999981 ], [ -67.402252069999975, -45.789813963999961 ], [ -67.397879809999949, -45.787523732999944 ], [ -67.392882941999972, -45.786423231999947 ], [ -67.380420514999969, -45.789665247999949 ], [ -67.379022581999948, -45.791003694999972 ], [ -67.376970296999957, -45.791479586999969 ], [ -67.37444211899998, -45.790230369999961 ], [ -67.373341618999973, -45.788564746999953 ], [ -67.368552952999949, -45.787256043999946 ], [ -67.367601168999954, -45.785263244999953 ], [ -67.367333478999967, -45.781158674999972 ], [ -67.366946816999985, -45.780206890999978 ], [ -67.365221707999979, -45.779522795999981 ], [ -67.365251450999949, -45.77833306499997 ], [ -67.36664938399997, -45.774942332999956 ], [ -67.373073928999986, -45.770064437999963 ], [ -67.373787766999953, -45.766822421999962 ], [ -67.37179496899995, -45.764413217999959 ], [ -67.372449320999976, -45.759535322999966 ], [ -67.368136547999939, -45.75471691499996 ], [ -67.374204172999953, -45.751593871999944 ], [ -67.37691080999997, -45.748738518999971 ], [ -67.377624647999937, -45.745764192999957 ], [ -67.377416445999984, -45.740945783999962 ], [ -67.37917129799996, -45.737227875999963 ], [ -67.378725148999933, -45.734461752999948 ], [ -67.375185700999964, -45.729613600999983 ], [ -67.361652515999936, -45.723783920999949 ], [ -67.359154081999975, -45.723397258999967 ], [ -67.349041372999977, -45.725509030999945 ], [ -67.344579883999984, -45.723308028999952 ], [ -67.342230165999979, -45.72315931299994 ], [ -67.344371680999984, -45.717656808999948 ], [ -67.344252707999942, -45.713457060999986 ], [ -67.348964040999988, -45.713242908999973 ], [ -67.35021325799994, -45.711672464999936 ], [ -67.355959655999982, -45.710387555999944 ], [ -67.358743624999988, -45.706033141999967 ], [ -67.362027280999939, -45.695753870999965 ], [ -67.361063599999966, -45.687401962999957 ], [ -67.358529473999965, -45.679442665999943 ], [ -67.358993468999984, -45.675445170999978 ], [ -67.361491902999944, -45.668092636999972 ], [ -67.360920831999977, -45.655493390999936 ], [ -67.358238732999951, -45.644074951999983 ], [ -67.355668914999967, -45.638007326999968 ], [ -67.350315127999977, -45.629334190999941 ], [ -67.34149922499995, -45.619625989999975 ], [ -67.333789771999989, -45.614165126999978 ], [ -67.323974494999959, -45.604492617999938 ], [ -67.301095976999989, -45.588288488999979 ], [ -67.281572499999982, -45.566552112999943 ], [ -67.260407193999981, -45.550240906999932 ], [ -67.250841760999947, -45.544316048999974 ], [ -67.233067186999961, -45.531538343999955 ], [ -67.224501127999986, -45.527576540999974 ], [ -67.22153869899995, -45.527076853999972 ], [ -67.210759739999958, -45.510908416999939 ], [ -67.20811853899994, -45.504519563999963 ], [ -67.197803574999966, -45.493811989999983 ], [ -67.185739707999971, -45.478178930999945 ], [ -67.167858057999979, -45.460975427999983 ], [ -67.15761447899996, -45.445627903999934 ], [ -67.13819807699997, -45.422106931999963 ], [ -67.132308910999939, -45.416467609999984 ], [ -67.126241284999935, -45.412470114999962 ], [ -67.121886871999948, -45.407223403999978 ], [ -67.105754125999965, -45.396087525999974 ], [ -67.090656445999969, -45.377277886999934 ], [ -67.078449810999984, -45.369282897999938 ], [ -67.074166780999974, -45.365178327999956 ], [ -67.069919442999947, -45.353828298999986 ], [ -67.063994584999932, -45.346154536999961 ], [ -67.045541864999961, -45.332520224999939 ], [ -67.040937607999979, -45.328272886999969 ], [ -67.036012123999967, -45.322169569999971 ], [ -67.028124210999977, -45.317137009999954 ], [ -67.016060342999936, -45.307393116999947 ], [ -67.007387207999955, -45.303502697999932 ], [ -66.990148012999953, -45.293794496999965 ], [ -66.978084145999958, -45.284121987999981 ], [ -66.976049706999959, -45.281373710999958 ], [ -66.970838686999969, -45.278625433999935 ], [ -66.965520591999962, -45.27380702499994 ], [ -66.958203748999949, -45.270951671999967 ], [ -66.953706567999973, -45.267739398999936 ], [ -66.939144265999971, -45.261172086999977 ], [ -66.900739765999958, -45.246966704999977 ], [ -66.888961433999953, -45.241684300999964 ], [ -66.853555053999969, -45.23211886799993 ], [ -66.840384736999965, -45.23008442899993 ], [ -66.832925126999953, -45.230833958999938 ], [ -66.830819303999988, -45.232654246999971 ], [ -66.827250112999934, -45.232725630999937 ], [ -66.827214420999951, -45.234010539999986 ], [ -66.825715359999947, -45.234617301999947 ], [ -66.820040345999985, -45.234867145999942 ], [ -66.818112981999946, -45.232761322999977 ], [ -66.813223189999974, -45.231119494999973 ], [ -66.79562707599996, -45.227764454999942 ], [ -66.790951434999954, -45.228049989999931 ], [ -66.787346551999974, -45.231512105999968 ], [ -66.780172476999951, -45.231940408999947 ], [ -66.780707854999946, -45.231333645999939 ], [ -66.777566966999984, -45.229263514999957 ], [ -66.768429836999985, -45.226051242999972 ], [ -66.750690954999982, -45.223088813999937 ], [ -66.734522516999959, -45.22219651599994 ], [ -66.71879427999994, -45.222422564999931 ], [ -66.705320581999956, -45.224326132999977 ], [ -66.697319643999947, -45.222571280999944 ], [ -66.679265483999984, -45.215194951999933 ], [ -66.662014391999946, -45.211417556999947 ], [ -66.651990911999974, -45.212815490999958 ], [ -66.649879140999985, -45.214867775999949 ], [ -66.649462734999986, -45.213559071999953 ], [ -66.64773762599998, -45.21317240999997 ], [ -66.638695673999962, -45.213142666999943 ], [ -66.632390101999988, -45.214064707999967 ], [ -66.632836250999958, -45.214808288999961 ], [ -66.63093268199998, -45.215581613999973 ], [ -66.627066057999969, -45.214481112999977 ], [ -66.624002501999939, -45.214867775999949 ], [ -66.621414837999964, -45.213559071999953 ], [ -66.611212898999952, -45.211982678999959 ], [ -66.607286788999943, -45.212547800999971 ], [ -66.604996556999936, -45.214451369999949 ], [ -66.603271447999987, -45.214540599999964 ], [ -66.603420163999942, -45.213945734999982 ], [ -66.601159676999941, -45.213261639999985 ], [ -66.598423295999964, -45.214094450999937 ], [ -66.591522858999951, -45.213767274999952 ], [ -66.589768006999975, -45.215016491999961 ], [ -66.587150599999973, -45.215046234999932 ], [ -66.586228558999949, -45.213767274999952 ], [ -66.583730124999988, -45.212934463999943 ], [ -66.584027556999956, -45.211982678999959 ], [ -66.581172203999984, -45.212101651999944 ], [ -66.580755797999984, -45.21341035599994 ], [ -66.579804013999933, -45.213231895999968 ], [ -66.580547595999974, -45.212280111999974 ], [ -66.579536324999935, -45.211625759999947 ], [ -66.574360996999985, -45.213261639999985 ], [ -66.57287383399995, -45.212518057999944 ], [ -66.572814346999962, -45.211596016999977 ], [ -66.571237953999969, -45.211566273999949 ], [ -66.56528930199994, -45.212547800999971 ], [ -66.562731380999935, -45.212250368999946 ], [ -66.561511906999954, -45.212696517999973 ], [ -66.560827811999957, -45.214332396999964 ], [ -66.557526309999957, -45.214957005999963 ], [ -66.556871958999977, -45.214986748999934 ], [ -66.557437080999932, -45.214034964999939 ], [ -66.556931444999975, -45.213440098999968 ], [ -66.555563254999981, -45.21317240999997 ], [ -66.552023806999955, -45.214094450999937 ], [ -66.550625872999944, -45.21584930399996 ], [ -66.551785860999985, -45.217128263999939 ], [ -66.551220738999973, -45.217723128999978 ], [ -66.552053549999982, -45.218853372999945 ], [ -66.551726373999941, -45.219656440999984 ], [ -66.553273023999964, -45.220191819999968 ], [ -66.545985923999979, -45.222838969999941 ], [ -66.544260814999973, -45.222363077999944 ], [ -66.542892624999979, -45.225099457999931 ], [ -66.541494691999958, -45.225248174999933 ], [ -66.538907027999983, -45.223820497999952 ], [ -66.537747040999932, -45.225039971999934 ], [ -66.535546038999939, -45.222303591999946 ], [ -66.535397322999984, -45.220608225999968 ], [ -66.533315294999966, -45.220221562999939 ], [ -66.531322495999973, -45.220459508999966 ], [ -66.529954305999979, -45.22161949599996 ], [ -66.528020993999974, -45.221143603999963 ], [ -66.523767706999934, -45.222749739999983 ], [ -66.522548233999942, -45.222273847999929 ], [ -66.52239951699994, -45.223285118999968 ], [ -66.518651865999971, -45.222898456999985 ], [ -66.517759567999974, -45.220697454999936 ], [ -66.521596448999958, -45.217693385999951 ], [ -66.519365703999938, -45.216741600999967 ], [ -66.520198515999937, -45.215105721999976 ], [ -66.519633393999982, -45.213588815999969 ], [ -66.524303085999975, -45.209216555999944 ], [ -66.522488746999954, -45.208294514999977 ], [ -66.524570774999972, -45.208116054999948 ], [ -66.524987180999972, -45.205558134999933 ], [ -66.522102084999972, -45.204457633999937 ], [ -66.521715421999943, -45.203595078999967 ], [ -66.519752366999967, -45.204517120999981 ], [ -66.519216987999982, -45.203654565999955 ], [ -66.519841596999981, -45.202702780999971 ], [ -66.515647796999986, -45.201542793999977 ], [ -66.516450864999968, -45.20065049599998 ], [ -66.514041659999975, -45.199163332999944 ], [ -66.513833457999965, -45.197081304999983 ], [ -66.518741095999985, -45.197795142999951 ], [ -66.522548233999942, -45.195326451999961 ], [ -66.522072340999955, -45.194344924999939 ], [ -66.520168772999966, -45.19372031599994 ], [ -66.520406718999936, -45.192828017999943 ], [ -66.527307155999949, -45.192709044999958 ], [ -66.528675345999943, -45.188812677999977 ], [ -66.528020993999974, -45.186611675999984 ], [ -66.533553240999936, -45.183934782999984 ], [ -66.534237335999933, -45.180900969999982 ], [ -66.534980916999984, -45.18099019999994 ], [ -66.534653740999943, -45.181674294999937 ], [ -66.538103959999944, -45.182477362999975 ], [ -66.540483420999976, -45.181287631999965 ], [ -66.541197258999944, -45.179830212999946 ], [ -66.540513163999947, -45.178759454999977 ], [ -66.537062945999935, -45.178699968999979 ], [ -66.536051674999953, -45.17542820999995 ], [ -66.538996257999941, -45.175874358999977 ], [ -66.542386989999954, -45.178729711999949 ], [ -66.546075153999936, -45.177718440999968 ], [ -66.546729505999963, -45.177777926999966 ], [ -66.544885423999972, -45.178818941999964 ], [ -66.549317169999938, -45.17810510299995 ], [ -66.550685359999989, -45.178670224999962 ], [ -66.553332509999962, -45.177093831999969 ], [ -66.556009403999951, -45.179027143999974 ], [ -66.558775526999966, -45.178134846999967 ], [ -66.561273960999984, -45.180097901999943 ], [ -66.562285231999965, -45.179354319999959 ], [ -66.563950854999973, -45.179889698999943 ], [ -66.565854423999951, -45.179265090999934 ], [ -66.565824680999981, -45.177272291999941 ], [ -66.567668762999972, -45.17768869799994 ], [ -66.56936412899995, -45.176707169999986 ], [ -66.56957233199995, -45.175576925999962 ], [ -66.568323114999941, -45.174535911999953 ], [ -66.568531316999952, -45.173137978999932 ], [ -66.567192870999975, -45.17316772199996 ], [ -66.566865694999933, -45.172305166999934 ], [ -66.572100508999938, -45.170461084999943 ], [ -66.574450226999943, -45.168141109999965 ], [ -66.578078904999984, -45.168498029999967 ], [ -66.581261433999941, -45.166683690999946 ], [ -66.582034758999953, -45.167189325999971 ], [ -66.580666568999959, -45.169092894999949 ], [ -66.58185629899998, -45.171442612999954 ], [ -66.583640894999974, -45.17319746499993 ], [ -66.58518754499994, -45.17340566799993 ], [ -66.586853166999958, -45.172513369999933 ], [ -66.585693179999964, -45.174268221999966 ], [ -66.588221356999952, -45.175130776999936 ], [ -66.589411087999963, -45.174178992999941 ], [ -66.588964938999936, -45.173078491999945 ], [ -66.590005952999945, -45.172245680999936 ], [ -66.593634630999986, -45.172007734999966 ], [ -66.59521102399998, -45.170818003999955 ], [ -66.596371010999974, -45.167278555999985 ], [ -66.599375080999948, -45.165226270999938 ], [ -66.599672512999973, -45.16269809299996 ], [ -66.598512525999979, -45.161300159999939 ], [ -66.594645901999968, -45.160110428999985 ], [ -66.585752665999962, -45.159485820999976 ], [ -66.586347531999934, -45.158444806999967 ], [ -66.584384475999968, -45.156987386999958 ], [ -66.58700188399996, -45.156898156999944 ], [ -66.590600817999984, -45.158087887999955 ], [ -66.596103321999976, -45.154340236999985 ], [ -66.597144335999985, -45.151514626999983 ], [ -66.598958674999949, -45.150979247999942 ], [ -66.600386351999987, -45.148540299999979 ], [ -66.601933000999963, -45.148540299999979 ], [ -66.602438636999977, -45.147826461999955 ], [ -66.602527866999935, -45.146220325999934 ], [ -66.600862243999984, -45.145298284999967 ], [ -66.602319663999936, -45.144524959999956 ], [ -66.602170946999934, -45.143424458999959 ], [ -66.600713527999972, -45.142234728999938 ], [ -66.600683783999955, -45.140539362999959 ], [ -66.599702256999933, -45.139409118999936 ], [ -66.596252037999932, -45.139260401999934 ], [ -66.591969007999978, -45.137832725999942 ], [ -66.584265502999983, -45.139528091999978 ], [ -66.580220419999932, -45.143483945999947 ], [ -66.579506580999976, -45.142413187999978 ], [ -66.580666568999959, -45.142532160999963 ], [ -66.580726054999957, -45.141848065999966 ], [ -66.57983375699996, -45.140033726999945 ], [ -66.576413281999976, -45.140479875999972 ], [ -66.575164064999967, -45.141967038999951 ], [ -66.571356926999954, -45.143305485999974 ], [ -66.569691304999935, -45.14279985099995 ], [ -66.56689543799996, -45.143513688999974 ], [ -66.565497504999939, -45.141877809999983 ], [ -66.55993551499995, -45.142740363999962 ], [ -66.559459621999963, -45.141074740999954 ], [ -66.555533511999954, -45.141580376999968 ], [ -66.547383857999932, -45.136672738999948 ], [ -66.546045410999966, -45.137594779999972 ], [ -66.545866950999937, -45.139855267999963 ], [ -66.548930506999966, -45.141788579999968 ], [ -66.545866950999937, -45.143543431999944 ], [ -66.542119299999968, -45.147856204999982 ], [ -66.540275217999977, -45.152912559999947 ], [ -66.538252675999956, -45.151514626999983 ], [ -66.539026000999968, -45.151246936999939 ], [ -66.538460878999956, -45.15038438299996 ], [ -66.53447528199996, -45.14996797699996 ], [ -66.523143098999981, -45.151871545999938 ], [ -66.517105215999948, -45.151544369999954 ], [ -66.516659067999967, -45.152525897999965 ], [ -66.516034458999968, -45.151841801999979 ], [ -66.51457703899996, -45.152139234999936 ], [ -66.509342224999955, -45.15445920999997 ], [ -66.507319682999935, -45.156779183999959 ], [ -66.510650927999961, -45.15817711699998 ], [ -66.507557628999962, -45.159545307999963 ], [ -66.507438655999977, -45.162965782999947 ], [ -66.50633815499998, -45.164750377999951 ], [ -66.504850991999945, -45.164958580999951 ], [ -66.502501274999986, -45.163917566999942 ], [ -66.499437718999957, -45.164720634999981 ], [ -66.494173160999935, -45.164452945999983 ], [ -66.493221376999941, -45.164958580999951 ], [ -66.49339983599998, -45.166802663999931 ], [ -66.490603969999938, -45.166713433999973 ], [ -66.494232647999979, -45.161924768999938 ], [ -66.493548552999982, -45.160824267999942 ], [ -66.493905471999938, -45.159277617999976 ], [ -66.493191632999981, -45.158831468999949 ], [ -66.491407037999977, -45.16109195699994 ], [ -66.486588628999982, -45.162668349999933 ], [ -66.485607100999971, -45.164423202999956 ], [ -66.478944610999974, -45.163620133999984 ], [ -66.477189757999952, -45.165226270999938 ], [ -66.474423634999937, -45.164274485999954 ], [ -66.473620566999955, -45.165702162999935 ], [ -66.472609295999973, -45.165612932999977 ], [ -66.472787754999956, -45.163679620999972 ], [ -66.471181618999935, -45.161776051999936 ], [ -66.468326265999963, -45.161657078999951 ], [ -66.466898588999982, -45.159872482999958 ], [ -66.466958075999969, -45.158296089999965 ], [ -66.46901036099996, -45.156838670999946 ], [ -66.469099590999974, -45.155500223999979 ], [ -66.467433967999966, -45.154280749999941 ], [ -66.468861644999947, -45.153656141999932 ], [ -66.468712927999945, -45.152377180999963 ], [ -66.463924262999967, -45.151276680999956 ], [ -66.463983749999954, -45.149611057999948 ], [ -66.462318126999946, -45.148778245999949 ], [ -66.46059301799994, -45.149224394999976 ], [ -66.460860706999938, -45.147142366999958 ], [ -66.458986880999987, -45.146963906999986 ], [ -66.463210424999943, -45.146101352999949 ], [ -66.46570885899996, -45.143840864999959 ], [ -66.48870040099996, -45.148213123999938 ], [ -66.491972159999932, -45.148123894999969 ], [ -66.496136215999968, -45.146428528999934 ], [ -66.496879797999952, -45.14523879799998 ], [ -66.501787435999972, -45.14506033899994 ], [ -66.502828449999981, -45.144346499999983 ], [ -66.507260196999937, -45.147588515999985 ], [ -66.509788373999982, -45.146904420999931 ], [ -66.513179105999939, -45.147410055999956 ], [ -66.515945228999954, -45.146488014999932 ], [ -66.520585177999976, -45.149373111999978 ], [ -66.524481545999947, -45.149194651999949 ], [ -66.531441468999958, -45.144346499999983 ], [ -66.534177848999946, -45.140212186999975 ], [ -66.535575782999956, -45.134233790999986 ], [ -66.535843471999954, -45.127690272999985 ], [ -66.535070146999942, -45.118797037999968 ], [ -66.532690685999967, -45.113116074999937 ], [ -66.530697886999974, -45.110201234999977 ], [ -66.524243598999988, -45.105799231999981 ], [ -66.518651865999971, -45.097976753999944 ], [ -66.512435523999955, -45.095240373999957 ], [ -66.50678430399995, -45.096905996999965 ], [ -66.503304342999968, -45.096251644999938 ], [ -66.500716678999936, -45.098452645999942 ], [ -66.497504405999962, -45.097262915999977 ], [ -66.493637781999951, -45.098541875999956 ], [ -66.493994700999963, -45.09767932099993 ], [ -66.492953686999954, -45.095864981999966 ], [ -66.489681927999982, -45.093217831999937 ], [ -66.48397122199998, -45.092355276999967 ], [ -66.482186625999987, -45.093158344999949 ], [ -66.481562017999977, -45.092236303999982 ], [ -66.481710733999932, -45.086823030999938 ], [ -66.471687254999949, -45.079952336999952 ], [ -66.465262709999934, -45.07668057799998 ], [ -66.451342862999979, -45.072576007999942 ], [ -66.444739858999981, -45.072516520999955 ], [ -66.441021950999982, -45.074271373999977 ], [ -66.436292771999945, -45.072813953999969 ], [ -66.433794337999984, -45.072932926999954 ], [ -66.43349690499997, -45.071921655999972 ], [ -66.431117443999938, -45.070642695999936 ], [ -66.426596467999957, -45.071088844999963 ], [ -66.422610870999961, -45.069274505999942 ], [ -66.422521640999946, -45.067251963999979 ], [ -66.416840677999971, -45.063504312999953 ], [ -66.413866351999957, -45.062225351999984 ], [ -66.408393591999982, -45.061779202999958 ], [ -66.408839740999952, -45.059102309999957 ], [ -66.405746440999962, -45.056455158999938 ], [ -66.398518828999954, -45.053123913999968 ], [ -66.396734232999961, -45.053629548999936 ], [ -66.394325028999958, -45.052410075999944 ], [ -66.388882011999954, -45.05232084599993 ], [ -66.386175374999937, -45.053956724999978 ], [ -66.386532293999949, -45.055503374999944 ], [ -66.382279006999966, -45.056068496999956 ], [ -66.367318145999946, -45.061303310999961 ], [ -66.363273061999962, -45.061600743999975 ], [ -66.374069866999946, -45.056871564999938 ], [ -66.37478370499997, -45.054967995999959 ], [ -66.374605244999941, -45.051547520999975 ], [ -66.372612446999938, -45.049078829999985 ], [ -66.370589904999974, -45.049376262999942 ], [ -66.371868864999954, -45.048751653999943 ], [ -66.371839121999983, -45.047323977999952 ], [ -66.367794037999943, -45.046074760999943 ], [ -66.369757093999965, -45.044944516999976 ], [ -66.368626849999941, -45.042981460999954 ], [ -66.359198234999951, -45.039739445999942 ], [ -66.348817836999956, -45.041315838999935 ], [ -66.346998118999977, -45.042164212999978 ], [ -66.345665050999969, -45.044200934999935 ], [ -66.342095858999983, -45.04363581299998 ], [ -66.341203561999976, -45.042594798999971 ], [ -66.337872315999959, -45.041553784999962 ], [ -66.332161609999957, -45.042118906999974 ], [ -66.328265241999986, -45.043368123999983 ], [ -66.327700119999975, -45.045688097999971 ], [ -66.329098053999985, -45.046491165999953 ], [ -66.32674833599998, -45.048394734999931 ], [ -66.325796551999986, -45.050298303999966 ], [ -66.326064240999983, -45.052023412999972 ], [ -66.320591480999951, -45.051398804999963 ], [ -66.320740196999964, -45.048840883999958 ], [ -66.319937128999982, -45.046996801999967 ], [ -66.318806884999958, -45.045926043999941 ], [ -66.315267436999989, -45.045093232999932 ], [ -66.310062365999954, -45.045420408999973 ], [ -66.307593674999964, -45.046996801999967 ], [ -66.307861363999962, -45.048513707999973 ], [ -66.30955672999994, -45.050417276999951 ], [ -66.307563931999937, -45.050922912999965 ], [ -66.303013211999939, -45.050149587999954 ], [ -66.302329116999942, -45.047056287999965 ], [ -66.293941516999951, -45.045926043999941 ], [ -66.291194429999962, -45.047820094999963 ], [ -66.291343145999974, -45.049366744999929 ], [ -66.289558549999981, -45.049247771999944 ], [ -66.288725738999972, -45.049961609999968 ], [ -66.289558549999981, -45.050794421999967 ], [ -66.285959614999967, -45.051091853999935 ], [ -66.285543209999958, -45.052638503999958 ], [ -66.287595494999948, -45.053679517999967 ], [ -66.287773953999988, -45.054690788999949 ], [ -66.289409833999969, -45.055761546999975 ], [ -66.293544146999977, -45.05632666899993 ], [ -66.295447715999956, -45.058170750999977 ], [ -66.290748280999935, -45.060193292999941 ], [ -66.291164685999945, -45.058884588999945 ], [ -66.288636508999957, -45.058825102999947 ], [ -66.287476521999963, -45.063375821999955 ], [ -66.28346118099995, -45.06551733699996 ], [ -66.283134005999955, -45.064208632999964 ], [ -66.284115532999976, -45.063524537999967 ], [ -66.283609897999952, -45.063078388999941 ], [ -66.276233568999942, -45.065338876999931 ], [ -66.278404826999974, -45.06346505199997 ], [ -66.284085789999949, -45.06284044299997 ], [ -66.286465250999981, -45.060907130999965 ], [ -66.287030372999936, -45.059330737999971 ], [ -66.290272388999938, -45.057278452999981 ], [ -66.290034441999978, -45.05629692499997 ], [ -66.288220102999958, -45.055523599999958 ], [ -66.287030372999936, -45.05382823399998 ], [ -66.284091738999962, -45.053048960999945 ], [ -66.278809334999949, -45.059402121999938 ], [ -66.280058551999957, -45.056439692999959 ], [ -66.278880718999972, -45.055012015999978 ], [ -66.277381658999957, -45.055547394999962 ], [ -66.278024112999958, -45.053120344999968 ], [ -66.281950223999957, -45.052727733999973 ], [ -66.283984662999956, -45.050514834999944 ], [ -66.283699126999977, -45.048730238999951 ], [ -66.28184314799995, -45.047945016999961 ], [ -66.278630875999966, -45.049301309999976 ], [ -66.274419229999978, -45.048944390999964 ], [ -66.269458052999937, -45.046802875999958 ], [ -66.268565754999941, -45.045339506999937 ], [ -66.268779906999953, -45.042162926999936 ], [ -66.262962124999945, -45.039842951999958 ], [ -66.260320922999938, -45.036345144999984 ], [ -66.26067784199995, -45.034881775999963 ], [ -66.262319669999954, -45.033668250999938 ], [ -66.261998442999982, -45.031491043999949 ], [ -66.25989261999996, -45.029849215999945 ], [ -66.255609589999949, -45.029420912999967 ], [ -66.254503140999986, -45.028314463999948 ], [ -66.252040398999952, -45.027957544999936 ], [ -66.254110529999934, -45.027457857999934 ], [ -66.253789302999962, -45.025423418999935 ], [ -66.252682852999953, -45.024602504999962 ], [ -66.245722929999943, -45.024602504999962 ], [ -66.247079222999957, -45.022817908999968 ], [ -66.246401075999984, -45.020926236999969 ], [ -66.237335329999951, -45.020783469999969 ], [ -66.232445536999933, -45.022782216999985 ], [ -66.232052925999938, -45.023710206999965 ], [ -66.233730445999981, -45.027243705999979 ], [ -66.232980915999974, -45.02774339299998 ], [ -66.230696633999969, -45.029028301999972 ], [ -66.231267703999947, -45.028136003999975 ], [ -66.230696633999969, -45.027921852999953 ], [ -66.225699764999945, -45.028100311999935 ], [ -66.22530715399995, -45.027029554999956 ], [ -66.227484360999938, -45.026137256999959 ], [ -66.229197572999965, -45.023817282999971 ], [ -66.227412976999972, -45.021176080999965 ], [ -66.226092376999986, -45.020747777999929 ], [ -66.226342219999935, -45.01889179799997 ], [ -66.232945223999934, -45.014109081999948 ], [ -66.232659688999945, -45.011682030999964 ], [ -66.229625875999943, -45.008755293999968 ], [ -66.230196946999968, -45.007006390999948 ], [ -66.227341593999938, -45.004722107999953 ], [ -66.222701644999972, -45.004543647999981 ], [ -66.22155950299998, -45.005257486999938 ], [ -66.221309659999974, -45.00722054199997 ], [ -66.219989058999943, -45.007684536999932 ], [ -66.219275220999975, -45.005650097999933 ], [ -66.217526316999965, -45.004079652999962 ], [ -66.21095900499995, -45.002330749999942 ], [ -66.208924564999961, -45.002759052999977 ], [ -66.208876414524894, -45.0 ], [ -66.061896957122187, -45.0 ], [ -66.062337869999965, -45.003437198999961 ], [ -66.056734238999979, -45.004293804999975 ], [ -66.05216567399998, -45.003294430999972 ], [ -66.05027400299997, -45.001474143999985 ], [ -66.046312199999988, -45.001759678999974 ], [ -66.04238608999998, -45.000439077999943 ], [ -66.041136872999971, -45.001545527999951 ], [ -66.041458099999943, -45.002830435999954 ], [ -66.039744887999973, -45.003401506999978 ], [ -66.033034807999968, -45.002973203999943 ], [ -66.030714832999934, -45.001581218999945 ], [ -66.029572691999988, -45.001831062999941 ], [ -66.029679767999937, -45.003115971999932 ], [ -66.028359166999962, -45.002295057999959 ], [ -66.020863864999967, -45.003008895999983 ], [ -66.020721096999978, -45.001438451999945 ], [ -66.02180340643632, -45.0 ], [ -66.019431266791742, -45.0 ], [ -66.016402374999984, -45.002437824999959 ], [ -66.016830677999963, -45.004936258999976 ], [ -66.015295925999965, -45.004543647999981 ], [ -66.014082400999939, -45.005792864999933 ], [ -66.008764305999932, -45.006506703999946 ], [ -66.005230805999986, -45.00547163799996 ], [ -66.000233937999951, -45.007648844999949 ], [ -65.990597120999951, -45.014109081999948 ], [ -65.983553122999979, -45.019741067999973 ], [ -65.982339597999953, -45.02170412299995 ], [ -65.973916305999978, -45.027985899999976 ], [ -65.971524947999967, -45.031091096999944 ], [ -65.969633275999968, -45.035695353999984 ], [ -65.965457321999963, -45.036766110999963 ], [ -65.958069095999974, -45.04379741799994 ], [ -65.94596953599995, -45.042690968999977 ], [ -65.94154373899994, -45.045938932999945 ], [ -65.938617001999944, -45.047009690999971 ], [ -65.937903163999977, -45.048473058999946 ], [ -65.935583188999942, -45.048580134999952 ], [ -65.93444104799994, -45.049436740999965 ], [ -65.931050315999983, -45.048580134999952 ], [ -65.930871855999953, -45.046438619999947 ], [ -65.927838043999941, -45.045867548999979 ], [ -65.926303290999954, -45.044297104999941 ], [ -65.924268851999955, -45.04379741799994 ], [ -65.923983316999966, -45.041727286999958 ], [ -65.921948877999966, -45.039121776999934 ], [ -65.919129215999988, -45.038764857999979 ], [ -65.918022766999968, -45.034767363999947 ], [ -65.913882504999947, -45.032019085999934 ], [ -65.911205610999957, -45.031840626999951 ], [ -65.909813625999959, -45.033339686999966 ], [ -65.910420388999967, -45.033982141999957 ], [ -65.906351510999968, -45.034517519999952 ], [ -65.903746000999945, -45.032768616999931 ], [ -65.901711561999946, -45.032911383999931 ], [ -65.898749132999967, -45.035338433999982 ], [ -65.895822395999971, -45.034695979999981 ], [ -65.89450179499994, -45.035159974999942 ], [ -65.893109809999942, -45.037015953999969 ], [ -65.893323961999954, -45.038764857999979 ], [ -65.888255709999953, -45.039443004999953 ], [ -65.886863724999955, -45.038836241999945 ], [ -65.886078502999965, -45.036266423999962 ], [ -65.886935108999978, -45.030627101999983 ], [ -65.885971426999959, -45.029163732999962 ], [ -65.889255082999966, -45.02787882399997 ], [ -65.89450179499994, -45.022846263999952 ], [ -65.893752264999932, -45.021525662999977 ], [ -65.890504299999975, -45.01981245099995 ], [ -65.895572551999976, -45.013209446999952 ], [ -65.895108556999958, -45.011210699999936 ], [ -65.891646441999967, -45.007998426999961 ], [ -65.88739910399994, -45.006035371999985 ], [ -65.875335236999945, -45.002501872999972 ], [ -65.872979569999984, -45.002252028999976 ], [ -65.869053458999986, -45.004572003999954 ], [ -65.854348389999984, -45.001895109999964 ], [ -65.84653186099996, -45.002073569999936 ], [ -65.84210606399995, -45.003679705999957 ], [ -65.841285149999976, -45.005107381999949 ], [ -65.838822406999952, -45.006642134999936 ], [ -65.831434180999963, -45.008498113999963 ], [ -65.827650837999954, -45.012602684999933 ], [ -65.824688408999975, -45.013780517999976 ], [ -65.823189348999961, -45.016064799999981 ], [ -65.823153656999978, -45.018349082999976 ], [ -65.826722847999974, -45.019491223999978 ], [ -65.824331489999963, -45.023738561999949 ], [ -65.82429579799998, -45.027022217999956 ], [ -65.828400367999961, -45.031733550999945 ], [ -65.830756034999979, -45.033125535999943 ], [ -65.832754781999938, -45.03323261099996 ], [ -65.833540003999985, -45.034339060999969 ], [ -65.832790473999978, -45.035052898999936 ], [ -65.827222534999976, -45.035445509999931 ], [ -65.827472377999982, -45.03669472699994 ], [ -65.829007130999969, -45.037230105999981 ], [ -65.828721594999934, -45.039121776999934 ], [ -65.823260731999937, -45.039692847999959 ], [ -65.822189974999958, -45.040478069999949 ], [ -65.818870626999967, -45.040370993999943 ], [ -65.818406631999949, -45.039478696999936 ], [ -65.813338379999948, -45.037194413999941 ], [ -65.810590102999981, -45.034339060999969 ], [ -65.808412895999936, -45.034374752999952 ], [ -65.80834151199997, -45.03284 ], [ -65.804201249999949, -45.031412323999973 ], [ -65.803523102999975, -45.031947702999958 ], [ -65.802880648999974, -45.031162479999978 ], [ -65.80295203299994, -45.027914515999953 ], [ -65.804915087999973, -45.026379763999955 ], [ -65.808020284999941, -45.026629606999961 ], [ -65.81023318299998, -45.028699737999943 ], [ -65.813838066999949, -45.027236369999969 ], [ -65.815622662999942, -45.024666551999985 ], [ -65.816050965999978, -45.021811198999956 ], [ -65.815015899999935, -45.01888446199996 ], [ -65.812945768999953, -45.016921405999938 ], [ -65.809412268999949, -45.01542234599998 ], [ -65.80752059799994, -45.015136810999934 ], [ -65.804094173999943, -45.016457410999976 ], [ -65.803201875999946, -45.01806354799993 ], [ -65.800810517999935, -45.019384147999972 ], [ -65.800322727999969, -45.022605938999959 ], [ -65.797443579999936, -45.025151961999939 ], [ -65.794992735999983, -45.023177008999937 ], [ -65.793398496999941, -45.023343571999931 ], [ -65.793017782999982, -45.024747453999964 ], [ -65.791209392999974, -45.025746826999978 ], [ -65.791042829999981, -45.027031735999969 ], [ -65.78847301199994, -45.030125034999969 ], [ -65.787330870999938, -45.026936557999932 ], [ -65.784285160999957, -45.026674816999957 ], [ -65.784308955999961, -45.025128166999934 ], [ -65.783618911999952, -45.024652274999937 ], [ -65.780763558999979, -45.026722405999976 ], [ -65.778003383999987, -45.026460664999945 ], [ -65.776623296999958, -45.023890847999951 ], [ -65.777075393999951, -45.020535807999977 ], [ -65.775457360999951, -45.019488844999955 ], [ -65.774101067999936, -45.02020268299998 ], [ -65.77388691699997, -45.02191589499995 ], [ -65.772197498999958, -45.024033614999951 ], [ -65.770603259999973, -45.020964110999955 ], [ -65.768842458999984, -45.020559601999935 ], [ -65.756612029999985, -45.024271560999978 ], [ -65.740455488999942, -45.023962230999985 ], [ -65.735696566999934, -45.025485085999946 ], [ -65.73303157099997, -45.027721779999979 ], [ -65.732983981999951, -45.030886462999945 ], [ -65.737005270999987, -45.031576506999954 ], [ -65.738028438999947, -45.034027350999963 ], [ -65.734530630999984, -45.034027350999963 ], [ -65.737481162999984, -45.036644758999955 ], [ -65.737623930999973, -45.037501363999979 ], [ -65.736624556999971, -45.038072434999947 ], [ -65.736862502999941, -45.040190154999948 ], [ -65.731318358999943, -45.040237744999956 ], [ -65.728724746999944, -45.04147506399994 ], [ -65.72270470999996, -45.041736804999971 ], [ -65.721967076999988, -45.043878319999976 ], [ -65.719230696999944, -45.044639747999952 ], [ -65.713091687999963, -45.04497287199996 ], [ -65.707595132999984, -45.044092470999942 ], [ -65.701360944999976, -45.045091844999945 ], [ -65.699029072999963, -45.047328537999931 ], [ -65.698600769999985, -45.04885139299995 ], [ -65.698981483999944, -45.05008871299998 ], [ -65.702265139999952, -45.052063665999981 ], [ -65.700076035999984, -45.053848261999974 ], [ -65.69950496499996, -45.055870802999948 ], [ -65.697767958999975, -45.056346695999935 ], [ -65.696149924999986, -45.05927343299993 ], [ -65.693223187999934, -45.059701735999965 ], [ -65.693841847999977, -45.060225216999982 ], [ -65.692747295999936, -45.060296600999948 ], [ -65.692247608999935, -45.061771866999948 ], [ -65.689939531999983, -45.062009812999975 ], [ -65.687774222999963, -45.061058027999934 ], [ -65.688297703999979, -45.060082448999935 ], [ -65.687821811999981, -45.05848821099994 ], [ -65.68515681599996, -45.058059907999962 ], [ -65.685109225999952, -45.057084328999963 ], [ -65.690677164999954, -45.053110628999946 ], [ -65.692009662999965, -45.04949384799994 ], [ -65.697458628999982, -45.048518268999942 ], [ -65.697815547999937, -45.045924655999954 ], [ -65.69346113499995, -45.04202233999996 ], [ -65.689225693999958, -45.039833235999936 ], [ -65.686346545999982, -45.040547074999949 ], [ -65.685489939999968, -45.040094976999967 ], [ -65.686037215999988, -45.037739310999939 ], [ -65.68460953999994, -45.036858909999978 ], [ -65.684395387999984, -45.034384270999965 ], [ -65.681397266999966, -45.033408691999966 ], [ -65.681730391999963, -45.03262346899993 ], [ -65.680516866999938, -45.03262346899993 ], [ -65.681992131999948, -45.029672937999976 ], [ -65.681302088999985, -45.028863920999981 ], [ -65.678827448999982, -45.028673563999973 ], [ -65.679350930999988, -45.031386149999946 ], [ -65.678827448999982, -45.033337307999943 ], [ -65.68018374199994, -45.03440806499998 ], [ -65.682801148999943, -45.034788778999939 ], [ -65.682087310999975, -45.036858909999978 ], [ -65.680588249999971, -45.037073061999934 ], [ -65.683871906999968, -45.038167613999974 ], [ -65.682158694999941, -45.040213949999952 ], [ -65.678351556999985, -45.04095158299998 ], [ -65.676828701999966, -45.042498232999947 ], [ -65.673069153999961, -45.043545194999979 ], [ -65.672736028999964, -45.044449390999944 ], [ -65.669666523999979, -45.043997292999961 ], [ -65.669190631999982, -45.042069929999968 ], [ -65.667691571999967, -45.042379259999962 ], [ -65.667310857999951, -45.043259659999933 ], [ -65.663955817999977, -45.043164481999952 ], [ -65.660434215999942, -45.044449390999944 ], [ -65.659315868999954, -45.04335483899996 ], [ -65.659744171999932, -45.04280756299994 ], [ -65.658411673999979, -45.042403053999976 ], [ -65.658387878999974, -45.040689841999949 ], [ -65.657007791999945, -45.040451895999979 ], [ -65.657293326999934, -45.039523905999943 ], [ -65.653676546999975, -45.039285959999972 ], [ -65.652201280999975, -45.040547074999949 ], [ -65.65246302099996, -45.041451269999982 ], [ -65.650678425999956, -45.041950956999983 ], [ -65.650131149999936, -45.04349760599996 ], [ -65.650369095999963, -45.04442559599994 ], [ -65.653557572999944, -45.044663541999967 ], [ -65.653034091999984, -45.046424342999956 ], [ -65.649631462999935, -45.049422463999974 ], [ -65.649107980999986, -45.048589652999965 ], [ -65.648655883999936, -45.049731793999968 ], [ -65.645586378999951, -45.050921524999978 ], [ -65.644920129999946, -45.050564604999977 ], [ -65.645895708999944, -45.047970992999979 ], [ -65.645253254999943, -45.047280948999969 ], [ -65.646181243999933, -45.045853272999977 ], [ -65.643540042999973, -45.044544568999981 ], [ -65.642849998999964, -45.041522653999948 ], [ -65.641874419999965, -45.04064225299993 ], [ -65.63663960599996, -45.040071181999963 ], [ -65.637234470999942, -45.038548326999944 ], [ -65.635901972999932, -45.037882077999939 ], [ -65.637591389999955, -45.037049266999929 ], [ -65.636354069999982, -45.035550205999982 ], [ -65.634022198999958, -45.035264670999936 ], [ -65.631785504999982, -45.037096855999948 ], [ -65.629596400999958, -45.037239623999938 ], [ -65.628311491999966, -45.038453148999963 ], [ -65.626836225999966, -45.03814381899997 ], [ -65.626669663999962, -45.037311007999961 ], [ -65.625075424999977, -45.037691720999931 ], [ -65.625218192999967, -45.036716141999932 ], [ -65.624528148999957, -45.036430606999943 ], [ -65.621672795999984, -45.037334801999975 ], [ -65.622481812999979, -45.036049892999984 ], [ -65.62188694699995, -45.035336054999959 ], [ -65.619674048999968, -45.035764357999938 ], [ -65.617722890999971, -45.034955340999943 ], [ -65.618627085999947, -45.032337933999941 ], [ -65.616961462999939, -45.032004809999933 ], [ -65.613606422999965, -45.034360475999961 ], [ -65.61132214099996, -45.03381319999994 ], [ -65.610941426999943, -45.033051771999965 ], [ -65.612131156999965, -45.031290970999976 ], [ -65.611512496999978, -45.031505122999931 ], [ -65.61210736299995, -45.029173250999975 ], [ -65.606777369999975, -45.029791910999961 ], [ -65.608252635999975, -45.026460664999945 ], [ -65.602256393999937, -45.027150708999955 ], [ -65.60178050199994, -45.026555843999972 ], [ -65.60380304399996, -45.025508880999951 ], [ -65.603993400999968, -45.024200176999955 ], [ -65.605135541999971, -45.023676695999939 ], [ -65.603898221999941, -45.022796294999978 ], [ -65.605706612999938, -45.02044062899995 ], [ -65.607062904999964, -45.019441254999947 ], [ -65.608680938999953, -45.019488844999955 ], [ -65.608609554999987, -45.018608443999938 ], [ -65.610227588999976, -45.016847642999949 ], [ -65.613154325999972, -45.016300366999985 ], [ -65.615010304999942, -45.017561480999973 ], [ -65.616699721999964, -45.016347955999947 ], [ -65.619626459999949, -45.015848268999946 ], [ -65.62003096799998, -45.014539565999939 ], [ -65.61722320399997, -45.013207067999986 ], [ -65.618769853999936, -45.013040504999935 ], [ -65.622036853999987, -45.010653905999959 ], [ -65.625451379999959, -45.010154218999958 ], [ -65.625046871999984, -45.007548708999934 ], [ -65.623071918999983, -45.004134182999962 ], [ -65.620787635999932, -45.002409073999956 ], [ -65.614508814872863, -45.0 ], [ -65.611757581999939, -45.000089098999979 ], [ -65.609378120999963, -45.002908759999968 ], [ -65.605761339999958, -45.003432241999974 ], [ -65.60639189699998, -45.005490475999977 ], [ -65.605618572999958, -45.006561232999957 ], [ -65.604214690999981, -45.006097237999938 ], [ -65.603536543999951, -45.003467933999957 ], [ -65.601644872999941, -45.004062798999939 ], [ -65.600240990999964, -45.003586906999942 ], [ -65.598730032999981, -45.004788534999932 ], [ -65.594411310999988, -45.005216837999967 ], [ -65.593019326999979, -45.006585027999961 ], [ -65.586856522999938, -45.007631989999936 ], [ -65.587046878999956, -45.007072816999937 ], [ -65.585642996999979, -45.007453530999953 ], [ -65.584310498999969, -45.006668308999963 ], [ -65.586892213999988, -45.004574382999976 ], [ -65.585869045999971, -45.003432241999974 ], [ -65.586606678999942, -45.002480456999933 ], [ -65.583525276999978, -45.002706505999981 ], [ -65.584513875691769, -45.0 ], [ -65.145330793775301, -45.0 ], [ -65.140434512999946, -45.00416860699994 ], [ -65.125612309999951, -45.021373067999946 ], [ -65.112586738999937, -45.039527687999964 ], [ -65.102705270999934, -45.057994859999951 ], [ -65.094620432999932, -45.077728991999948 ], [ -65.09102717199994, -45.097456265999938 ], [ -65.088781383999958, -45.117176680999933 ], [ -65.089679698999987, -45.137526043999969 ], [ -65.09372211799996, -45.157232520999969 ], [ -65.096866220999971, -45.167083186999946 ], [ -65.104951058999973, -45.186779375999947 ], [ -65.109891792999974, -45.19598975599996 ], [ -65.121569891999968, -45.214406012999973 ], [ -65.144476930999986, -45.239797899999985 ], [ -65.15346008399996, -45.247413238999968 ], [ -65.172324704999937, -45.262323635999962 ], [ -65.205113212999947, -45.281986640999946 ], [ -65.241045823999968, -45.297204902999965 ], [ -65.254071395999972, -45.301642787999981 ], [ -65.267096967999976, -45.305763368999976 ], [ -65.295843056999956, -45.312102134999975 ], [ -65.405593446547584, -46.0 ], [ -67.59569251645668, -46.0 ] ], [ [ -65.974739074999945, -45.051921843999935 ], [ -65.973106383999948, -45.051074981999932 ], [ -65.974990844999979, -45.050498961999949 ], [ -65.976776122999979, -45.051013946999944 ], [ -65.974739074999945, -45.051921843999935 ] ], [ [ -65.841781615999935, -45.048824309999929 ], [ -65.843132018999938, -45.048904418999939 ], [ -65.843467711999949, -45.049266814999953 ], [ -65.84078216599994, -45.049270629999967 ], [ -65.841781615999935, -45.048824309999929 ] ], [ [ -65.803268432999971, -45.047515868999938 ], [ -65.80435943599997, -45.047233581999933 ], [ -65.806228637999936, -45.047904967999955 ], [ -65.803367614999956, -45.047981261999951 ], [ -65.803268432999971, -45.047515868999938 ] ], [ [ -65.858459472999982, -45.050491332999968 ], [ -65.860015868999938, -45.049793242999954 ], [ -65.860260009999934, -45.048389434999933 ], [ -65.861869811999952, -45.047504424999943 ], [ -65.86245727499994, -45.047927855999944 ], [ -65.861587523999958, -45.049743651999961 ], [ -65.863945006999984, -45.051128386999949 ], [ -65.861991881999984, -45.050727843999937 ], [ -65.859931945999961, -45.051605224999946 ], [ -65.858459472999982, -45.050491332999968 ] ], [ [ -65.843658446999939, -45.048210143999938 ], [ -65.843345641999974, -45.04726409899996 ], [ -65.848709105999944, -45.045875548999959 ], [ -65.846237182999971, -45.047939300999985 ], [ -65.843658446999939, -45.048210143999938 ] ], [ [ -65.961807250999982, -45.045978545999958 ], [ -65.962509154999964, -45.044281005999949 ], [ -65.964149474999942, -45.043636321999941 ], [ -65.963447570999961, -45.045989989999953 ], [ -65.961807250999982, -45.045978545999958 ] ], [ [ -65.916625976999967, -45.048267363999969 ], [ -65.915847777999943, -45.048065185999974 ], [ -65.915817260999972, -45.047119140999939 ], [ -65.918624877999946, -45.045429229999968 ], [ -65.918952941999976, -45.047885894999979 ], [ -65.916625976999967, -45.048267363999969 ] ], [ [ -65.912086486999954, -45.046100615999933 ], [ -65.912155150999979, -45.045356749999939 ], [ -65.913253783999949, -45.045475005999947 ], [ -65.912918090999938, -45.046054839999954 ], [ -65.912086486999954, -45.046100615999933 ] ], [ [ -65.843475341999977, -45.041351317999954 ], [ -65.844131469999979, -45.041744231999985 ], [ -65.843673705999947, -45.042278289999956 ], [ -65.841201781999985, -45.042240142999958 ], [ -65.843475341999977, -45.041351317999954 ] ], [ [ -66.248466491999977, -45.03243637099996 ], [ -66.247840880999945, -45.031684874999939 ], [ -66.248756408999952, -45.030445098999962 ], [ -66.250640868999938, -45.03086471599994 ], [ -66.248466491999977, -45.03243637099996 ] ], [ [ -66.070564269999977, -45.00583267199994 ], [ -66.069076537999933, -45.004848479999964 ], [ -66.070922851999967, -45.004146575999982 ], [ -66.072784423999963, -45.004951476999963 ], [ -66.070564269999977, -45.00583267199994 ] ], [ [ -65.754714965999938, -45.036041259999934 ], [ -65.759567260999972, -45.034713744999976 ], [ -65.760467528999982, -45.036182403999931 ], [ -65.76301574699994, -45.035423278999986 ], [ -65.766960143999938, -45.037551879999967 ], [ -65.765869140999939, -45.038551330999951 ], [ -65.760711669999978, -45.039230346999943 ], [ -65.760055541999975, -45.038242339999954 ], [ -65.751358031999985, -45.036884307999969 ], [ -65.752182006999988, -45.035884856999985 ], [ -65.754714965999938, -45.036041259999934 ] ], [ [ -65.915290832999972, -45.041225432999966 ], [ -65.91500091599994, -45.03997039799998 ], [ -65.916511535999973, -45.039836883999953 ], [ -65.916725158999952, -45.04071044899996 ], [ -65.915290832999972, -45.041225432999966 ] ], [ [ -65.875022887999933, -45.040443419999974 ], [ -65.879051207999964, -45.038894652999943 ], [ -65.88088989299996, -45.039798736999956 ], [ -65.87645721399997, -45.041671752999946 ], [ -65.87467193599997, -45.041652678999981 ], [ -65.875022887999933, -45.040443419999974 ] ], [ [ -65.748016356999983, -45.03651046799996 ], [ -65.747329711999953, -45.035972594999976 ], [ -65.747810363999974, -45.03510665899995 ], [ -65.749786376999964, -45.035575866999977 ], [ -65.748893737999936, -45.036628722999978 ], [ -65.748016356999983, -45.03651046799996 ] ], [ [ -65.861404418999939, -45.038993834999985 ], [ -65.865127562999987, -45.038051604999964 ], [ -65.869506835999971, -45.031242370999962 ], [ -65.872833251999964, -45.030303954999965 ], [ -65.872924804999968, -45.032211303999929 ], [ -65.874526977999949, -45.03287506099997 ], [ -65.870002746999944, -45.034526824999944 ], [ -65.866706847999978, -45.039501189999953 ], [ -65.861763, -45.039863585999967 ], [ -65.861404418999939, -45.038993834999985 ] ], [ [ -65.858482360999972, -45.034553527999947 ], [ -65.858543395999959, -45.033569335999971 ], [ -65.86064147899998, -45.032478332999972 ], [ -65.862327575999984, -45.032695769999975 ], [ -65.85978698699995, -45.035011290999932 ], [ -65.858482360999972, -45.034553527999947 ] ], [ [ -66.698516845999961, -45.247474669999974 ], [ -66.696128844999976, -45.24540710399998 ], [ -66.696746825999981, -45.244071959999985 ], [ -66.698310851999963, -45.243927001999964 ], [ -66.700637816999972, -45.246063231999983 ], [ -66.699920653999982, -45.24716949499998 ], [ -66.698516845999961, -45.247474669999974 ] ], [ [ -66.404495238999971, -45.185596465999936 ], [ -66.406410216999973, -45.184116363999976 ], [ -66.40930175799997, -45.183792113999971 ], [ -66.407608031999985, -45.186370849999946 ], [ -66.404205321999939, -45.187328338999976 ], [ -66.402061461999949, -45.189266204999967 ], [ -66.403907775999983, -45.191455840999936 ], [ -66.40861511199995, -45.191879271999937 ], [ -66.409454345999961, -45.192733764999957 ], [ -66.408218383999952, -45.193752288999974 ], [ -66.400917052999944, -45.193794249999939 ], [ -66.394744872999979, -45.192295073999958 ], [ -66.392875670999956, -45.190624236999952 ], [ -66.397689818999936, -45.188663482999971 ], [ -66.402114867999956, -45.185550689999957 ], [ -66.404495238999971, -45.185596465999936 ] ], [ [ -66.509666442999958, -45.17412948599997 ], [ -66.508697509999934, -45.173202514999957 ], [ -66.510650634999934, -45.172252654999966 ], [ -66.511665343999937, -45.173786162999932 ], [ -66.509666442999958, -45.17412948599997 ] ], [ [ -66.502487182999971, -45.186164855999948 ], [ -66.501106261999951, -45.185707091999973 ], [ -66.500976561999948, -45.184658050999985 ], [ -66.504302978999988, -45.181243895999955 ], [ -66.507682799999941, -45.18059539799998 ], [ -66.507575988999974, -45.182205199999942 ], [ -66.505760192999958, -45.183185576999961 ], [ -66.505210875999978, -45.185363769999981 ], [ -66.502487182999971, -45.186164855999948 ] ], [ [ -66.487464904999968, -45.18309783899997 ], [ -66.486373900999979, -45.182270049999943 ], [ -66.48690795899995, -45.181106566999972 ], [ -66.485786437999934, -45.179401397999982 ], [ -66.489105224999946, -45.179004668999937 ], [ -66.488914489999956, -45.181282042999953 ], [ -66.489875792999953, -45.182170867999957 ], [ -66.487464904999968, -45.18309783899997 ] ], [ [ -66.515220641999974, -45.182239531999983 ], [ -66.514877318999936, -45.181201934999933 ], [ -66.515632628999981, -45.180213927999944 ], [ -66.517501830999947, -45.178298949999942 ], [ -66.518760680999947, -45.178497313999969 ], [ -66.518623351999963, -45.180583953999985 ], [ -66.515220641999974, -45.182239531999983 ] ], [ [ -66.498062133999952, -45.17858505199996 ], [ -66.502044677999947, -45.175952910999968 ], [ -66.504333495999958, -45.176567077999948 ], [ -66.503402709999932, -45.178859710999973 ], [ -66.498443603999988, -45.182006835999971 ], [ -66.495323180999947, -45.182731627999942 ], [ -66.492721557999971, -45.18081664999994 ], [ -66.492813109999986, -45.17839431799996 ], [ -66.498062133999952, -45.17858505199996 ] ], [ [ -66.49703216599994, -45.170528411999953 ], [ -66.495841979999966, -45.16962432899993 ], [ -66.496162414999958, -45.168724059999931 ], [ -66.499702453999987, -45.166973113999973 ], [ -66.500846862999936, -45.167274474999942 ], [ -66.500236510999969, -45.168525695999961 ], [ -66.49703216599994, -45.170528411999953 ] ], [ [ -66.362274169999978, -45.155094146999943 ], [ -66.360496520999959, -45.151195525999981 ], [ -66.362228393999942, -45.14937591599994 ], [ -66.364326476999963, -45.149997710999969 ], [ -66.363281249999943, -45.154747008999948 ], [ -66.362274169999978, -45.155094146999943 ] ], [ [ -66.051033019999977, -45.128883361999954 ], [ -66.050552367999956, -45.128372191999972 ], [ -66.051109313999973, -45.12772369399994 ], [ -66.053344726999967, -45.127315520999957 ], [ -66.056022643999938, -45.12907028199993 ], [ -66.060089110999968, -45.128940581999984 ], [ -66.062828063999973, -45.131645202999948 ], [ -66.060707091999973, -45.132244109999931 ], [ -66.058273314999951, -45.130683898999962 ], [ -66.053955077999944, -45.13061141999998 ], [ -66.051033019999977, -45.128883361999954 ] ], [ [ -65.938369750999982, -45.118202208999946 ], [ -65.938919066999972, -45.11804580699993 ], [ -65.940246581999986, -45.118846892999954 ], [ -65.93736267099996, -45.119266509999932 ], [ -65.938369750999982, -45.118202208999946 ] ], [ [ -66.096313476999967, -45.119525908999947 ], [ -66.09378051799996, -45.118148803999929 ], [ -66.093711852999945, -45.118022918999941 ], [ -66.09539794899996, -45.117134093999937 ], [ -66.097457885999972, -45.117897033999952 ], [ -66.097480773999962, -45.119125365999935 ], [ -66.096313476999967, -45.119525908999947 ] ], [ [ -66.035705565999933, -45.093509673999961 ], [ -66.036674499999947, -45.091766356999983 ], [ -66.038955687999987, -45.090881347999982 ], [ -66.037460326999962, -45.092765807999967 ], [ -66.035705565999933, -45.093509673999961 ] ], [ [ -66.044998168999939, -45.09160232499994 ], [ -66.04387664799998, -45.09103012099996 ], [ -66.042297362999932, -45.090576171999942 ], [ -66.045562743999938, -45.090240478999931 ], [ -66.046028136999951, -45.091506957999968 ], [ -66.044998168999939, -45.09160232499994 ] ], [ [ -66.294929503999981, -45.07782745399993 ], [ -66.296127318999936, -45.076236724999944 ], [ -66.300445556999932, -45.075836181999932 ], [ -66.298385619999976, -45.077693938999971 ], [ -66.294929503999981, -45.07782745399993 ] ], [ [ -66.401062011999954, -45.069725036999955 ], [ -66.401390075999984, -45.068725585999971 ], [ -66.402420043999939, -45.068824767999956 ], [ -66.402297973999964, -45.069576262999931 ], [ -66.401062011999954, -45.069725036999955 ] ], [ [ -66.40806579599996, -45.088382720999959 ], [ -66.409362792999957, -45.085929870999962 ], [ -66.409980773999962, -45.08714675899995 ], [ -66.409065246999944, -45.08901977499994 ], [ -66.410530089999952, -45.090377807999971 ], [ -66.409957885999972, -45.091388701999961 ], [ -66.407508849999942, -45.089759826999966 ], [ -66.40294647199994, -45.088680266999972 ], [ -66.405952453999987, -45.087993621999942 ], [ -66.40806579599996, -45.088382720999959 ] ], [ [ -66.407180785999969, -45.085289000999978 ], [ -66.404335021999941, -45.084335326999962 ], [ -66.40309143099995, -45.082401275999985 ], [ -66.408523559999935, -45.083694457999968 ], [ -66.409378051999965, -45.084785460999967 ], [ -66.407180785999969, -45.085289000999978 ] ], [ [ -65.715225219999979, -45.058197020999955 ], [ -65.715087890999939, -45.057418822999978 ], [ -65.717132567999954, -45.057308196999941 ], [ -65.716529845999958, -45.058124541999973 ], [ -65.715225219999979, -45.058197020999955 ] ], [ [ -66.334312438999973, -45.057170867999957 ], [ -66.335540770999955, -45.056632995999962 ], [ -66.335876464999956, -45.05458068799993 ], [ -66.337318419999974, -45.053611754999963 ], [ -66.342864989999953, -45.05210113499993 ], [ -66.344314574999942, -45.053390502999946 ], [ -66.343849181999985, -45.054599761999953 ], [ -66.339424132999966, -45.057357787999933 ], [ -66.333572387999936, -45.058715819999975 ], [ -66.334312438999973, -45.057170867999957 ] ], [ [ -66.33896636999998, -45.066089629999965 ], [ -66.338020324999945, -45.065872191999972 ], [ -66.338478087999988, -45.063579558999947 ], [ -66.341552733999947, -45.064735412999937 ], [ -66.340759276999961, -45.065891265999937 ], [ -66.33896636999998, -45.066089629999965 ] ], [ [ -65.573272704999965, -45.065887450999981 ], [ -65.572532653999986, -45.06547164899996 ], [ -65.575607299999945, -45.063751220999961 ], [ -65.578224181999985, -45.06385421799996 ], [ -65.57727050799997, -45.065181731999985 ], [ -65.573272704999965, -45.065887450999981 ] ], [ [ -65.807609557999967, -45.065052031999983 ], [ -65.807434081999986, -45.063812255999949 ], [ -65.805175780999946, -45.062705993999941 ], [ -65.806381225999985, -45.061027526999965 ], [ -65.811172484999986, -45.062461852999945 ], [ -65.812141417999953, -45.063480376999962 ], [ -65.810371398999962, -45.067398070999957 ], [ -65.808090209999932, -45.067550658999949 ], [ -65.809799193999936, -45.066154479999966 ], [ -65.807609557999967, -45.065052031999983 ] ], [ [ -65.615791320999961, -45.061538695999957 ], [ -65.619918822999978, -45.059440612999936 ], [ -65.624809264999953, -45.060184478999986 ], [ -65.620613097999978, -45.062267302999942 ], [ -65.615791320999961, -45.061538695999957 ] ], [ [ -65.581001281999988, -45.059551238999973 ], [ -65.584075927999947, -45.057838439999955 ], [ -65.584716796999942, -45.056575774999942 ], [ -65.588813781999988, -45.056060790999936 ], [ -65.591018676999965, -45.056583404999969 ], [ -65.590820312999938, -45.058158874999947 ], [ -65.59287261999998, -45.060173034999934 ], [ -65.590141295999956, -45.061447143999942 ], [ -65.585693358999947, -45.06099319499998 ], [ -65.580009459999985, -45.063415526999961 ], [ -65.577705382999966, -45.063053130999947 ], [ -65.57730102499994, -45.05945205699993 ], [ -65.581001281999988, -45.059551238999973 ] ], [ [ -66.319763183999953, -45.066326140999934 ], [ -66.32336425799997, -45.066024779999964 ], [ -66.323814391999974, -45.066562652999949 ], [ -66.317810058999953, -45.068958281999983 ], [ -66.315849303999983, -45.068737029999966 ], [ -66.318878173999963, -45.067520141999978 ], [ -66.319763183999953, -45.066326140999934 ] ], [ [ -66.027885436999952, -45.100620269999979 ], [ -66.026939391999974, -45.099697112999934 ], [ -66.029777526999965, -45.099380492999956 ], [ -66.029266356999983, -45.10034942599998 ], [ -66.027885436999952, -45.100620269999979 ] ], [ [ -65.964141845999961, -45.098602294999978 ], [ -65.964073180999947, -45.096828460999973 ], [ -65.965713500999982, -45.096038817999954 ], [ -65.966476439999951, -45.096424102999947 ], [ -65.966888427999947, -45.097366332999968 ], [ -65.966247558999953, -45.098747252999942 ], [ -65.964141845999961, -45.098602294999978 ] ], [ [ -65.950836181999932, -45.108772277999947 ], [ -65.955924987999936, -45.106346129999963 ], [ -65.955886840999938, -45.105247497999983 ], [ -65.959533690999933, -45.102371215999938 ], [ -65.961891173999959, -45.102127074999942 ], [ -65.963684081999986, -45.103725432999966 ], [ -65.962745666999979, -45.105922698999962 ], [ -65.960311889999957, -45.107837676999964 ], [ -65.953285216999973, -45.109100341999977 ], [ -65.953758239999956, -45.11218643199993 ], [ -65.957557677999944, -45.116794585999969 ], [ -65.957145690999937, -45.117820739999956 ], [ -65.953926085999967, -45.119010924999941 ], [ -65.950332641999978, -45.118053435999968 ], [ -65.947334289999958, -45.119327544999976 ], [ -65.945442199999945, -45.118816375999984 ], [ -65.94443511999998, -45.110095977999947 ], [ -65.944824218999941, -45.108131408999952 ], [ -65.950836181999932, -45.108772277999947 ] ], [ [ -66.419548034999934, -45.096458434999931 ], [ -66.416114806999985, -45.095748900999979 ], [ -66.414962768999942, -45.09457778899997 ], [ -66.41997528099995, -45.09432983399995 ], [ -66.42137908899997, -45.095630645999961 ], [ -66.419548034999934, -45.096458434999931 ] ], [ [ -65.992973327999948, -45.091079711999953 ], [ -65.998725890999935, -45.087814330999947 ], [ -66.003982543999939, -45.08678817699996 ], [ -66.005455016999974, -45.082241057999966 ], [ -66.010681151999961, -45.079376220999961 ], [ -66.013130187999934, -45.080181121999942 ], [ -66.013488769999981, -45.082740783999952 ], [ -66.01975250199996, -45.08640670799997 ], [ -66.019149779999964, -45.089309691999972 ], [ -66.015663146999941, -45.092384337999931 ], [ -66.015258788999972, -45.098247527999945 ], [ -66.007835387999933, -45.104248046999942 ], [ -66.002777099999946, -45.104846953999981 ], [ -66.001937865999935, -45.105953216999978 ], [ -65.994262694999975, -45.105541228999982 ], [ -65.994018554999968, -45.108139037999933 ], [ -65.993186950999984, -45.109043120999956 ], [ -65.987213134999934, -45.109409331999984 ], [ -65.983970641999974, -45.107154845999958 ], [ -65.98033142099996, -45.108390807999967 ], [ -65.976768493999941, -45.107574462999935 ], [ -65.972473144999981, -45.109233855999946 ], [ -65.970893859999933, -45.110702514999957 ], [ -65.96756744399994, -45.110958098999959 ], [ -65.964126586999953, -45.108886718999941 ], [ -65.965011596999943, -45.106952666999973 ], [ -65.971618651999961, -45.105548858999953 ], [ -65.972999572999981, -45.106090545999962 ], [ -65.981010436999952, -45.105339049999941 ], [ -65.985931395999955, -45.103279113999974 ], [ -65.987716674999945, -45.101448058999949 ], [ -65.988105773999962, -45.099628447999976 ], [ -65.986015319999979, -45.097911834999934 ], [ -65.986206054999968, -45.096797942999956 ], [ -65.985267638999971, -45.095417022999982 ], [ -65.982322692999958, -45.094646453999985 ], [ -65.982017516999974, -45.093761443999938 ], [ -65.98602294899996, -45.092006682999966 ], [ -65.986755370999958, -45.089450835999969 ], [ -65.988777160999973, -45.088382720999959 ], [ -65.990188598999964, -45.088813781999932 ], [ -65.99153137199994, -45.090835570999957 ], [ -65.992973327999948, -45.091079711999953 ] ], [ [ -65.965980529999968, -45.052993773999958 ], [ -65.964363097999978, -45.052165984999931 ], [ -65.962875365999935, -45.049915313999975 ], [ -65.965766906999988, -45.048923491999972 ], [ -65.969406127999946, -45.050537108999947 ], [ -65.967521666999971, -45.052837371999942 ], [ -65.965980529999968, -45.052993773999958 ] ], [ [ -65.623359679999965, -45.053794860999972 ], [ -65.625892638999971, -45.052368163999972 ], [ -65.626258849999942, -45.052593230999946 ], [ -65.625572204999969, -45.055652617999954 ], [ -65.62288665799997, -45.056236266999974 ], [ -65.621978759999934, -45.055114745999958 ], [ -65.62078857399996, -45.05498886099997 ], [ -65.621543883999948, -45.05403137199994 ], [ -65.623359679999965, -45.053794860999972 ] ], [ [ -65.710403441999972, -45.052825927999947 ], [ -65.717658996999944, -45.048358916999973 ], [ -65.720703124999943, -45.049369811999952 ], [ -65.720649718999937, -45.050083159999986 ], [ -65.71952056899994, -45.050220488999969 ], [ -65.72039794899996, -45.05243682899993 ], [ -65.722419738999974, -45.052837371999942 ], [ -65.723007201999962, -45.053901671999938 ], [ -65.721603393999942, -45.055088042999955 ], [ -65.712936400999979, -45.058113097999978 ], [ -65.710380553999983, -45.057350158999952 ], [ -65.706481933999953, -45.057796477999943 ], [ -65.704910277999943, -45.056964873999959 ], [ -65.704803466999977, -45.055683135999971 ], [ -65.70777130099998, -45.055034636999949 ], [ -65.710403441999972, -45.052825927999947 ] ], [ [ -65.597587584999985, -45.043430327999943 ], [ -65.603004455999951, -45.041053771999941 ], [ -65.607032775999983, -45.043788909999932 ], [ -65.608306884999934, -45.043498992999957 ], [ -65.60923767099996, -45.041984557999967 ], [ -65.611297606999983, -45.043216704999963 ], [ -65.616394042999957, -45.042263030999948 ], [ -65.618713378999985, -45.043407439999953 ], [ -65.618392943999936, -45.045948028999931 ], [ -65.622573852999949, -45.04459381099997 ], [ -65.624015807999967, -45.046058654999968 ], [ -65.622589110999968, -45.049587249999945 ], [ -65.615478515999939, -45.05447006199995 ], [ -65.61454772899998, -45.055870055999947 ], [ -65.61509704599996, -45.058559417999959 ], [ -65.616630553999983, -45.060024260999967 ], [ -65.614295958999946, -45.060279845999958 ], [ -65.612854003999985, -45.059425353999984 ], [ -65.609291076999966, -45.060203551999962 ], [ -65.604293822999978, -45.05854415899995 ], [ -65.602455138999971, -45.056735991999972 ], [ -65.599861144999977, -45.057540893999942 ], [ -65.597671508999952, -45.05604171799996 ], [ -65.595954894999977, -45.056388854999966 ], [ -65.59468841599994, -45.055389403999982 ], [ -65.594741820999957, -45.054134368999939 ], [ -65.58951568599997, -45.05438232399996 ], [ -65.586624145999963, -45.052265166999973 ], [ -65.588043212999935, -45.051074981999932 ], [ -65.585937499999943, -45.050685882999971 ], [ -65.585090636999951, -45.046371459999932 ], [ -65.590347289999954, -45.04250335699993 ], [ -65.592987060999974, -45.042427062999934 ], [ -65.59253692599998, -45.043647765999935 ], [ -65.595336913999972, -45.04506301899994 ], [ -65.597587584999985, -45.043430327999943 ] ] ] } }
]
}
