{
"type": "FeatureCollection",
"name": "Veda 2014",
"crs": { "type": "name", "properties": { "name": "urn:ogc:def:crs:OGC:1.3:CRS84" } },
"features": [
{ "type": "Feature", "properties": { "id": null, "Name": "Object ID 15", "description": null, "timestamp": null, "begin": null, "end": null, "altitudeMode": null, "tessellate": -1, "extrude": 0, "visibility": -1, "drawOrder": null, "icon": null }, "geometry": { "type": "LineString", "coordinates": [ [ -63.665, -43.0, 0.0 ], [ -63.732, -43.016, 0.0 ], [ -63.732, -43.016, 0.0 ], [ -63.801, -43.021, 0.0 ], [ -63.801, -43.021, 0.0 ], [ -63.867, -43.03, 0.0 ], [ -63.867, -43.03, 0.0 ], [ -63.934, -43.043, 0.0 ], [ -63.934, -43.043, 0.0 ], [ -63.969, -43.087, 0.0 ], [ -63.969, -43.087, 0.0 ], [ -64.022, -43.095, 0.0 ], [ -64.013, -43.093, 0.0 ], [ -64.023, -43.099, 0.0 ], [ -64.04, -43.099, 0.0 ], [ -64.053, -43.103, 0.0 ], [ -64.062, -43.106, 0.0 ], [ -64.087, -43.109, 0.0 ], [ -64.09, -43.112, 0.0 ], [ -64.096, -43.12, 0.0 ], [ -64.1, -43.126, 0.0 ], [ -64.111, -43.134, 0.0 ], [ -64.122, -43.15, 0.0 ], [ -64.179, -43.176, 0.0 ], [ -64.194, -43.177, 0.0 ], [ -64.235, -43.198, 0.0 ], [ -64.242, -43.205, 0.0 ], [ -64.253, -43.209, 0.0 ], [ -64.263, -43.217, 0.0 ], [ -64.274, -43.222, 0.0 ], [ -64.301, -43.239, 0.0 ], [ -64.313, -43.237, 0.0 ], [ -64.322, -43.237, 0.0 ], [ -64.35, -43.248, 0.0 ], [ -64.374, -43.258, 0.0 ], [ -64.401, -43.279, 0.0 ], [ -64.42, -43.279, 0.0 ], [ -64.426, -43.294, 0.0 ], [ -64.443, -43.305, 0.0 ], [ -64.463, -43.31, 0.0 ], [ -64.526, -43.325, 0.0 ], [ -64.548, -43.332, 0.0 ], [ -64.577, -43.339, 0.0 ], [ -64.602, -43.344, 0.0 ], [ -64.63, -43.361, 0.0 ], [ -64.654, -43.367, 0.0 ], [ -64.667, -43.371, 0.0 ], [ -64.678, -43.378, 0.0 ], [ -64.689, -43.386, 0.0 ], [ -64.693, -43.393, 0.0 ], [ -64.718, -43.392, 0.0 ], [ -64.72, -43.399, 0.0 ], [ -64.738, -43.397, 0.0 ], [ -64.745, -43.405, 0.0 ], [ -64.766, -43.415, 0.0 ], [ -64.798, -43.415, 0.0 ], [ -64.797, -43.43, 0.0 ], [ -64.813, -43.445, 0.0 ], [ -64.821, -43.505, 0.0 ], [ -64.838, -43.519, 0.0 ], [ -64.849, -43.536, 0.0 ], [ -64.859, -43.547, 0.0 ], [ -64.86, -43.557, 0.0 ], [ -64.875, -43.576, 0.0 ], [ -64.896, -43.588, 0.0 ], [ -64.908, -43.598, 0.0 ], [ -64.926, -43.61, 0.0 ], [ -64.931, -43.618, 0.0 ], [ -64.946, -43.64, 0.0 ], [ -64.969, -43.656, 0.0 ], [ -64.984, -43.672, 0.0 ], [ -65.004, -43.704, 0.0 ], [ -64.995, -43.727, 0.0 ], [ -64.991, -43.74, 0.0 ], [ -64.988, -43.725, 0.0 ], [ -65.03, -43.846, 0.0 ], [ -65.012, -43.855, 0.0 ], [ -64.988, -43.87, 0.0 ], [ -64.971, -43.917, 0.0 ], [ -64.962, -43.932, 0.0 ], [ -64.952, -43.941, 0.0 ], [ -64.952, -43.942, 0.0 ], [ -64.947, -43.949, 0.0 ], [ -64.945, -43.952, 0.0 ], [ -64.937, -43.955, 0.0 ], [ -64.932, -43.957, 0.0 ], [ -64.903, -43.999, 0.0 ], [ -64.89, -44.028, 0.0 ], [ -64.891, -44.034, 0.0 ], [ -64.889, -44.042, 0.0 ], [ -64.893, -44.05, 0.0 ], [ -64.893, -44.067, 0.0 ], [ -64.895, -44.091, 0.0 ], [ -64.905, -44.102, 0.0 ], [ -64.925, -44.115, 0.0 ], [ -64.917, -44.117, 0.0 ], [ -64.935, -44.145, 0.0 ], [ -64.937, -44.162, 0.0 ], [ -64.923, -44.171, 0.0 ], [ -64.904, -44.181, 0.0 ], [ -64.879, -44.194, 0.0 ], [ -64.916, -44.214, 0.0 ], [ -64.917, -44.22, 0.0 ], [ -64.941, -44.231, 0.0 ], [ -64.941, -44.234, 0.0 ], [ -64.913, -44.24, 0.0 ], [ -64.879, -44.257, 0.0 ], [ -64.821, -44.301, 0.0 ], [ -64.812, -44.354, 0.0 ], [ -64.802, -44.405, 0.0 ], [ -64.807, -44.438, 0.0 ], [ -64.877, -44.552, 0.0 ], [ -64.906, -44.575, 0.0 ], [ -64.993, -44.612, 0.0 ], [ -64.999, -44.584, 0.0 ], [ -65.006, -44.6, 0.0 ], [ -65.051, -44.639, 0.0 ], [ -65.109, -44.657, 0.0 ], [ -65.239, -44.91, 0.0 ], [ -65.211, -44.942, 0.0 ], [ -65.193, -44.954, 0.0 ], [ -65.176, -44.964, 0.0 ], [ -65.125, -44.992, 0.0 ], [ -65.117, -44.988, 0.0 ], [ -65.128, -44.992, 0.0 ], [ -65.113, -45.002, 0.0 ], [ -65.088, -45.038, 0.0 ], [ -65.082, -45.07, 0.0 ], [ -65.077, -45.109, 0.0 ], [ -65.082, -45.141, 0.0 ], [ -65.09, -45.173, 0.0 ], [ -65.1, -45.191, 0.0 ], [ -65.114, -45.214, 0.0 ], [ -65.141, -45.237, 0.0 ], [ -65.166, -45.258, 0.0 ], [ -65.201, -45.292, 0.0 ], [ -65.241, -45.31, 0.0 ], [ -65.27, -45.325, 0.0 ], [ -65.563, -47.0, 0.0 ], [ -65.0, -47.0, 0.0 ], [ -65.0, -48.0, 0.0 ], [ -64.0, -48.0, 0.0 ], [ -64.0, -47.5, 0.0 ], [ -63.0, -47.5, 0.0 ], [ -63.0, -47.0, 0.0 ], [ -62.0, -47.0, 0.0 ], [ -62.0, -45.0, 0.0 ], [ -61.5, -45.0, 0.0 ], [ -61.5, -44.0, 0.0 ], [ -60.0, -44.0, 0.0 ], [ -60.0, -42.0, 0.0 ], [ -59.0, -42.0, 0.0 ], [ -59.0, -41.0, 0.0 ], [ -60.0, -41.0, 0.0 ], [ -60.0, -42.0, 0.0 ], [ -63.0, -42.0, 0.0 ], [ -63.0, -43.0, 0.0 ], [ -63.665, -43.0, 0.0 ] ] } }
]
}
