{
"type": "FeatureCollection",
"name": "Veda_02-10",
"crs": { "type": "name", "properties": { "name": "urn:ogc:def:crs:OGC:1.3:CRS84" } },
"features": [
{ "type": "Feature", "properties": { "id": null, "Name": "Object ID 15", "description": null, "timestamp": null, "begin": null, "end": null, "altitudeMode": null, "tessellate": -1, "extrude": 0, "visibility": -1, "drawOrder": null, "icon": null }, "geometry": { "type": "LineString", "coordinates": [ [ -59.258269522916272, -38.900725222571104, 0.0 ], [ -59.258269522916272, -39.255423485934301, 0.0 ], [ -61.50730471516151, -41.254968904400549, 0.0 ], [ -62.621361682170146, -41.251021446318113, 0.0 ], [ -62.20293652938151, -41.061260953827841, 0.0 ], [ -62.160002449058794, -41.030255314988317, 0.0 ], [ -62.10152142426363, -40.987998488980764, 0.0 ], [ -62.087869614172298, -40.930479687390594, 0.0 ], [ -62.054923323976801, -40.876829936974154, 0.0 ], [ -62.025105841169925, -40.831228989037974, 0.0 ], [ -61.98849363927097, -40.767629864633918, 0.0 ], [ -61.841617068212607, -40.668500604056021, 0.0 ], [ -61.753129490932466, -40.540559246469584, 0.0 ], [ -61.742668863500022, -40.384746710092685, 0.0 ], [ -61.72657663062796, -40.144340018337985, 0.0 ], [ -61.847275151276797, -39.842586677792298, 0.0 ], [ -61.789741692831413, -39.527355707692145, 0.0 ], [ -61.432997879973598, -39.184479205995707, 0.0 ], [ -61.209176793820632, -39.190326524603918, 0.0 ], [ -61.003885050674668, -39.180815929845224, 0.0 ], [ -60.769830384485566, -39.169971246402376, 0.0 ], [ -60.244939016069317, -39.06937475759738, 0.0 ], [ -59.666234046590922, -39.006915264880725, 0.0 ], [ -59.258269522916272, -38.900725222571104, 0.0 ] ] } }
]
}
