{
"type": "FeatureCollection",
"name": "ZCP",
"crs": { "type": "name", "properties": { "name": "urn:ogc:def:crs:OGC:1.3:CRS84" } },
"features": [
{ "type": "Feature", "properties": { "RECNUM": "0", "RECNUM_2": null }, "geometry": { "type": "MultiLineString", "coordinates": [ [ [ -55.872001647949219, -35.638000488281243 ], [ -54.286998748779297, -37.098999023437493 ], [ -53.237998962402344, -37.570999145507805 ], [ -52.803001403808594, -37.814998626708977 ] ] ] } },
{ "type": "Feature", "properties": { "RECNUM": null, "RECNUM_2": "1" }, "geometry": { "type": "MultiLineString", "coordinates": [ [ [ -50.875, -35.319999694824212 ], [ -50.875, -35.451999664306634 ], [ -50.88800048828125, -35.492000579833977 ], [ -50.891998291015625, -35.525001525878899 ], [ -50.904998779296875, -35.595001220703118 ], [ -50.915000915527344, -35.625 ], [ -50.944999694824219, -35.72700119018554 ], [ -50.972000122070312, -35.846000671386712 ], [ -51.006000518798828, -35.926998138427727 ], [ -51.034000396728516, -36.026000976562493 ], [ -51.064998626708984, -36.099998474121087 ], [ -51.109001159667969, -36.180999755859368 ], [ -51.147998809814453, -36.265998840332024 ], [ -51.187000274658203, -36.342998504638665 ], [ -51.224998474121094, -36.41199874877929 ], [ -51.278999328613281, -36.493999481201165 ], [ -51.333999633789062, -36.583999633789055 ], [ -51.368999481201172, -36.647998809814446 ], [ -51.404998779296875, -36.68799972534179 ], [ -51.437000274658203, -36.730998992919915 ], [ -51.476001739501953, -36.784000396728509 ], [ -51.516998291015625, -36.835998535156243 ], [ -51.576000213623047, -36.897998809814446 ], [ -51.622001647949219, -36.950000762939446 ], [ -51.673000335693359, -37.006000518798821 ], [ -51.712001800537109, -37.05400085449218 ], [ -51.787998199462891, -37.122001647949212 ], [ -51.841999053955078, -37.172000885009759 ], [ -51.890998840332031, -37.21400070190429 ], [ -51.963001251220703, -37.276000976562493 ], [ -52.041000366210938, -37.33900070190429 ], [ -52.094001770019531, -37.388999938964837 ], [ -52.180000305175781, -37.44200134277343 ], [ -52.248001098632812, -37.502998352050774 ], [ -52.327999114990234, -37.548999786376946 ], [ -52.426998138427734, -37.611999511718743 ], [ -52.485000610351562, -37.645000457763665 ], [ -52.544998168945312, -37.681999206542962 ], [ -52.575000762939453, -37.701999664306634 ], [ -52.639999389648438, -37.736000061035149 ], [ -52.695999145507812, -37.76499938964843 ], [ -52.757999420166016, -37.801998138427727 ], [ -52.840999603271484, -37.833999633789055 ], [ -52.909999847412109, -37.868000030517571 ], [ -52.972999572753906, -37.897998809814446 ], [ -53.051998138427734, -37.92900085449218 ], [ -53.13800048828125, -37.963001251220696 ], [ -53.157001495361328, -37.974998474121087 ], [ -53.229999542236328, -37.992000579833977 ], [ -53.245998382568359, -38.041999816894524 ], [ -53.284999847412109, -38.070999145507805 ], [ -53.314998626708984, -38.120998382568352 ], [ -53.347999572753906, -38.155998229980462 ], [ -53.388999938964844, -38.201999664306634 ], [ -53.435001373291016, -38.258998870849602 ], [ -53.506999969482422, -38.325000762939446 ], [ -53.563999176025391, -38.377998352050774 ], [ -53.606998443603516, -38.42499923706054 ], [ -53.668998718261719, -38.476001739501946 ], [ -53.731998443603516, -38.534000396728509 ], [ -53.785999298095703, -38.576999664306634 ], [ -53.856998443603516, -38.636001586914055 ], [ -53.919998168945312, -38.686000823974602 ], [ -53.990001678466797, -38.730998992919915 ], [ -54.058998107910156, -38.784000396728509 ], [ -54.117000579833984, -38.827999114990227 ], [ -54.208999633789062, -38.872001647949212 ], [ -54.256000518798828, -38.910999298095696 ], [ -54.361000061035156, -38.972000122070305 ], [ -54.437000274658203, -39.015998840332024 ], [ -54.51300048828125, -39.048000335693352 ], [ -54.604000091552734, -39.097000122070305 ], [ -54.694999694824219, -39.134998321533196 ], [ -54.758998870849609, -39.16600036621093 ], [ -54.853000640869141, -39.201999664306634 ], [ -54.970001220703125, -39.244998931884759 ], [ -55.009998321533203, -39.266998291015618 ], [ -55.105998992919922, -39.297000885009759 ], [ -55.212001800537109, -39.333000183105462 ], [ -55.381000518798828, -39.377998352050774 ], [ -55.499000549316406, -39.408000946044915 ], [ -55.652999877929688, -39.444999694824212 ], [ -55.778999328613281, -39.472000122070305 ], [ -55.958999633789062, -39.502998352050774 ], [ -56.123001098632812, -39.526000976562493 ], [ -56.271999359130859, -39.54100036621093 ], [ -56.459999084472656, -39.55400085449218 ], [ -56.596000671386719, -39.55400085449218 ], [ -56.770000457763672, -39.557998657226555 ], [ -56.861000061035156, -39.557998657226555 ], [ -56.949001312255859, -39.551998138427727 ], [ -57.0, -39.535999298095696 ], [ -57.112998962402344, -39.535999298095696 ], [ -57.160999298095703, -39.521999359130852 ], [ -57.312000274658203, -39.521999359130852 ], [ -57.393001556396484, -39.512001037597649 ], [ -57.491001129150391, -39.500999450683587 ], [ -57.548999786376953, -39.486000061035149 ], [ -57.645999908447266, -39.472999572753899 ], [ -57.707000732421875, -39.460998535156243 ], [ -57.783000946044922, -39.448001861572259 ], [ -57.866001129150391, -39.430999755859368 ], [ -57.942001342773438, -39.416999816894524 ], [ -58.028999328613281, -39.395999908447259 ], [ -58.115001678466797, -39.368000030517571 ], [ -58.203998565673828, -39.346000671386712 ], [ -58.265998840332031, -39.319000244140618 ], [ -58.333000183105469, -39.303001403808587 ], [ -58.400001525878906, -39.280998229980462 ], [ -58.479999542236328, -39.245998382568352 ], [ -58.541000366210938, -39.229000091552727 ], [ -58.619998931884766, -39.199001312255852 ], [ -58.701999664306641, -39.16199874877929 ], [ -58.782001495361328, -39.130001068115227 ], [ -58.855998992919922, -39.103000640869134 ], [ -58.923999786376953, -39.069000244140618 ], [ -58.967998504638672, -39.048999786376946 ], [ -59.020999908447266, -39.021999359130852 ], [ -59.082000732421875, -38.980998992919915 ], [ -59.140998840332031, -38.952999114990227 ], [ -59.185001373291016, -38.932998657226555 ], [ -59.219001770019531, -38.912998199462884 ], [ -59.141998291015625, -38.891998291015618 ], [ -59.062000274658203, -38.859001159667962 ], [ -58.933998107910156, -38.838001251220696 ], [ -58.807998657226562, -38.808998107910149 ], [ -58.674999237060547, -38.780998229980462 ], [ -58.606998443603516, -38.759998321533196 ], [ -58.525001525878906, -38.748001098632805 ], [ -58.479999542236328, -38.730998992919915 ], [ -58.402999877929688, -38.71400070190429 ], [ -58.3489990234375, -38.695999145507805 ], [ -58.242000579833984, -38.668998718261712 ], [ -58.194999694824219, -38.655998229980462 ], [ -58.136001586914062, -38.63999938964843 ], [ -58.058998107910156, -38.605998992919915 ], [ -57.966999053955078, -38.57600021362304 ], [ -57.868999481201172, -38.533000946044915 ], [ -57.773998260498047, -38.494998931884759 ], [ -57.708000183105469, -38.462001800537102 ], [ -57.644001007080078, -38.423000335693352 ], [ -57.558998107910156, -38.379001617431634 ], [ -57.480998992919922, -38.345001220703118 ], [ -57.435001373291016, -38.311000823974602 ], [ -57.386001586914062, -38.268001556396477 ], [ -57.340999603271484, -38.230998992919915 ], [ -57.307998657226562, -38.200000762939446 ], [ -57.279998779296875, -38.169998168945305 ], [ -57.256000518798828, -38.106998443603509 ], [ -57.238998413085938, -38.002998352050774 ], [ -57.238998413085938, -37.939998626708977 ], [ -57.231998443603516, -37.909000396728509 ], [ -57.209999084472656, -37.882999420166009 ], [ -57.194999694824219, -37.872001647949212 ], [ -57.178001403808594, -37.842998504638665 ], [ -57.133998870849609, -37.81700134277343 ], [ -57.118000030517578, -37.801998138427727 ], [ -57.101001739501953, -37.783000946044915 ], [ -57.057998657226562, -37.743999481201165 ], [ -57.004001617431641, -37.702999114990227 ], [ -56.983001708984375, -37.675998687744134 ], [ -56.894001007080078, -37.617000579833977 ], [ -56.870998382568359, -37.566001892089837 ], [ -56.851001739501953, -37.52399826049804 ], [ -56.793998718261719, -37.453998565673821 ], [ -56.743000030517578, -37.379001617431634 ], [ -56.705001831054688, -37.326999664306634 ], [ -56.668998718261719, -37.268001556396477 ], [ -56.625, -37.213001251220696 ], [ -56.583999633789062, -37.167999267578118 ], [ -56.560001373291016, -37.125 ], [ -56.498001098632812, -37.06700134277343 ], [ -56.474998474121094, -37.043998718261712 ], [ -56.437999725341797, -36.997001647949212 ], [ -56.409000396728516, -36.958999633789055 ], [ -56.408000946044922, -36.930000305175774 ], [ -56.395999908447266, -36.904998779296868 ], [ -56.395999908447266, -36.879001617431634 ], [ -56.395999908447266, -36.828998565673821 ], [ -56.404998779296875, -36.757999420166009 ], [ -56.404998779296875, -36.726001739501946 ], [ -56.404998779296875, -36.681999206542962 ], [ -56.409000396728516, -36.654998779296868 ], [ -56.416000366210938, -36.598999023437493 ], [ -56.423000335693359, -36.541999816894524 ], [ -56.423000335693359, -36.47700119018554 ], [ -56.436000823974609, -36.423999786376946 ], [ -56.445999145507812, -36.401000976562493 ], [ -56.458999633789062, -36.351001739501946 ], [ -56.4739990234375, -36.306999206542962 ], [ -56.491001129150391, -36.269001007080071 ], [ -56.506999969482422, -36.244998931884759 ], [ -56.523998260498047, -36.220001220703118 ], [ -56.549999237060547, -36.199001312255852 ], [ -56.583000183105469, -36.165000915527337 ], [ -56.766998291015625, -36.29999923706054 ], [ -55.190025210449214, -35.133023945387137 ], [ -55.082000732421875, -35.188999176025384 ], [ -55.023998260498047, -35.215999603271477 ], [ -54.990001678466797, -35.233001708984368 ], [ -54.951999664306641, -35.233001708984368 ], [ -54.895999908447266, -35.242000579833977 ], [ -54.865001678466797, -35.236999511718743 ], [ -54.841999053955078, -35.236999511718743 ], [ -54.826999664306641, -35.234001159667962 ], [ -54.805000305175781, -35.234001159667962 ], [ -54.796001434326172, -35.22700119018554 ], [ -54.7760009765625, -35.219001770019524 ], [ -54.755001068115234, -35.208999633789055 ], [ -54.733001708984375, -35.200000762939446 ], [ -54.706001281738281, -35.187000274658196 ], [ -54.691001892089844, -35.17499923706054 ], [ -54.680999755859375, -35.159999847412102 ], [ -54.668998718261719, -35.141998291015618 ], [ -54.660999298095703, -35.130001068115227 ], [ -54.654998779296875, -35.11399841308593 ], [ -54.654998779296875, -35.090999603271477 ], [ -54.654998779296875, -35.082000732421868 ], [ -54.633998870849609, -35.082000732421868 ], [ -54.603000640869141, -35.083999633789055 ], [ -54.58599853515625, -35.077999114990227 ], [ -54.557998657226562, -35.069999694824212 ], [ -54.528999328613281, -35.058998107910149 ], [ -54.499000549316406, -35.051998138427727 ], [ -54.452999114990234, -35.020999908447259 ], [ -54.431999206542969, -34.993999481201165 ], [ -54.369998931884766, -34.95100021362304 ], [ -54.297000885009766, -34.930999755859368 ], [ -54.249000549316406, -34.909999847412102 ], [ -54.234001159667969, -34.88999938964843 ], [ -54.105998992919922, -34.88999938964843 ], [ -54.068000793457031, -34.883998870849602 ], [ -54.037998199462891, -34.859001159667962 ], [ -53.999000549316406, -34.833999633789055 ], [ -53.972999572753906, -34.810001373291009 ], [ -53.945999145507812, -34.766998291015618 ], [ -53.916999816894531, -34.735000610351555 ], [ -53.88800048828125, -34.700000762939446 ], [ -53.847000122070312, -34.673000335693352 ], [ -53.798999786376953, -34.673000335693352 ], [ -53.771999359130859, -34.641998291015618 ], [ -53.743999481201172, -34.618999481201165 ], [ -53.715000152587891, -34.618999481201165 ], [ -53.680999755859375, -34.604000091552727 ], [ -53.659999847412109, -34.595001220703118 ], [ -53.639999389648438, -34.577999114990227 ], [ -53.618000030517578, -34.556999206542962 ], [ -53.595001220703125, -34.52799987792968 ], [ -53.582000732421875, -34.504001617431634 ], [ -53.571998596191406, -34.462001800537102 ], [ -53.570999145507812, -34.430999755859368 ], [ -53.580001831054688, -34.414001464843743 ], [ -53.580001831054688, -34.386001586914055 ], [ -53.568000793457031, -34.370998382568352 ], [ -53.540000915527344, -34.358001708984368 ], [ -53.508998870849609, -34.333000183105462 ], [ -53.485000610351562, -34.307998657226555 ], [ -53.462001800537109, -34.282001495361321 ], [ -53.426998138427734, -34.256999969482415 ], [ -53.388999938964844, -34.226001739501946 ], [ -53.344001770019531, -34.171001434326165 ], [ -53.319999694824219, -34.111000061035149 ], [ -53.310001373291016, -34.083999633789055 ], [ -53.298999786376953, -34.048999786376946 ], [ -53.286998748779297, -34.00199890136718 ], [ -53.286199188232423, -34.0 ], [ -52.924429098999191, -34.0 ], [ -50.875, -35.319999694824212 ] ], [ [ -55.190025210449214, -35.133023945387137 ], [ -54.939998626708984, -34.948001861572259 ], [ -55.192001342773438, -35.131999969482415 ], [ -55.190025210449214, -35.133023945387137 ] ] ] } }
]
}
