{
"type": "FeatureCollection",
"name": "zona_economica_exclusiva",
"crs": { "type": "name", "properties": { "name": "urn:ogc:def:crs:OGC:1.3:CRS84" } },
"features": [
{ "type": "Feature", "properties": { "name": "Zona Económica Exclusiva", "cmt": null, "desc": null, "src": null, "link1_href": null, "link1_text": null, "link1_type": null, "link2_href": null, "link2_text": null, "link2_type": null, "number": null, "type": null, "gpxx_TrackExtension": "        <gpxx:DisplayColor>Red</gpxx:DisplayColor>      ", "opencpn_guid": "31f50000-09aa-46cf-a0ca-e64b34000000", "opencpn_viz": 1, "ogr_entidad": 6.0, "ogr_objeto": "Límite de la Zona Económica Exclusiva", "ogr_fdc": "Servicio de Hidrografía Naval", "ogr_sag": "Servicio de Hidrografía Naval" }, "geometry": { "type": "MultiLineString", "coordinates": [ [ [ -52.690764299999955, -37.924294897999971, 0.0 ], [ -52.692983699999957, -37.929569097999945, 0.0 ], [ -52.704081199999962, -37.957691697999962, 0.0 ], [ -52.715178699999967, -37.985803497999939, 0.0 ], [ -52.728495599999974, -38.013904397999966, 0.0 ], [ -52.739593099999979, -38.041994497999951, 0.0 ], [ -52.752910099999951, -38.070073697999931, 0.0 ], [ -52.766227, -38.09814199799996, 0.0 ], [ -52.777324499999963, -38.12444619799993, 0.0 ], [ -52.79064139999997, -38.152493497999956, 0.0 ], [ -52.806177899999966, -38.180529897999975, 0.0 ], [ -52.819494799999973, -38.20855539799993, 0.0 ], [ -52.835031299999969, -38.234819497999979, 0.0 ], [ -52.848348299999941, -38.262823897999965, 0.0 ], [ -52.863884699999971, -38.289068197999939, 0.0 ], [ -52.879421199999967, -38.317051597999978, 0.0 ], [ -52.894957599999941, -38.343276097999933, 0.0 ], [ -52.910494099999937, -38.369491097999969, 0.0 ], [ -52.926030499999968, -38.39744309799994, 0.0 ], [ -52.943786499999931, -38.423638297999958, 0.0 ], [ -52.961542399999985, -38.449823897999977, 0.0 ], [ -52.977078899999981, -38.475999897999941, 0.0 ], [ -52.994834799999978, -38.502166397999929, 0.0 ], [ -53.012590699999976, -38.528323297999975, 0.0 ], [ -53.030346699999939, -38.554470497999944, 0.0 ], [ -53.05032209999996, -38.580608197999936, 0.0 ], [ -53.06807809999998, -38.60499479799995, 0.0 ], [ -53.088053499999944, -38.631113897999967, 0.0 ], [ -53.105809399999941, -38.655483197999956, 0.0 ], [ -53.125784899999985, -38.681583797999963, 0.0 ], [ -53.145760299999949, -38.705935697999962, 0.0 ], [ -53.165735799999936, -38.732017797999958, 0.0 ], [ -53.187930699999981, -38.756352397999933, 0.0 ], [ -53.207906099999946, -38.780678597999952, 0.0 ], [ -53.230101099999956, -38.80499649799998, 0.0 ], [ -53.243418, -38.832778097999949, 0.0 ], [ -53.258954499999959, -38.860548797999968, 0.0 ], [ -53.274490899999932, -38.888308597999981, 0.0 ], [ -53.290027399999985, -38.914323397999965, 0.0 ], [ -53.305563799999959, -38.942061997999929, 0.0 ], [ -53.321100299999955, -38.968056997999952, 0.0 ], [ -53.338856199999952, -38.99577439799998, 0.0 ], [ -53.356612199999972, -39.021749497999963, 0.0 ], [ -53.372148599999946, -39.047714997999947, 0.0 ], [ -53.389904599999966, -39.075400997999964, 0.0 ], [ -53.407660499999963, -39.101346597999964, 0.0 ], [ -53.425416399999961, -39.127282597999965, 0.0 ], [ -53.445391899999947, -39.153208997999968, 0.0 ], [ -53.463147799999945, -39.17912569799995, 0.0 ], [ -53.483123299999932, -39.205032797999934, 0.0 ], [ -53.503098699999953, -39.230930297999976, 0.0 ], [ -53.523074099999974, -39.255092597999976, 0.0 ], [ -53.543049599999961, -39.280971497999985, 0.0 ], [ -53.563025, -39.306840697999974, 0.0 ], [ -53.583000399999946, -39.330976697999972, 0.0 ], [ -53.596317399999975, -39.358550297999955, 0.0 ], [ -53.609634399999948, -39.38611299799993, 0.0 ], [ -53.625170799999978, -39.413664697999934, 0.0 ], [ -53.63848779999995, -39.441205397999965, 0.0 ], [ -53.654024199999981, -39.468735197999933, 0.0 ], [ -53.669560699999977, -39.496253997999929, 0.0 ], [ -53.682877599999983, -39.522042797999973, 0.0 ], [ -53.700633599999946, -39.549540397999976, 0.0 ], [ -53.71617, -39.577026897999929, 0.0 ], [ -53.731706499999973, -39.602785497999946, 0.0 ], [ -53.74946239999997, -39.630250797999963, 0.0 ], [ -53.764998899999966, -39.65598949799994, 0.0 ], [ -53.782754799999964, -39.681718497999952, 0.0 ], [ -53.800510799999984, -39.70915219799997, 0.0 ], [ -53.818266699999981, -39.734861297999942, 0.0 ], [ -53.836022599999978, -39.760560697999949, 0.0 ], [ -53.855998099999965, -39.786250497999958, 0.0 ], [ -53.873754, -39.811930597999947, 0.0 ], [ -53.893729499999949, -39.837600997999971, 0.0 ], [ -53.911485399999947, -39.863261697999974, 0.0 ], [ -53.931460799999968, -39.888912797999978, 0.0 ], [ -53.951436299999955, -39.912845097999934, 0.0 ], [ -53.973631199999943, -39.938477497999941, 0.0 ], [ -53.993606699999987, -39.964100197999983, 0.0 ], [ -54.013582099999951, -39.988005997999949, 0.0 ], [ -54.035777, -40.011903397999959, 0.0 ], [ -54.051313499999935, -40.037498397999968, 0.0 ], [ -54.077947399999971, -40.061378297999966, 0.0 ], [ -54.100142299999959, -40.08524979799995, 0.0 ], [ -54.124556699999971, -40.109112797999956, 0.0 ], [ -54.146751699999982, -40.132967497999971, 0.0 ], [ -54.16894659999997, -40.156813597999985, 0.0 ], [ -54.193361, -40.180651397999952, 0.0 ], [ -54.215556, -40.202778897999963, 0.0 ], [ -54.239970399999947, -40.226600297999937, 0.0 ], [ -54.264384799999959, -40.250413397999978, 0.0 ], [ -54.288799199999971, -40.272517897999933, 0.0 ], [ -54.313213599999983, -40.294615197999974, 0.0 ], [ -54.337628099999961, -40.318404097999974, 0.0 ], [ -54.364262, -40.340486197999951, 0.0 ], [ -54.388676399999952, -40.362561097999958, 0.0 ], [ -54.415310299999931, -40.384628597999949, 0.0 ], [ -54.441944199999966, -40.404992297999968, 0.0 ], [ -54.466358699999944, -40.427045797999938, 0.0 ], [ -54.49299259999998, -40.449092097999937, 0.0 ], [ -54.521846, -40.469435997999938, 0.0 ], [ -54.548479899999961, -40.491468297999972, 0.0 ], [ -54.577333299999964, -40.515187197999978, 0.0 ], [ -54.606186699999967, -40.537204397999972, 0.0 ], [ -54.637259599999936, -40.56090699799995, 0.0 ], [ -54.666113, -40.584601097999951, 0.0 ], [ -54.697185899999965, -40.606595297999945, 0.0 ], [ -54.728258799999935, -40.628582097999981, 0.0 ], [ -54.754892799999936, -40.650561697999933, 0.0 ], [ -54.783746199999939, -40.670843997999953, 0.0 ], [ -54.812599599999942, -40.691120197999965, 0.0 ], [ -54.841453, -40.711390097999981, 0.0 ], [ -54.872525899999971, -40.731653797999968, 0.0 ], [ -54.901379299999974, -40.750223397999946, 0.0 ], [ -54.930232699999976, -40.770475197999986, 0.0 ], [ -54.961305599999946, -40.789033797999934, 0.0 ], [ -54.992378499999973, -40.80927369799997, 0.0 ], [ -55.021231899999975, -40.827821397999969, 0.0 ], [ -55.052304799999945, -40.846363997999958, 0.0 ], [ -55.083377699999971, -40.86490129799995, 0.0 ], [ -55.114450599999941, -40.883433297999943, 0.0 ], [ -55.145523499999967, -40.901960197999983, 0.0 ], [ -55.178815899999961, -40.918798197999934, 0.0 ], [ -55.209888799999931, -40.937315097999942, 0.0 ], [ -55.243181199999981, -40.954144097999972, 0.0 ], [ -55.272034599999984, -40.972650897999983, 0.0 ], [ -55.303107499999953, -40.989470797999957, 0.0 ], [ -55.33418039999998, -41.006286397999929, 0.0 ], [ -55.365253299999949, -41.024778497999932, 0.0 ], [ -55.396326199999976, -41.041584997999962, 0.0 ], [ -55.427399099999946, -41.058387197999934, 0.0 ], [ -55.460691499999939, -41.073505497999975, 0.0 ], [ -55.491764399999965, -41.090299397999956, 0.0 ], [ -55.525056799999959, -41.107088997999938, 0.0 ], [ -55.556129699999985, -41.122195997999938, 0.0 ], [ -55.589422099999979, -41.137299497999948, 0.0 ], [ -55.622714499999972, -41.152399497999966, 0.0 ], [ -55.653787399999942, -41.16749589799997, 0.0 ], [ -55.687079799999935, -41.182588897999949, 0.0 ], [ -55.720372199999986, -41.197678297999971, 0.0 ], [ -55.753664599999979, -41.212764297999968, 0.0 ], [ -55.78917649999994, -41.226171097999952, 0.0 ], [ -55.822468899999933, -41.239575097999932, 0.0 ], [ -55.855761299999983, -41.254651297999942, 0.0 ], [ -55.891273199999944, -41.26804939799996, 0.0 ], [ -55.924565599999937, -41.281444797999939, 0.0 ], [ -55.960077499999954, -41.293163497999956, 0.0 ], [ -55.993369899999948, -41.306553597999937, 0.0 ], [ -56.028881799999965, -41.319941097999958, 0.0 ], [ -56.06439359999996, -41.331652797999936, 0.0 ], [ -56.099905499999977, -41.343362297999931, 0.0 ], [ -56.133197899999971, -41.360086597999953, 0.0 ], [ -56.168709799999931, -41.375134797999976, 0.0 ], [ -56.204221699999948, -41.391850897999973, 0.0 ], [ -56.239733599999965, -41.406891597999959, 0.0 ], [ -56.277465, -41.421928897999976, 0.0 ], [ -56.312976899999967, -41.43696259799998, 0.0 ], [ -56.348488699999962, -41.450322997999933, 0.0 ], [ -56.386220099999946, -41.465350197999953, 0.0 ], [ -56.421732, -41.478704597999979, 0.0 ], [ -56.459463399999947, -41.492056397999932, 0.0 ], [ -56.497194799999932, -41.505405297999971, 0.0 ], [ -56.532706699999949, -41.518751497999972, 0.0 ], [ -56.570438, -41.532094897999968, 0.0 ], [ -56.608169399999952, -41.545435597999983, 0.0 ], [ -56.645900799999936, -41.557106297999951, 0.0 ], [ -56.685851699999944, -41.570441797999933, 0.0 ], [ -56.725802599999952, -41.583774397999946, 0.0 ], [ -56.765753399999937, -41.597104297999977, 0.0 ], [ -56.805704299999945, -41.610431397999946, 0.0 ], [ -56.845655199999953, -41.623755797999934, 0.0 ], [ -56.885606099999961, -41.635412297999949, 0.0 ], [ -56.92333739999998, -41.647066697999946, 0.0 ], [ -56.963288299999931, -41.658718997999983, 0.0 ], [ -57.001019699999972, -41.670369197999946, 0.0 ], [ -57.038751099999956, -41.680353297999943, 0.0 ], [ -57.076482499999941, -41.690335897999944, 0.0 ], [ -57.116433299999983, -41.701980297999967, 0.0 ], [ -57.154164699999967, -41.711959497999942, 0.0 ], [ -57.194115599999975, -41.721937197999978, 0.0 ], [ -57.231847, -41.730250697999963, 0.0 ], [ -57.271797799999945, -41.740225497999973, 0.0 ], [ -57.309529199999986, -41.750198697999963, 0.0 ], [ -57.345041099999946, -41.761832197999979, 0.0 ], [ -57.382772499999987, -41.771801997999944, 0.0 ], [ -57.420503899999972, -41.781770297999969, 0.0 ], [ -57.458235299999956, -41.793397997999932, 0.0 ], [ -57.498186099999941, -41.803362897999932, 0.0 ], [ -57.535917499999982, -41.814986697999984, 0.0 ], [ -57.573648899999966, -41.824948197999959, 0.0 ], [ -57.613599799999974, -41.834908197999937, 0.0 ], [ -57.651331099999936, -41.844866597999953, 0.0 ], [ -57.691282, -41.854823397999951, 0.0 ], [ -57.731232899999952, -41.864778697999952, 0.0 ], [ -57.768964299999936, -41.873073597999962, 0.0 ], [ -57.808915199999944, -41.883025997999937, 0.0 ], [ -57.848866, -41.891318497999976, 0.0 ], [ -57.888816899999938, -41.899609897999937, 0.0 ], [ -57.928767799999946, -41.907900197999936, 0.0 ], [ -57.968718599999931, -41.914531697999962, 0.0 ], [ -57.984255099999984, -41.941050597999947, 0.0 ], [ -57.99979159999998, -41.969214897999962, 0.0 ], [ -58.015328, -41.99571089799997, 0.0 ], [ -58.033083899999951, -42.02219589799995, 0.0 ], [ -58.073034799999959, -42.08174639799995, 0.0 ], [ -58.148497599999985, -42.189125697999941, 0.0 ], [ -58.159595, -42.203979097999934, 0.0 ], [ -58.179570499999954, -42.228726997999956, 0.0 ], [ -58.199545899999976, -42.255113997999956, 0.0 ], [ -58.219521399999962, -42.27984179799995, 0.0 ], [ -58.239496799999984, -42.304559697999935, 0.0 ], [ -58.259472199999948, -42.329267897999955, 0.0 ], [ -58.281667199999958, -42.355612497999971, 0.0 ], [ -58.30164259999998, -42.38030049799994, 0.0 ], [ -58.323837499999968, -42.403333797999949, 0.0 ], [ -58.346032499999978, -42.428002897999932, 0.0 ], [ -58.368227399999967, -42.452662197999985, 0.0 ], [ -58.390422299999955, -42.47731179799996, 0.0 ], [ -58.425934199999972, -42.511804697999935, 0.0 ], [ -58.459226599999965, -42.547919597999964, 0.0 ], [ -58.479202, -42.574171797999952, 0.0 ], [ -58.499177499999973, -42.600412797999979, 0.0 ], [ -58.519152899999938, -42.626642697999955, 0.0 ], [ -58.539128399999981, -42.652861497999936, 0.0 ], [ -58.56132329999997, -42.677431497999976, 0.0 ], [ -58.583518199999958, -42.703628797999954, 0.0 ], [ -58.603493699999945, -42.728178597999943, 0.0 ], [ -58.625688599999933, -42.75435419799993, 0.0 ], [ -58.647883499999978, -42.778883797999981, 0.0 ], [ -58.672297899999933, -42.803403597999932, 0.0 ], [ -58.694492899999943, -42.827913597999952, 0.0 ], [ -58.716687799999931, -42.85241379799993, 0.0 ], [ -58.741102199999943, -42.876904197999977, 0.0 ], [ -58.765516599999955, -42.901384897999947, 0.0 ], [ -58.789931099999933, -42.925855697999964, 0.0 ], [ -58.814345499999945, -42.94868639799995, 0.0 ], [ -58.838759899999957, -42.973138297999981, 0.0 ], [ -58.863174299999969, -42.995951297999966, 0.0 ], [ -58.88980829999997, -43.020384297999954, 0.0 ], [ -58.914222699999982, -43.043179597999938, 0.0 ], [ -58.940856599999961, -43.065966397999944, 0.0 ], [ -58.96749049999994, -43.088744697999971, 0.0 ], [ -58.994124399999976, -43.11151439799994, 0.0 ], [ -59.020758299999954, -43.134275597999931, 0.0 ], [ -59.049611699999957, -43.157028297999943, 0.0 ], [ -59.076245699999959, -43.178148097999951, 0.0 ], [ -59.105099099999961, -43.200884397999971, 0.0 ], [ -59.107318599999985, -43.23010409799997, 0.0 ], [ -59.113977, -43.259309797999947, 0.0 ], [ -59.118416, -43.286879897999938, 0.0 ], [ -59.122855, -43.316058197999951, 0.0 ], [ -59.129513499999973, -43.345222297999953, 0.0 ], [ -59.136172, -43.374372297999969, 0.0 ], [ -59.140611, -43.403508297999963, 0.0 ], [ -59.147269399999971, -43.431012597999938, 0.0 ], [ -59.156147399999952, -43.460121097999945, 0.0 ], [ -59.162805899999967, -43.489215497999965, 0.0 ], [ -59.171683899999948, -43.516680497999971, 0.0 ], [ -59.17834229999994, -43.545747497999969, 0.0 ], [ -59.187220299999979, -43.574800297999957, 0.0 ], [ -59.19609829999996, -43.602226197999983, 0.0 ], [ -59.204976299999942, -43.631251597999949, 0.0 ], [ -59.216073699999981, -43.658651497999983, 0.0 ], [ -59.224951699999963, -43.687649497999985, 0.0 ], [ -59.236049199999968, -43.715023497999937, 0.0 ], [ -59.244927099999984, -43.743994097999973, 0.0 ], [ -59.256024599999932, -43.771342197999957, 0.0 ], [ -59.267122099999938, -43.800285297999949, 0.0 ], [ -59.280439, -43.827607497999963, 0.0 ], [ -59.29153649999995, -43.85491709799993, 0.0 ], [ -59.304853399999956, -43.883819397999957, 0.0 ], [ -59.315950899999962, -43.911103097999955, 0.0 ], [ -59.329267899999934, -43.938374197999963, 0.0 ], [ -59.342584799999941, -43.965632797999945, 0.0 ], [ -59.35590179999997, -43.99287869799997, 0.0 ], [ -59.371438199999943, -44.020111997999948, 0.0 ], [ -59.384755199999972, -44.047332797999957, 0.0 ], [ -59.400291599999946, -44.074540897999952, 0.0 ], [ -59.415828099999942, -44.10173649799998, 0.0 ], [ -59.431364499999972, -44.128919397999937, 0.0 ], [ -59.446901, -44.156089797999982, 0.0 ], [ -59.462437499999965, -44.18324759799998, 0.0 ], [ -59.480193399999962, -44.208796397999947, 0.0 ], [ -59.495729799999935, -44.23592969799995, 0.0 ], [ -59.513485799999955, -44.261455497999975, 0.0 ], [ -59.531241699999953, -44.288564397999949, 0.0 ], [ -59.548997699999973, -44.314067197999975, 0.0 ], [ -59.56675359999997, -44.341151597999954, 0.0 ], [ -59.584509599999933, -44.366631397999981, 0.0 ], [ -59.604485, -44.392099997999935, 0.0 ], [ -59.622240899999952, -44.417557397999985, 0.0 ], [ -59.642216399999938, -44.443003697999984, 0.0 ], [ -59.66219179999996, -44.468438897999931, 0.0 ], [ -59.682167299999946, -44.493862797999952, 0.0 ], [ -59.702142699999968, -44.519275697999944, 0.0 ], [ -59.724337599999956, -44.544677297999954, 0.0 ], [ -59.744313099999943, -44.570067897999934, 0.0 ], [ -59.766508, -44.593861297999979, 0.0 ], [ -59.786483399999952, -44.619230197999968, 0.0 ], [ -59.808678399999962, -44.643003497999985, 0.0 ], [ -59.830873299999951, -44.668350797999949, 0.0 ], [ -59.855287699999963, -44.692103697999983, 0.0 ], [ -59.877482599999951, -44.715846897999938, 0.0 ], [ -59.901897099999985, -44.739580197999942, 0.0 ], [ -59.924092, -44.763303797999981, 0.0 ], [ -59.948506399999985, -44.787017497999955, 0.0 ], [ -59.97292079999994, -44.810721397999941, 0.0 ], [ -59.997335299999975, -44.834415597999964, 0.0 ], [ -60.021749699999987, -44.858099897999978, 0.0 ], [ -60.046164099999942, -44.880196397999953, 0.0 ], [ -60.072798, -44.90386179799998, 0.0 ], [ -60.099431899999956, -44.925940597999954, 0.0 ], [ -60.123846399999934, -44.94801089799995, 0.0 ], [ -60.15048029999997, -44.970072697999967, 0.0 ], [ -60.177114199999949, -44.992125897999983, 0.0 ], [ -60.203748099999984, -45.014170597999964, 0.0 ], [ -60.232601499999987, -45.036206697999944, 0.0 ], [ -60.259235399999966, -45.058234297999945, 0.0 ], [ -60.285869399999967, -45.080253397999968, 0.0 ], [ -60.31472279999997, -45.100691997999945, 0.0 ], [ -60.343576199999973, -45.122694597999953, 0.0 ], [ -60.372429599999975, -45.14311799799998, 0.0 ], [ -60.401283, -45.163533897999969, 0.0 ], [ -60.430136399999981, -45.183942497999965, 0.0 ], [ -60.458989799999983, -45.204343797999968, 0.0 ], [ -60.490062699999953, -45.224737697999956, 0.0 ], [ -60.518916099999956, -45.245124197999985, 0.0 ], [ -60.549989, -45.263935997999965, 0.0 ], [ -60.581061899999952, -45.284308297999985, 0.0 ], [ -60.592159399999957, -45.31563609799997, 0.0 ], [ -60.603256899999963, -45.346946297999978, 0.0 ], [ -60.614354299999945, -45.37823919799996, 0.0 ], [ -60.627671299999975, -45.409514697999953, 0.0 ], [ -60.640988199999981, -45.440772697999932, 0.0 ], [ -60.654305199999953, -45.470451697999977, 0.0 ], [ -60.667622199999983, -45.501675697999985, 0.0 ], [ -60.680939099999932, -45.53288239799997, 0.0 ], [ -60.68537809999998, -45.562512497999933, 0.0 ], [ -60.689817099999971, -45.59056869799997, 0.0 ], [ -60.694256099999961, -45.620168297999953, 0.0 ], [ -60.700914599999976, -45.649752097999965, 0.0 ], [ -60.705353499999944, -45.679320197999971, 0.0 ], [ -60.712012, -45.708872597999971, 0.0 ], [ -60.718670499999973, -45.736855097999978, 0.0 ], [ -60.725329, -45.766376897999976, 0.0 ], [ -60.731987499999946, -45.795882897999945, 0.0 ], [ -60.740865399999961, -45.825373297999931, 0.0 ], [ -60.747523899999976, -45.853296997999962, 0.0 ], [ -60.756401899999958, -45.882756797999946, 0.0 ], [ -60.765279899999939, -45.912200797999958, 0.0 ], [ -60.774157799999955, -45.940080597999952, 0.0 ], [ -60.783035799999936, -45.969494097999984, 0.0 ], [ -60.791913799999975, -45.997344897999938, 0.0 ], [ -60.803011199999958, -46.026727797999968, 0.0 ], [ -60.814108699999963, -46.054549597999937, 0.0 ], [ -60.825206199999968, -46.083901897999965, 0.0 ], [ -60.836303599999951, -46.111694797999974, 0.0 ], [ -60.847401099999956, -46.139473597999938, 0.0 ], [ -60.858498599999962, -46.168780297999945, 0.0 ], [ -60.871815499999968, -46.196530097999982, 0.0 ], [ -60.885132499999941, -46.224265797999976, 0.0 ], [ -60.898449399999947, -46.25352709799995, 0.0 ], [ -60.911766399999976, -46.281233897999982, 0.0 ], [ -60.913985899999943, -46.324305297999956, 0.0 ], [ -60.918424899999934, -46.371951597999953, 0.0 ], [ -60.920644399999958, -46.418021197999963, 0.0 ], [ -60.925083299999983, -46.465585397999973, 0.0 ], [ -60.92730279999995, -46.513107697999942, 0.0 ], [ -60.931741799999941, -46.560588297999971, 0.0 ], [ -60.936180799999931, -46.60802709799998, 0.0 ], [ -60.938400299999955, -46.655424097999969, 0.0 ], [ -60.929522299999974, -46.682925797999985, 0.0 ], [ -60.922863899999982, -46.711940097999957, 0.0 ], [ -60.913985899999943, -46.740938597999957, 0.0 ], [ -60.907327399999986, -46.769921497999974, 0.0 ], [ -60.900668899999971, -46.79888879799995, 0.0 ], [ -60.894010399999956, -46.827840297999956, 0.0 ], [ -60.887352, -46.858298597999976, 0.0 ], [ -60.88069349999995, -46.887217997999983, 0.0 ], [ -60.871815499999968, -46.916121697999984, 0.0 ], [ -60.867376499999978, -46.945009597999956, 0.0 ], [ -60.860718099999985, -46.973881897999945, 0.0 ], [ -60.854059599999971, -47.002738597999951, 0.0 ], [ -60.84962059999998, -47.033096997999962, 0.0 ], [ -60.842962099999966, -47.061921497999947, 0.0 ], [ -60.838523099999975, -47.09073019799996, 0.0 ], [ -60.834084099999984, -47.121038297999974, 0.0 ], [ -60.83186459999996, -47.149814997999954, 0.0 ], [ -60.827425699999935, -47.180089197999962, 0.0 ], [ -60.825206199999968, -47.208833697999978, 0.0 ], [ -60.820767199999977, -47.237562397999966, 0.0 ], [ -60.818547699999954, -47.267786297999976, 0.0 ], [ -60.818547699999954, -47.296482997999931, 0.0 ], [ -60.816328199999987, -47.326672997999935, 0.0 ], [ -60.814108699999963, -47.356845697999972, 0.0 ], [ -60.814108699999963, -47.38549379799997, 0.0 ], [ -60.814108699999963, -47.415632597999945, 0.0 ], [ -60.814108699999963, -47.444248497999979, 0.0 ], [ -60.814108699999963, -47.474353597999936, 0.0 ], [ -60.807450199999948, -47.502937297999949, 0.0 ], [ -60.800791699999934, -47.533008497999958, 0.0 ], [ -60.794133299999942, -47.561560197999938, 0.0 ], [ -60.787474799999984, -47.591597597999964, 0.0 ], [ -60.783035799999936, -47.62011709799998, 0.0 ], [ -60.780816299999969, -47.641121497999961, 0.0 ], [ -60.778596799999946, -47.650120697999967, 0.0 ], [ -60.774157799999955, -47.678608097999984, 0.0 ], [ -60.729768, -47.683104697999966, 0.0 ], [ -60.687597599999947, -47.686102197999958, 0.0 ], [ -60.645427199999972, -47.690598097999953, 0.0 ], [ -60.601037399999939, -47.695093697999937, 0.0 ], [ -60.558867, -47.699588797999979, 0.0 ], [ -60.516696599999932, -47.705581697999946, 0.0 ], [ -60.47452629999998, -47.710075997999979, 0.0 ], [ -60.430136399999981, -47.716067697999961, 0.0 ], [ -60.387966, -47.722058697999955, 0.0 ], [ -60.34579569999994, -47.728048997999963, 0.0 ], [ -60.303625299999965, -47.734038697999949, 0.0 ], [ -60.261454899999933, -47.740027597999983, 0.0 ], [ -60.21928459999998, -47.746015897999939, 0.0 ], [ -60.177114199999949, -47.753500197999983, 0.0 ], [ -60.134943799999974, -47.760983497999973, 0.0 ], [ -60.092773499999964, -47.768465597999977, 0.0 ], [ -60.050603099999933, -47.775946697999984, 0.0 ], [ -60.008432699999958, -47.783426697999971, 0.0 ], [ -59.966262399999948, -47.790905597999938, 0.0 ], [ -59.92631149999994, -47.799878897999974, 0.0 ], [ -59.884141099999965, -47.807355497999936, 0.0 ], [ -59.841970799999956, -47.816325897999945, 0.0 ], [ -59.802019899999948, -47.825294697999936, 0.0 ], [ -59.753191, -47.829778597999962, 0.0 ], [ -59.706581699999958, -47.832767597999975, 0.0 ], [ -59.659972299999936, -47.837250797999957, 0.0 ], [ -59.611143499999969, -47.841733597999962, 0.0 ], [ -59.564534099999946, -47.846215997999934, 0.0 ], [ -59.517924799999946, -47.852191997999967, 0.0 ], [ -59.47131539999998, -47.856673497999964, 0.0 ], [ -59.422486599999957, -47.862648197999931, 0.0 ], [ -59.380316199999982, -47.861154597999985, 0.0 ], [ -59.335926299999983, -47.859660897999959, 0.0 ], [ -59.293756, -47.858167197999933, 0.0 ], [ -59.249366099999975, -47.856673497999964, 0.0 ], [ -59.204976299999942, -47.855179697999972, 0.0 ], [ -59.162805899999967, -47.855179697999972, 0.0 ], [ -59.118416, -47.855179697999972, 0.0 ], [ -59.074026199999935, -47.853685797999958, 0.0 ], [ -59.03185579999996, -47.853685797999958, 0.0 ], [ -58.987465899999961, -47.855179697999972, 0.0 ], [ -58.943076099999985, -47.855179697999972, 0.0 ], [ -58.900905699999953, -47.855179697999972, 0.0 ], [ -58.856515899999977, -47.856673497999964, 0.0 ], [ -58.812126, -47.858167197999933, 0.0 ], [ -58.769955599999946, -47.859660897999959, 0.0 ], [ -58.72556579999997, -47.861154597999985, 0.0 ], [ -58.683395399999938, -47.862648197999931, 0.0 ], [ -58.639005499999939, -47.865635297999972, 0.0 ], [ -58.594615699999963, -47.867128797999953, 0.0 ], [ -58.552445299999931, -47.87011569799995, 0.0 ], [ -58.508055499999955, -47.873102297999935, 0.0 ], [ -58.46588509999998, -47.876088797999955, 0.0 ], [ -58.421495199999981, -47.879075197999953, 0.0 ], [ -58.379324899999972, -47.883554297999979, 0.0 ], [ -58.334935, -47.888033097999937, 0.0 ], [ -58.292764599999941, -47.891018797999948, 0.0 ], [ -58.248374799999965, -47.895496897999976, 0.0 ], [ -58.206204399999933, -47.899974597999972, 0.0 ], [ -58.161814499999934, -47.904451997999956, 0.0 ], [ -58.119644199999982, -47.910421197999938, 0.0 ], [ -58.07747379999995, -47.914897597999982, 0.0 ], [ -58.033083899999951, -47.920865597999978, 0.0 ], [ -57.990913599999942, -47.92683289799993, 0.0 ], [ -57.948743199999967, -47.932799497999952, 0.0 ], [ -57.904353399999934, -47.93876539799993, 0.0 ], [ -57.862183, -47.946221797999954, 0.0 ], [ -57.820012599999984, -47.952186197999936, 0.0 ], [ -57.777842199999952, -47.959640597999964, 0.0 ], [ -57.735671899999943, -47.967093997999939, 0.0 ], [ -57.693501499999968, -47.97454629799995, 0.0 ], [ -57.651331099999936, -47.981997497999942, 0.0 ], [ -57.609160799999984, -47.98944759799997, 0.0 ], [ -57.566990399999952, -47.99838639799998, 0.0 ], [ -57.52482, -48.00583409799998, 0.0 ], [ -57.482649699999968, -48.014769997999963, 0.0 ], [ -57.440479299999936, -48.023704297999984, 0.0 ], [ -57.398308899999961, -48.029659697999932, 0.0 ], [ -57.353919099999985, -48.035614297999985, 0.0 ], [ -57.311748699999953, -48.041568297999959, 0.0 ], [ -57.267358899999977, -48.049009797999986, 0.0 ], [ -57.225188499999945, -48.054962197999942, 0.0 ], [ -57.180798599999946, -48.062401697999974, 0.0 ], [ -57.138628299999937, -48.069840197999952, 0.0 ], [ -57.096457899999962, -48.077277497999944, 0.0 ], [ -57.052068, -48.086200997999981, 0.0 ], [ -57.009897699999954, -48.093635897999945, 0.0 ], [ -56.967727299999979, -48.102556497999956, 0.0 ], [ -56.925556899999947, -48.109989097999971, 0.0 ], [ -56.881167099999971, -48.117420597999967, 0.0 ], [ -56.838996699999939, -48.123365097999965, 0.0 ], [ -56.796826299999964, -48.129308897999977, 0.0 ], [ -56.752436499999931, -48.136737597999968, 0.0 ], [ -56.710266099999956, -48.142679797999961, 0.0 ], [ -56.668095699999981, -48.150106497999957, 0.0 ], [ -56.625925399999971, -48.157532197999956, 0.0 ], [ -56.583755, -48.164956797999935, 0.0 ], [ -56.541584599999965, -48.173864997999942, 0.0 ], [ -56.499414299999955, -48.18128719799995, 0.0 ], [ -56.45724389999998, -48.190192397999965, 0.0 ], [ -56.415073499999949, -48.199096097999984, 0.0 ], [ -56.372903199999939, -48.20799829799995, 0.0 ], [ -56.330732799999964, -48.216898897999954, 0.0 ], [ -56.288562399999932, -48.225797897999939, 0.0 ], [ -56.248611599999947, -48.236178097999982, 0.0 ], [ -56.206441199999972, -48.245073797999964, 0.0 ], [ -56.16427079999994, -48.255450097999983, 0.0 ], [ -56.12432, -48.265824297999984, 0.0 ], [ -56.08214959999998, -48.276196297999945, 0.0 ], [ -56.042198699999972, -48.286566297999968, 0.0 ], [ -56.00002829999994, -48.298415097999964, 0.0 ], [ -55.960077499999954, -48.308780497999976, 0.0 ], [ -55.917907099999979, -48.320623997999974, 0.0 ], [ -55.877956199999971, -48.332464897999955, 0.0 ], [ -55.838005399999986, -48.344302897999967, 0.0 ], [ -55.798054499999978, -48.35613819799994, 0.0 ], [ -55.75810359999997, -48.367970697999965, 0.0 ], [ -55.718152699999962, -48.379800497999952, 0.0 ], [ -55.678201899999976, -48.393105697999943, 0.0 ], [ -55.638251, -48.406407397999942, 0.0 ], [ -55.59830009999996, -48.419705497999985, 0.0 ], [ -55.560568699999976, -48.433000197999945, 0.0 ], [ -55.520617799999968, -48.446291397999971, 0.0 ], [ -55.480667, -48.459579097999949, 0.0 ], [ -55.442935599999942, -48.474339097999973, 0.0 ], [ -55.402984699999934, -48.487619397999936, 0.0 ], [ -55.365253299999949, -48.502371197999935, 0.0 ], [ -55.327522, -48.517118697999933, 0.0 ], [ -55.289790599999947, -48.531861797999966, 0.0 ], [ -55.249839699999939, -48.546600597999941, 0.0 ], [ -55.212108299999954, -48.562808397999959, 0.0 ], [ -55.17437689999997, -48.577538197999957, 0.0 ], [ -55.138865099999975, -48.593735897999977, 0.0 ], [ -55.101133699999934, -48.609928497999931, 0.0 ], [ -55.06340229999995, -48.626115797999944, 0.0 ], [ -55.025670899999966, -48.642297897999981, 0.0 ], [ -54.990159, -48.658474797999986, 0.0 ], [ -54.952427599999965, -48.674646397999936, 0.0 ], [ -54.916915699999947, -48.692282297999952, 0.0 ], [ -54.881403899999953, -48.709911897999973, 0.0 ], [ -54.845892, -48.726066997999965, 0.0 ], [ -54.810380099999975, -48.743684697999981, 0.0 ], [ -54.774868199999958, -48.761296297999934, 0.0 ], [ -54.73935629999994, -48.778901597999948, 0.0 ], [ -54.70384439999998, -48.797966997999936, 0.0 ], [ -54.668332499999963, -48.815559397999948, 0.0 ], [ -54.635040099999969, -48.834610797999972, 0.0 ], [ -54.599528199999952, -48.853654997999968, 0.0 ], [ -54.566235899999981, -48.872691797999948, 0.0 ], [ -54.530724, -48.891721397999959, 0.0 ], [ -54.49743159999997, -48.910743697999976, 0.0 ], [ -54.461919699999953, -48.928296297999964, 0.0 ], [ -54.426407799999936, -48.945842597999956, 0.0 ], [ -54.393115399999942, -48.96484419799998, 0.0 ], [ -54.357603499999982, -48.982377597999971, 0.0 ], [ -54.322091599999965, -49.001365197999974, 0.0 ], [ -54.288799199999971, -49.020345497999983, 0.0 ], [ -54.255506799999978, -49.039318497999943, 0.0 ], [ -54.219994899999961, -49.058284197999967, 0.0 ], [ -54.186702499999967, -49.077242697999964, 0.0 ], [ -54.153410199999939, -49.097651397999982, 0.0 ], [ -54.120117799999946, -49.116594697999972, 0.0 ], [ -54.086825399999952, -49.136987097999963, 0.0 ], [ -54.055752499999983, -49.157371097999942, 0.0 ], [ -54.022460099999932, -49.177746597999942, 0.0 ], [ -53.991387199999963, -49.198113697999986, 0.0 ], [ -53.958094799999969, -49.218472297999938, 0.0 ], [ -53.927021899999943, -49.238822597999956, 0.0 ], [ -53.895949, -49.260616997999932, 0.0 ], [ -53.864876099999947, -49.280949797999938, 0.0 ], [ -53.833803199999977, -49.302725597999938, 0.0 ], [ -53.802730299999951, -49.324491697999974, 0.0 ], [ -53.771657399999981, -49.346248097999933, 0.0 ], [ -53.742803899999956, -49.367994797999984, 0.0 ], [ -53.711731, -49.38973189799998, 0.0 ], [ -53.682877599999983, -49.411459297999954, 0.0 ], [ -53.654024199999981, -49.434624497999948, 0.0 ], [ -53.625170799999978, -49.456331997999939, 0.0 ], [ -53.596317399999975, -49.479475897999976, 0.0 ], [ -53.567464, -49.502608897999949, 0.0 ], [ -53.53861059999997, -49.525730797999984, 0.0 ], [ -53.511976699999934, -49.548841797999955, 0.0 ], [ -53.483123299999932, -49.571941697999932, 0.0 ], [ -53.456489299999987, -49.59503069799996, 0.0 ], [ -53.429855399999951, -49.618108697999958, 0.0 ], [ -53.403221499999972, -49.642616997999937, 0.0 ], [ -53.376587599999937, -49.66567239799997, 0.0 ], [ -53.349953699999958, -49.69015659799993, 0.0 ], [ -53.323319799999979, -49.714628497999968, 0.0 ], [ -53.298905299999944, -49.739087997999945, 0.0 ], [ -53.272271399999966, -49.763534997999955, 0.0 ], [ -53.247857, -49.787969697999984, 0.0 ], [ -53.223442599999942, -49.812391997999953, 0.0 ], [ -53.199028199999987, -49.836801897999976, 0.0 ], [ -53.174613699999952, -49.862634197999967, 0.0 ], [ -53.152418799999964, -49.887018597999941, 0.0 ], [ -53.128004399999952, -49.912823897999942, 0.0 ], [ -53.105809399999941, -49.937182897999946, 0.0 ], [ -53.083614499999953, -49.962961197999959, 0.0 ], [ -53.059200099999941, -49.988725597999974, 0.0 ], [ -53.039224699999977, -50.014476197999954, 0.0 ], [ -53.017029699999966, -50.040212897999936, 0.0 ], [ -52.994834799999978, -50.065935697999976, 0.0 ], [ -52.974859399999957, -50.093072597999935, 0.0 ], [ -52.952664399999946, -50.118766897999933, 0.0 ], [ -52.932689, -50.144447397999954, 0.0 ], [ -52.912713599999961, -50.171539597999981, 0.0 ], [ -52.892738099999974, -50.197191597999961, 0.0 ], [ -52.872762699999953, -50.224253597999962, 0.0 ], [ -52.855006699999933, -50.251300297999933, 0.0 ], [ -52.837250799999936, -50.278331497999943, 0.0 ], [ -52.817275399999971, -50.305347297999958, 0.0 ], [ -52.799519399999951, -50.332347697999978, 0.0 ], [ -52.781763499999954, -50.359332697999946, 0.0 ], [ -52.764007499999934, -50.386302197999953, 0.0 ], [ -52.748471099999961, -50.41325639799993, 0.0 ], [ -52.730715099999941, -50.441612497999984, 0.0 ], [ -52.715178699999967, -50.468534997999939, 0.0 ], [ -52.699642199999971, -50.496857797999951, 0.0 ], [ -52.684105799999941, -50.523748697999963, 0.0 ], [ -52.668569299999945, -50.552038297999957, 0.0 ], [ -52.655252399999938, -50.578897597999969, 0.0 ], [ -52.639715899999942, -50.607153897999979, 0.0 ], [ -52.626399, -50.635393197999974, 0.0 ], [ -52.613082, -50.663615397999934, 0.0 ], [ -52.599765, -50.691820597999936, 0.0 ], [ -52.586448099999984, -50.720008697999958, 0.0 ], [ -52.573131099999955, -50.748179797999967, 0.0 ], [ -52.562033699999972, -50.776333797999939, 0.0 ], [ -52.550936199999967, -50.804470897999977, 0.0 ], [ -52.537619199999938, -50.833996397999954, 0.0 ], [ -52.526521799999955, -50.862098597999932, 0.0 ], [ -52.517643799999973, -50.89018369799993, 0.0 ], [ -52.506546299999968, -50.919654697999931, 0.0 ], [ -52.466595499999983, -51.026155197999969, 0.0 ], [ -52.464376, -51.03315319799998, 0.0 ], [ -52.453278499999954, -51.061134597999967, 0.0 ], [ -52.444400499999972, -51.090496697999981, 0.0 ], [ -52.433303099999932, -51.118443297999931, 0.0 ], [ -52.424425099999951, -51.146372897999981, 0.0 ], [ -52.415547099999969, -51.175680597999985, 0.0 ], [ -52.406669099999931, -51.204969697999957, 0.0 ], [ -52.400010699999939, -51.232846597999981, 0.0 ], [ -52.391132699999957, -51.26209919799993, 0.0 ], [ -52.384474199999943, -51.291332997999973, 0.0 ], [ -52.377815699999985, -51.319157397999959, 0.0 ], [ -52.371157299999936, -51.34835469799998, 0.0 ], [ -52.364498799999978, -51.377533297999946, 0.0 ], [ -52.360059799999931, -51.406693297999936, 0.0 ], [ -52.353401299999973, -51.435834597999985, 0.0 ], [ -52.348962299999982, -51.464957197999979, 0.0 ], [ -52.344523299999935, -51.494061097999975, 0.0 ], [ -52.340084399999967, -51.523146397999938, 0.0 ], [ -52.337864899999943, -51.552212997999959, 0.0 ], [ -52.333425899999952, -51.581260897999982, 0.0 ], [ -52.331206399999985, -51.610290197999973, 0.0 ], [ -52.328986899999961, -51.639300797999965, 0.0 ], [ -52.326767399999937, -51.668292797999982, 0.0 ], [ -52.32454789999997, -51.697266197999966, 0.0 ], [ -52.32454789999997, -51.726220897999951, 0.0 ], [ -52.322328399999947, -51.755156997999961, 0.0 ], [ -52.322328399999947, -51.785450997999931, 0.0 ], [ -52.322328399999947, -51.814348997999957, 0.0 ], [ -52.322328399999947, -51.843228397999951, 0.0 ], [ -52.32454789999997, -51.872089097999947, 0.0 ], [ -52.32454789999997, -51.902304197999968, 0.0 ], [ -52.326767399999937, -51.931126897999945, 0.0 ], [ -52.328986899999961, -51.959930897999982, 0.0 ], [ -52.331206399999985, -51.988716397999951, 0.0 ], [ -52.333425899999952, -52.018852697999932, 0.0 ], [ -52.337864899999943, -52.047600097999975, 0.0 ], [ -52.342303799999968, -52.076328897999986, 0.0 ], [ -52.344523299999935, -52.105039197999986, 0.0 ], [ -52.351181799999949, -52.135096697999984, 0.0 ], [ -52.35562079999994, -52.163768997999966, 0.0 ], [ -52.360059799999931, -52.192422697999973, 0.0 ], [ -52.366718299999945, -52.22105789799997, 0.0 ], [ -52.373376699999938, -52.25103669799995, 0.0 ], [ -52.380035199999952, -52.279633897999986, 0.0 ], [ -52.386693699999967, -52.308212597999955, 0.0 ], [ -52.393352199999981, -52.336772697999947, 0.0 ], [ -52.402230199999963, -52.36531429799993, 0.0 ], [ -52.411108099999979, -52.395195097999931, 0.0 ], [ -52.41998609999996, -52.423698797999975, 0.0 ], [ -52.428864099999942, -52.452183997999953, 0.0 ], [ -52.437742, -52.480650697999977, 0.0 ], [ -52.448839499999963, -52.509098897999934, 0.0 ], [ -52.457717499999944, -52.537528497999972, 0.0 ], [ -52.468814899999984, -52.565939697999966, 0.0 ], [ -52.479912399999932, -52.594332397999949, 0.0 ], [ -52.493229399999962, -52.622706697999945, 0.0 ], [ -52.504326799999944, -52.651062397999965, 0.0 ], [ -52.517643799999973, -52.679399697999941, 0.0 ], [ -52.530960799999946, -52.706370397999933, 0.0 ], [ -52.544277699999952, -52.734671697999943, 0.0 ], [ -52.557594699999981, -52.762954497999942, 0.0 ], [ -52.573131099999955, -52.791218797999932, 0.0 ], [ -52.586448099999984, -52.818120097999952, 0.0 ], [ -52.601984499999958, -52.846348497999941, 0.0 ], [ -52.617521, -52.874558397999976, 0.0 ], [ -52.633057399999984, -52.901407897999945, 0.0 ], [ -52.650813399999947, -52.928240597999945, 0.0 ], [ -52.666349799999978, -52.956396997999946, 0.0 ], [ -52.684105799999941, -52.983195497999986, 0.0 ], [ -52.701861699999938, -53.011315997999986, 0.0 ], [ -52.719617699999958, -53.038080297999954, 0.0 ], [ -52.737373599999955, -53.064827897999976, 0.0 ], [ -52.757349, -53.091558797999937, 0.0 ], [ -52.775105, -53.118273097999975, 0.0 ], [ -52.795080399999961, -53.144970697999952, 0.0 ], [ -52.815055899999948, -53.171651597999983, 0.0 ], [ -52.837250799999936, -53.198315897999976, 0.0 ], [ -52.857226199999957, -53.224963497999966, 0.0 ], [ -52.879421199999967, -53.250263297999936, 0.0 ], [ -52.901616099999956, -53.276878397999951, 0.0 ], [ -52.923811, -53.302147397999931, 0.0 ], [ -52.946005899999932, -53.328730097999937, 0.0 ], [ -52.968200899999943, -53.353968197999961, 0.0 ], [ -52.992615299999954, -53.379191397999932, 0.0 ], [ -53.014810199999943, -53.405725797999935, 0.0 ], [ -53.039224699999977, -53.430918197999972, 0.0 ], [ -53.063639099999932, -53.456095497999968, 0.0 ], [ -53.090273, -53.481257897999967, 0.0 ], [ -53.11468739999998, -53.506405297999947, 0.0 ], [ -53.139101799999935, -53.531537697999966, 0.0 ], [ -53.165735799999936, -53.557976697999948, 0.0 ], [ -53.192369699999972, -53.583078297999975, 0.0 ], [ -53.219003599999951, -53.60816499799995, 0.0 ], [ -53.245637499999987, -53.633236797999984, 0.0 ], [ -53.272271399999966, -53.658293497999978, 0.0 ], [ -53.301124799999968, -53.682017697999981, 0.0 ], [ -53.329978199999971, -53.707045397999934, 0.0 ], [ -53.358831699999939, -53.732058097999982, 0.0 ], [ -53.387685099999942, -53.755740497999966, 0.0 ], [ -53.416538499999945, -53.779409597999972, 0.0 ], [ -53.447611399999971, -53.803065197999956, 0.0 ], [ -53.476464799999974, -53.826707497999962, 0.0 ], [ -53.507537699999943, -53.850336297999945, 0.0 ], [ -53.53861059999997, -53.87395179799995, 0.0 ], [ -53.56968349999994, -53.897553797999933, 0.0 ], [ -53.602975899999933, -53.919832397999983, 0.0 ], [ -53.63404879999996, -53.943408397999974, 0.0 ], [ -53.667341199999953, -53.965662397999949, 0.0 ], [ -53.700633599999946, -53.987904397999955, 0.0 ], [ -53.733926, -54.010134497999957, 0.0 ], [ -53.767218399999933, -54.032352697999954, 0.0 ], [ -53.800510799999984, -54.054558997999948, 0.0 ], [ -53.836022599999978, -54.076753397999937, 0.0 ], [ -53.871534499999939, -54.097631297999953, 0.0 ], [ -53.907046399999956, -54.119802497999956, 0.0 ], [ -53.942558299999973, -54.140658697999982, 0.0 ], [ -53.978070199999934, -54.161504297999954, 0.0 ], [ -54.013582099999951, -54.182339297999931, 0.0 ], [ -54.051313499999935, -54.203163897999957, 0.0 ], [ -54.069069399999933, -54.230479997999964, 0.0 ], [ -54.086825399999952, -54.256478597999944, 0.0 ], [ -54.106800799999974, -54.283759397999972, 0.0 ], [ -54.126776199999938, -54.311021997999944, 0.0 ], [ -54.146751699999982, -54.336969597999939, 0.0 ], [ -54.166727099999946, -54.364196797999966, 0.0 ], [ -54.188922, -54.390110697999944, 0.0 ], [ -54.208897499999978, -54.416008097999963, 0.0 ], [ -54.231092399999966, -54.443182697999987, 0.0 ], [ -54.253287299999954, -54.469046497999955, 0.0 ], [ -54.275482299999965, -54.494893797999964, 0.0 ], [ -54.299896699999977, -54.520724797999947, 0.0 ], [ -54.322091599999965, -54.546539297999971, 0.0 ], [ -54.346506, -54.572337497999968, 0.0 ], [ -54.370920499999954, -54.598119197999949, 0.0 ], [ -54.395334899999966, -54.622596697999938, 0.0 ], [ -54.419749299999978, -54.648346497999967, 0.0 ], [ -54.446383199999957, -54.672793697999964, 0.0 ], [ -54.473017099999936, -54.698511497999959, 0.0 ], [ -54.49743159999997, -54.722928397999965, 0.0 ], [ -54.524065499999949, -54.747330397999974, 0.0 ], [ -54.552918899999952, -54.773000797999941, 0.0 ], [ -54.579552799999931, -54.797372597999981, 0.0 ], [ -54.608406199999934, -54.820447997999963, 0.0 ], [ -54.635040099999969, -54.844791097999973, 0.0 ], [ -54.663893499999972, -54.869119397999953, 0.0 ], [ -54.694966399999942, -54.89343299799998, 0.0 ], [ -54.723819899999967, -54.916453297999965, 0.0 ], [ -54.752673299999969, -54.939460397999937, 0.0 ], [ -54.783746199999939, -54.963731297999971, 0.0 ], [ -54.814819099999966, -54.986711197999966, 0.0 ], [ -54.845892, -55.00967789799995, 0.0 ], [ -54.876964899999962, -55.032631497999944, 0.0 ], [ -54.908037799999931, -55.05557179799996, 0.0 ], [ -54.941330199999982, -55.077225497999962, 0.0 ], [ -54.974622599999975, -55.100140197999963, 0.0 ], [ -55.005695499999945, -55.12176969799998, 0.0 ], [ -55.041207399999962, -55.143387497999981, 0.0 ], [ -55.074499799999955, -55.166264097999942, 0.0 ], [ -55.107792099999983, -55.187857597999937, 0.0 ], [ -55.143304, -55.209439497999938, 0.0 ], [ -55.176596399999937, -55.229740997999954, 0.0 ], [ -55.212108299999954, -55.251299997999979, 0.0 ], [ -55.247620199999972, -55.271580197999981, 0.0 ], [ -55.283132099999932, -55.293116397999938, 0.0 ], [ -55.320863499999973, -55.313375097999938, 0.0 ], [ -55.356375399999934, -55.333623397999986, 0.0 ], [ -55.394106699999952, -55.35386129799997, 0.0 ], [ -55.431838099999936, -55.374088797999946, 0.0 ], [ -55.469569499999977, -55.393042697999931, 0.0 ], [ -55.507300899999962, -55.413250097999935, 0.0 ], [ -55.545032299999946, -55.432185097999934, 0.0 ], [ -55.582763699999987, -55.451110997999933, 0.0 ], [ -55.622714499999972, -55.470027797999933, 0.0 ], [ -55.66266539999998, -55.488935497999933, 0.0 ], [ -55.702616299999931, -55.507833997999967, 0.0 ], [ -55.742567199999939, -55.525464497999963, 0.0 ], [ -55.782518, -55.544345497999984, 0.0 ], [ -55.822468899999933, -55.561959497999965, 0.0 ], [ -55.864639299999965, -55.579565597999931, 0.0 ], [ -55.90459009999995, -55.597163697999974, 0.0 ], [ -55.946760499999982, -55.613497797999969, 0.0 ], [ -55.988930899999957, -55.631080697999948, 0.0 ], [ -56.031101199999966, -55.647400597999933, 0.0 ], [ -56.073271599999941, -55.663713597999958, 0.0 ], [ -56.115442, -55.680019797999933, 0.0 ], [ -56.157612299999982, -55.696319197999969, 0.0 ], [ -56.202002199999981, -55.712611797999955, 0.0 ], [ -56.244172599999956, -55.727645097999982, 0.0 ], [ -56.288562399999932, -55.743924497999956, 0.0 ], [ -56.332952299999931, -55.758945697999934, 0.0 ], [ -56.377342199999987, -55.77396099799995, 0.0 ], [ -56.421732, -55.788970497999969, 0.0 ], [ -56.466121899999962, -55.802724197999964, 0.0 ], [ -56.512731199999962, -55.816472897999972, 0.0 ], [ -56.557121099999961, -55.831465997999942, 0.0 ], [ -56.603730399999961, -55.845204597999953, 0.0 ], [ -56.64812029999996, -55.857689897999933, 0.0 ], [ -56.694729699999982, -55.871419197999955, 0.0 ], [ -56.741339, -55.885143597999956, 0.0 ], [ -56.787948399999948, -55.897616097999958, 0.0 ], [ -56.834557699999948, -55.910084497999947, 0.0 ], [ -56.881167099999971, -55.922548897999945, 0.0 ], [ -56.929995899999938, -55.933763497999962, 0.0 ], [ -56.97660529999996, -55.946220297999957, 0.0 ], [ -57.025434099999984, -55.957427997999957, 0.0 ], [ -57.07204349999995, -55.968632397999954, 0.0 ], [ -57.120872299999974, -55.979833497999948, 0.0 ], [ -57.169701199999963, -55.991031397999961, 0.0 ], [ -57.216310499999963, -56.000982397999962, 0.0 ], [ -57.265139399999953, -56.010930797999947, 0.0 ], [ -57.313968199999977, -56.020876597999973, 0.0 ], [ -57.362797099999966, -56.030819797999982, 0.0 ], [ -57.413845399999957, -56.040760497999941, 0.0 ], [ -57.462674199999981, -56.049456497999984, 0.0 ], [ -57.51150309999997, -56.058150497999975, 0.0 ], [ -57.562551399999961, -56.066842497999971, 0.0 ], [ -57.611380299999951, -56.075532597999938, 0.0 ], [ -57.662428599999942, -56.084220697999967, 0.0 ], [ -57.711257499999931, -56.091666097999962, 0.0 ], [ -57.762305799999979, -56.09910999799996, 0.0 ], [ -57.81335409999997, -56.106552497999985, 0.0 ], [ -57.862183, -56.113993497999957, 0.0 ], [ -57.91323129999995, -56.120193297999947, 0.0 ], [ -57.964279699999963, -56.127631697999959, 0.0 ], [ -58.015328, -56.133829297999966, 0.0 ], [ -58.066376299999945, -56.138786597999967, 0.0 ], [ -58.117424699999958, -56.144982297999945, 0.0 ], [ -58.168473, -56.151177097999948, 0.0 ], [ -58.219521399999962, -56.156132197999966, 0.0 ], [ -58.270569699999953, -56.16108659799994, 0.0 ], [ -58.323837499999968, -56.164801997999973, 0.0 ], [ -58.374885899999981, -56.169755297999984, 0.0 ], [ -58.425934199999972, -56.173469897999951, 0.0 ], [ -58.479202, -56.177184097999941, 0.0 ], [ -58.530250399999943, -56.180897897999955, 0.0 ] ] ] } }
]
}
